ReviewUrl,name,Address,districtid,RestaurantId,RestaurantStatus,avgrating,TotalPictures,TotalSaves,TotalReviews,TotalFavourites,TotalViews,TotalCheckIns,Latitude,Longitude
/ho-chi-minh/xuc-xich-duc-mr-dieters/binh-luan,Xúc Xích Đức Mr. Dieters,"1527/7/4 Lê Văn Lương, Ấp 2, X. Nhơn Đức",699,69068,2,7.414,175,0,55,462,78802,50,10.685454,106.701576
/ho-chi-minh/khu-am-thuc-sinh-thai-thap-nga-binh-xuyen-2/binh-luan,Tháp Ngà - Ẩm Thực Sinh Thái Bình Xuyên 2,"168 Nguyễn Hữu Thọ, P. Phước Kiểng",699,68867,2,6.632,708,0,70,70,69073,29,10.699058,106.713983
/ho-chi-minh/banh-canh-ben-co-tran-hung-dao/binh-luan,Bánh Canh Bến Có - Nguyễn Hữu Thọ,"79 Nguyễn Hữu Thọ, X. Phước Kiển",699,110278,2,7.14,219,0,46,48,13466,14,10.7140883,106.7058236
/ho-chi-minh/co-gia-quy-cafe-restaurant/binh-luan,Cổ Gia Quý - Cafe & Restaurant,"802A Nguyễn Văn Tạo, X. Hiệp Phước",699,34723,2,8.2,369,0,19,55,18365,8,10.62926,106.736517
/ho-chi-minh/quan-an-tam-ky-huynh-tan-phat/binh-luan,Quán Ăn Tâm Ký - Huỳnh Tấn Phát,1949 Huỳnh Tấn Phát,699,42625,2,7.01,225,0,26,11,7552,6,10.6970048,106.7396561
/ho-chi-minh/em-la-nem-quan-nem-nuong/binh-luan,Em Là Nem - Quán Nem Nướng,"B01.04 Sunrise Riverside, X. Phước Kiển",699,995472,2,8.392,76,0,23,29,1070,4,10.7221959,106.7040673
/ho-chi-minh/hoa-ban-dac-san-tay-bac/binh-luan,Hoa Ban - Đặc sản Tây Bắc,"101/45 Lê Văn Lương, Phước Kiển",699,36,2,7.114,122,0,16,20,16687,16,10.711877,106.705163
/ho-chi-minh/beo-bakery-banh-bong-lan-trung-muoi-huynh-tan-phat/binh-luan,Beo Bakery - Bánh Bông Lan Trứng Muối - Huỳnh Tấn Phát,"1896 Huỳnh Tấn Phát, Xã Phú Xuân",699,277259,2,8.794,57,0,33,9,1515,1,10.696683,106.739421
/ho-chi-minh/chat-lu-mi-xao-hai-san-shop-online/binh-luan,Chất Lừ - Mì Xào Hải Sản - Shop Online,"928 Lê Văn Lương, Xã Phước Kiển",699,1049629,2,9.36,14,0,42,6,388,5,10.7141861029196,106.700726151466
/ho-chi-minh/nha-hang-368-am-thuc-viet-han/binh-luan,Nhà Hàng 368 - Ẩm Thực Việt Hàn,"915/5 Lê Văn Lương, X. Phước Kiển",699,232423,2,7.152,191,0,24,3,1064,8,10.7151459948807,106.7033214937789
/ho-chi-minh/meo-luoi-tea-coffee/binh-luan,Mèo Lười - Tea & Coffee,433 Huỳnh Tấn Phát,699,724109,2,7.966,148,0,19,7,1393,3,10.689009,106.742388
/ho-chi-minh/xoi-man-banh-mi-888/binh-luan,Xôi Mặn & Bánh Mì 888,"943A Lê Văn Lương, Xã Phước Kiểng",699,1018833,2,9.85,54,4,8,8,224,31,10.7091772607992,106.7026349778764
/ho-chi-minh/7am-cafe-nguyen-huu-tho/binh-luan,7AM Cafe - Nguyễn Hữu Thọ,"12 Ngân Long, X. Phước Kiển",699,36173,2,7.734,12,0,3,6,36445,4,10.721945,106.701461
/ho-chi-minh/orange-box-coffee/binh-luan,Orange Box Coffee,"D1 - 4, Cao Ốc Phú Hoàng Anh, Nguyễn Hữu Thọ, Xã Phước Kiển",699,199730,2,7.7,39,0,2,4,36057,2,10.709423,106.709056
/ho-chi-minh/yao-coffee-nguyen-huu-tho/binh-luan,Yao Coffee - Nguyễn Hữu Thọ,"E1.2 Chung Cư Phú Hoàng Anh, Nguyễn Hữu Thọ",699,171441,2,6.734,40,0,3,2,35804,1,10.711252,106.704508
/ho-chi-minh/dao-hai-long-nha-hang-hai-san-dac-san/binh-luan,Đảo Hải Long - Nhà Hàng Hải Sản & Đặc Sản,"4/54 Nguyễn Văn Tạo, Ấp 1, Nhơn Đức",699,59910,2,6.74,223,0,10,12,15502,4,10.669194,106.725343
/ho-chi-minh/duc-duong-am-thuc-sinh-thai/binh-luan,Đức Dương - Ẩm Thực Sinh Thái,102 Lê Văn Lương,699,48043,2,7.76,93,0,5,13,12048,3,10.7079,106.701462
/ho-chi-minh/chao-vit-ut-be/binh-luan,Cháo Vịt Út Be,"237 Lê Văn Lương, P. Phước Kiểng",699,69084,2,7.43,71,0,13,31,11875,2,10.692786,106.703698
/ho-chi-minh/ong-binh-dan-buffet-hai-san/binh-luan,Ông Bình Dân - Buffet Hải Sản,"179A Nguyễn Hữu Thọ, Xã Nhơn Đức",699,866914,2,4.666,80,0,12,11,10651,1,10.669175,106.724875
/ho-chi-minh/bep-co-ba-mui-xoi-banh-mi-86-le-van-luong/binh-luan,Bếp Cô Ba Mùi - Xôi & Bánh Mì - 86 Lê Văn Lương,"86 Lê Văn Lương, X. Phước Kiển",699,1151064,2,0.0,0,0,0,0,2,0,10.707927,106.705169
/ho-chi-minh/banh-mi-ga-ghien-sunrise-riverside/binh-luan,Bánh Mì Gà GHIỀN - Sunrise Riverside,"01-08, Tháp D, Sunrise Riverside, Nguyễn Hữu Thọ, X. Phước Kiển",699,1150966,2,0.0,0,0,0,0,5,0,10.7228155,106.7039697
/ho-chi-minh/tra-sua-co-bay-tra-sua-nuoc-cac-loai-7-17a-ap-4/binh-luan,Trà Sữa Cô Bảy - Trà Sữa & Nước Các Loại - 7/17A Ấp 4,"2048 Lê Văn Lương, Ấp 4, X. Nhơn Đức",699,1150581,2,0.0,0,0,0,0,0,0,10.6571167,106.6883676
/ho-chi-minh/dim-sum-tac-nha-hang-mon-hoa-nguyen-huu-tho/binh-luan,Dim Sum Tac - Nhà Hàng Món Hoa - Nguyễn Hữu Thọ,"D0.03 26 Nguyễn Hữu Thọ, KP.Sài Gòn South, X. Phước Kiển",699,1000058021,2,8.6,0,0,1,0,4,0,10.71893,106.7022972
/ho-chi-minh/happy-juice-sinh-to-nuoc-ep-1885-huynh-tan-phat/binh-luan,Happy Juice - Sinh Tố & Nước Ép - 1885 Huỳnh Tấn Phát,"1885 Huỳnh Tấn Phát, X. Phú Xuân",699,1150495,2,0.0,0,0,0,0,1,0,10.6994654,106.7387025
/ho-chi-minh/ca-vien-chien-nuoc-mam-phu-quy-huynh-tan-phat/binh-luan,Cá Viên Chiên Nước Mắm - Phú Quý - Huỳnh Tấn Phát,"1897/151/27/22 Huỳnh Tấn Phát, TT. Nhà Bè",699,1000057957,2,0.0,0,0,0,0,4,0,10.6995645,106.739624
/ho-chi-minh/tai-phat-coffee-tea-nguyen-van-tao/binh-luan,Tài Phát Coffee & Tea - Nguyễn Văn Tạo,"328 Nguyễn Văn Tạo, P. Long Thới",699,1149915,2,0.0,0,0,0,0,4,0,10.65138,106.729897
/ho-chi-minh/che-ba-ba-dua-dam-hai-phong-duong-nguyen-huu-tho/binh-luan,Chè Bà Ba & Dừa Dầm Hải Phòng - Đường Nguyễn Hữu Thọ,"G0106 Chung Cư Sunrise Riverside, Nguyễn Hữu Thọ, X. Phước Kiển",699,1000057820,2,0.0,0,0,0,0,6,0,10.7235566,106.7036967
/ho-chi-minh/tra-sua-kong-s-le-van-luong/binh-luan,Trà Sữa Kong's - Lê Văn Lương,"863 Lê Văn Lương, X. Phước Kiển",699,1148576,2,0.0,0,0,0,0,1,0,10.716684,106.700089
/ho-chi-minh/huhahi-coffee-tea-diem-tam-chung-cu-phu-hoang-anh/binh-luan,HuHaHi Coffee & Tea - Điểm Tâm - Chung Cư Phú Hoàng Anh,"B1.3 Chung Cư Phú Hoàng Anh, Số 9 Nguyễn Hữu Thọ, X. Phước Kiển",699,1148080,2,0.0,0,0,0,0,3,0,10.691855,106.720466
/ho-chi-minh/bap-xao-trung-nuong-mien-an-vat-1038-le-van-luong/binh-luan,Bắp Xào Trứng Nướng Miên - Ăn Vặt - 1038 Lê Văn Lương ,"1038 Lê Văn Lương, Ấp 3, X. Phước Kiển",699,1000056711,2,0.0,0,0,0,0,1,0,10.7006172,106.7040986
/ho-chi-minh/bun-bo-o-my-nha-be-nguyen-binh/binh-luan,Bún Bò O Mỹ Nhà Bè - Nguyễn Bình,"17/7 Nguyễn Bình, Ấp 1, X. Phú Xuân",699,1147109,2,0.0,0,0,0,0,2,0,10.672974,106.730639
/ho-chi-minh/banh-mi-kebab-anh-hieu/binh-luan,Bánh Mì Kebab Anh Hiếu,161 Lê Văn Lương,699,756873,2,10.0,2,0,1,2,130,4,10.6960161102718,106.7047642171382
/ho-chi-minh/de-35-2234-huynh-tan-phat/binh-luan,Dê 35 - 2234 Huỳnh Tấn Phát,"2234 Huỳnh Tấn Phát, Thị Trấn Nhà Bè",699,1126754,2,10.0,3,0,2,0,51,1,10.6841035,106.7452264
/ho-chi-minh/mor-juice-nuoc-ep-nuoc-detox-sinh-to/binh-luan,"Mor Juice - Nước Ép, Nước Detox & Sinh Tố","24 Đường Số 6, Xã Phước Kiển",699,943636,2,10.0,0,0,2,1,57,1,10.718158,106.697273
/ho-chi-minh/tra-sua-moc-le-van-luong/binh-luan,Trà Sữa Mộc - Lê Văn Lương,"2001 Lê Văn Lương, Ấp 4, Xã Nhơn Đức",699,883910,2,10.0,4,0,1,0,130,3,10.6581130501736,106.6897864267229
/ho-chi-minh/com-tam-thao-nha-be/binh-luan,Cơm Tấm Thảo Nhà Bè,"38 Ấp 1, Xã Long Thới",699,1055255,2,10.0,5,0,1,0,68,1,10.640942,106.733595
/ho-chi-minh/la-caphe/binh-luan,Là Càphe - HAGL 3 New Sài Gòn,"C1.1 Hoàng Anh Gia Lai 3 New Sài Gòn, Nguyễn Hữu Thọ, X. Phước Kiển",699,645285,2,10.0,19,0,1,0,763,0,10.7197905167949,106.7013705919266
/ho-chi-minh/pho-bo-pho-ga-ha-noi/binh-luan,Phở Bò & Phở Gà Hà Nội,2315A Huỳnh Tấn Phát,699,716265,2,10.0,11,0,1,0,115,0,10.6811766,106.7473698
/ho-chi-minh/beo-tea-coffee-nguyen-binh/binh-luan,Béo Tea Coffee - Nguyễn Bình,"444 Nguyễn Bình, X. Phú Xuân",699,1131002,2,10.0,0,0,1,0,27,1,10.673327,106.7316845
/ho-chi-minh/the-coc-coffee-tea-food/binh-luan,The Cốc Coffee - Tea & Food,"189 Nguyễn Văn Tạo, X. Hiệp Phước",699,872647,2,10.0,8,0,1,0,312,0,10.639517,106.73342
/ho-chi-minh/yen-milk-tea-tra-dau-tam-tra-sua/binh-luan,YEN Milk Tea - Trà Dâu Tằm & Trà Sữa,"1078 Lê Văn Lương, X. Phước Kiểng",699,1136256,2,10.0,3,0,1,0,37,0,10.708314,106.698508
/ho-chi-minh/nguyen-coffee-nguyen-huu-tho/binh-luan,Nguyên Coffee,"DP06 Dragon Parc 2, 10 Nguyễn Hữu Thọ, Xã Phước Kiển",699,1065385,2,10.0,3,0,1,0,64,0,10.692456,106.718825
/ho-chi-minh/kiwiana-ice-cream-bakery/binh-luan,Kiwiana - Ice Cream & Bakery - Shop Online,"DP17, Nguyễn Hữu Thọ, P. Phước Kiển",699,686021,2,10.0,0,0,1,1,224,0,10.7026268,106.7145502999999
/ho-chi-minh/the-coffee-house-huynh-tan-phat/binh-luan,The Coffee House - Huỳnh Tấn Phát,2712 Huỳnh Tấn Phát,699,661952,2,7.28,72,0,15,3,2781,2,10.674477,106.763624
/ho-chi-minh/nha-hang-hong-kong-hong-kong-restaurant/binh-luan,Nhà Hàng Hong Kong - Hong Kong Restaurant,"Khu Kenton Node, 116A Nguyễn Hữu Thọ, Xã Phước Kiển",699,743258,2,8.002,104,0,8,26,2846,2,10.7227211,106.7001456
/ho-chi-minh/bang-lang-banh-xeo-rau-rung/binh-luan,Bằng Lăng - Bánh Xèo Rau Rừng,Đầu Hẻm 923 Đào Sư Tích,699,153094,2,8.112,34,0,9,17,1931,5,10.7109569,106.7019366
/ho-chi-minh/ha-cao-bin-map/binh-luan,Há Cảo Bin Mập,"960 Lê Văn Lương, P. Phước Kiển",699,1020878,2,0.0,4,0,0,0,37,0,10.823099,106.629664
/ho-chi-minh/tiem-che-khuc-bach-banh-gao-han-quoc/binh-luan,Tiệm Chè Khúc Bạch & Bánh Gạo Hàn Quốc,"2072 Huỳnh Tấn Phát, TT. Nhà Bè",699,936302,2,0.0,3,0,0,0,74,0,10.755993,106.666557
/ho-chi-minh/co-9-banh-beo-bo-song-bo-tay.dkfmps/binh-luan,Cô 9 - Bánh Bèo - Bờ Sông Bờ Tây,"77 Bờ Tây, Xã Phước Lộc",699,1000024154,2,0.0,0,0,0,0,41,0,10.7039299,106.6848655
/ho-chi-minh/awake-cafe/binh-luan,Awake Cafe,427 Đào Sư Tích,699,699107,2,0.0,0,0,0,0,22,0,10.696413,106.684973
/ho-chi-minh/hung-ky-com-ga-xoi-mo-cach-mang-thang-8/binh-luan,Hùng Ký - Cơm Gà Xối Mỡ - Cách Mạng Tháng 8,"85/3 Bờ Tây Kinh Cây Khô, Ấp 1, X. Phước Lộc",699,1039217,2,0.0,0,0,0,0,28,0,10.707526,106.686221
/ho-chi-minh/ha-cha-tra-sua-dong-chai-an-vat-duong-d4.p1czbt/binh-luan,Ha Cha - Trà Sữa Đóng Chai & Ăn Vặt - Đường D4,"73-79 Đường D4, X. Phước Lộc",699,1000033497,2,0.0,0,0,0,0,23,0,10.7076789,106.6863418
/ho-chi-minh/banh-cuon-ngoc-bich-nguyen-van-rang/binh-luan,Bánh Cuốn Ngọc Bích - Nguyễn Văn Ràng,"61A Nguyễn Văn Ràng, Ấp 1, X. Phước Lộc",699,1000024198,2,0.0,0,0,0,0,35,0,10.709324,106.6867161
/ho-chi-minh/quan-co-dung-banh-canh-tay-ninh/binh-luan,Quán Cô Dung - Bánh Canh Tây Ninh,8A Đào Sư Tích,699,238406,2,0.0,2,0,0,0,57,0,10.6992603,106.6861828999999
/ho-chi-minh/ao-ba-ba-coffee/binh-luan,Áo Bà Ba Coffee,"8D Đào Sư Tích, Xã Phước Kiển",699,238407,2,0.0,2,0,0,0,49,0,10.6992603,106.6861828999999
/ho-chi-minh/the-moka-coffee-dao-su-tich/binh-luan,The Moka Coffee - Đào Sư Tích,"348 Đường Đào Sư Tích, Phước Lộc",699,896773,2,0.0,0,0,0,0,13,0,10.702273,106.687002
/ho-chi-minh/tra-sua-22a-chanh-hung/binh-luan,TRÀ SỮA 22A - CHÁNH HƯNG," 22A Chánh Hưng, P. Phước Lộc",699,1075937,2,0.0,0,0,0,0,19,0,10.7105362,106.6875479
/ho-chi-minh/the-green-coffee-328a-dao-su-tich/binh-luan,The Green Coffee - 328A Đào Sư Tích,"328A Đào Sư Tích, X. Phước Lộc",699,1138989,2,0.0,0,0,0,0,24,0,10.7036098958491,106.6875376136205
/ho-chi-minh/hong-tra-ngo-gia-831-le-van-luong/binh-luan,Hồng Trà Ngô Gia - 831 Lê Văn Lương,"831 Lê Văn Lương, X. Phước Kiển",699,1144946,2,0.0,0,0,0,0,4,0,10.7182082,106.6995511
/ho-chi-minh/banh-bao-tho-phat-le-van-luong/binh-luan,Bánh Bao Thọ Phát - Lê Văn Lương,"857 Lê Văn Lương, Ấp 5, X. Phước Kiển",699,1121128,2,0.0,0,1,0,1,53,0,10.7175804,106.6999268
/ho-chi-minh/kubin-tra-sua-thach-pho-mai-huynh-tan-phat/binh-luan,KuBin - Trà Sữa Thạch Phô Mai - Huỳnh Tấn Phát,"1806/21 Huỳnh Tấn Phát, TT. Nhà Bè",699,1043953,2,4.2,0,0,1,0,116,0,10.697293,106.738811
/ho-chi-minh/bonchon-chicken-nam-sai-gon-residences/binh-luan,Bonchon Chicken - Nam Sài Gòn Residences,"Căn Cửa Hàng Số B0.04 (Tầng Có Căn Hộ) 1,2 Thuộc Nhà Chung Cư Nam Sài Gòn Residences, X. Phước Kiển",699,1117219,2,0.0,0,3,0,1,97,0,10.7206948,106.7024206
/ho-chi-minh/ga-ran-kfc-huynh-tan-phat-2/binh-luan,Gà Rán KFC - Huỳnh Tấn Phát 2,"1899 Huỳnh Tấn Phát, Khu Phố 5, Thị Trấn Nhà Bè",699,1129832,2,0.0,0,0,0,0,49,0,10.6989407,106.7388675
/ho-chi-minh/banh-cuon-gao-nguyen-huu-tho/binh-luan,Bánh Cuốn Gạo - Nguyễn Hữu Thọ,"Block B, Sunrise Riverside, Nguyễn Hữu Thọ, P. Phước Kiến",699,970347,2,5.84,4,0,5,6,186,0,10.7219339,106.7039494
/ho-chi-minh/thang-bom-bun-dau-mam-tom-le-van-luong/binh-luan,Thằng Bờm - Bún Đậu Mắm Tôm - Lê Văn Lương,"857 Lê Văn Lương, X  Phước Kiểng",699,1079046,2,9.46,9,0,10,3,202,3,10.7174386,106.6998153
/ho-chi-minh/tocotoco-bubble-tea-le-van-luong/binh-luan,Tocotoco Bubble Tea - Lê Văn Lương,"1066 (Số Cũ 96) Lê Văn Lương, X. Phước Kiển",699,1140387,2,0.0,0,0,0,0,17,0,10.7085039,106.70269
/ho-chi-minh/tuyen-quan-hu-tieu-nam-vang/binh-luan,Tuyên Quán - Hủ Tiếu Nam Vang,"18/3 Lê Văn Lương, Xã Phước Kiển",699,663576,2,7.566,17,0,6,6,455,1,10.7151428,106.7006524
/ho-chi-minh/tra-sua-nong-nha-be/binh-luan,Trà Sữa Nọng - Nhà Bè,"2210 Huỳnh Tấn Phát, Ấp 3, X. Phú Xuân",699,1126753,2,0.0,0,0,0,0,37,0,10.6849362492788,106.7446350394708
/ho-chi-minh/my-quang-anh-em/binh-luan,Mỳ Quảng Anh Em,"1017 Lê Văn Lương, Xã Phước Kiển",699,1055950,2,0.0,0,1,0,0,47,0,10.7094091,106.7025815
/ho-chi-minh/gateaux-de-min/binh-luan,Gâteaux De Min - 83 Huỳnh Tấn Phát,"83 Huỳnh Tấn Phát, TT. Nhà Bè",699,202268,2,7.57,227,0,7,10,2825,7,10.700767,106.738402
/ho-chi-minh/com-tam-dem-ben-tre-huynh-tan-phat/binh-luan,Cơm Tấm Đêm Bến Tre - Huỳnh Tấn Phát,2015 Huỳnh Tấn Phát,699,211528,2,8.6,8,0,1,2,251,1,10.695929,106.73994
/ho-chi-minh/hu-tieu-co-lan-huynh-tan-phat/binh-luan,Hủ Tiếu Cô Lan - Huỳnh Tấn Phát,"1716/46/14 Huỳnh Tấn Phát, KP. 5, TT. Nhà Bè",699,1146331,2,0.0,0,0,0,0,5,0,10.6987547,106.7359492
/ho-chi-minh/banh-trang-tron-lyly-banh-trang-tron-le-van-luong/binh-luan,Bánh Tráng Trộn Lyly - Bánh Tráng Trộn - Lê Văn Lương,"786/60 Lê Văn Lương, X. Phước Kiển ",699,1138436,2,0.0,0,0,0,0,2,0,10.722036,106.698165
/ho-chi-minh/cafe-60s-express-cafe-le-van-luong/binh-luan,Cafe 60s Express - Cafe - Lê Văn Lương,"75 Lê Văn Lương, P. Phước Kiển",699,1000035415,2,0.0,0,0,0,0,7,0,10.7153375,106.7040918
/ho-chi-minh/thu-mi-xao-nui-xao-an-vat/binh-luan,"Thư - Mì Xào, Nui Xào & Ăn Vặt","129D Đào Sư Tích, X. Phước Kiển",699,1069256,2,0.0,0,0,0,0,14,0,10.721643,106.703577
/ho-chi-minh/quan-2295-ca-phe-bia-set-cac-mon-nhau/binh-luan,"Quán 2295 - Cà Phê, Bia Sệt & Các Món Nhậu","2295 Huỳnh Tấn Phát, TT. Nhà Bè",699,1029342,2,0.0,0,0,0,0,48,0,10.68656,106.743792
/ho-chi-minh/tra-sua-suno/binh-luan,Trà Sữa Suno,"102 Lê Văn Lương, Xã Phước Kiển",699,880519,2,0.0,1,0,0,0,115,0,10.722721,106.698049
/ho-chi-minh/chao-long-18a-nam-dinh-huynh-tan-phat/binh-luan,Cháo Lòng 18A Nam Định - Huỳnh Tấn Phát,"2266 Huỳnh Tấn Phát, Xã Phú Xuân",699,1061265,2,0.0,0,2,0,1,250,0,10.682561,106.746363
/ho-chi-minh/co-thu-com-ga-nuong/binh-luan,Cô Thu - Cơm Gà Nướng,"1181 Lê Văn Lương, Xã Phước Kiển",699,708868,2,0.0,4,1,0,0,76,0,10.7004991,106.7041801
/ho-chi-minh/hu-tiu-chay-my-tho-hu-tiu-le-van-luong.apyx7y/binh-luan,Hủ Tíu CHAY MỸ THO - Hủ Tíu - Lê Văn lương,"993 Lê Văn Lương, X. Phước Kiển",699,1000044843,2,0.0,0,1,0,0,17,0,10.711014,106.7019136
/ho-chi-minh/my-cay-an-vat-food-huynh-tan-phat/binh-luan,Mỳ Cay Ăn Vặt - Food - Huỳnh Tấn Phát,"2185 Huỳnh Tấn Phát, Thị Trấn Nhà Bè",699,1143124,2,0.0,0,0,0,0,2,0,10.6853373,106.7445007
/ho-chi-minh/anh-phu-bap-xao-hot-vit-lon-le-van-luong/binh-luan,Anh Phú - Bắp Xào & Hột Vịt Lộn - Lê Văn Lương,"982 Lê Văn Lương, P. Phước Kiển",699,1135421,2,0.0,0,0,0,0,33,0,10.7091044,106.7025352
/ho-chi-minh/thanh-huyen-hot-vit-lon-hot-ga-nuong-ca-vien-chien/binh-luan,"Thanh Huyền - Hột Vịt Lộn, Hột Gà Nướng & Cá Viên Chiên","Cổng Ra Chung Cư Hoàng Anh Gia Lai 3, Nguyễn Hữu Thất, X. Phước Kiển",699,1061894,2,0.0,0,2,0,1,34,0,10.7201304,106.7007058
/ho-chi-minh/a-duc-bun-bo-hue/binh-luan,A.Đức - Bún Bò Huế,"1901A Huỳnh Tấn Phát, TT. Nhà Bè",699,1028988,2,0.0,0,1,0,1,53,0,10.698754,106.738831
/ho-chi-minh/chao-ga-ta-long-an/binh-luan,Cháo Gà Ta Long An,"839/57 Ấp 5, Xã Phước Kiển",699,1050817,2,0.0,0,1,0,0,32,0,10.7205683,106.6992598
/ho-chi-minh/xuka-ga-ac-le-van-luong.u3fjp2/binh-luan,XuKa Gà Ác - Lê Văn Lương,"1114 Ấp 3, Lê Văn Lương, Phước Kiển",699,1000046082,2,0.0,0,0,0,0,9,0,10.7063997,106.7032747
/ho-chi-minh/green1716-tra-sua-an-vat-huynh-tan-phat.6ezzaa/binh-luan,Green1716 - Trà Sữa & Ăn Vặt - Huỳnh Tấn Phát,"1716/46/30 Huỳnh Tấn Phát, X. Phú Xuân",699,1000035678,2,0.0,0,0,0,0,10,0,10.6995058,106.736307
/ho-chi-minh/lucky-quan-ca-vien-chien-nuoc-mam-huynh-tan-phat/binh-luan,Lucky Quán - Cá Viên Chiên Nước Mắm - Huỳnh Tấn Phát,"18/32/48 Huỳnh Tấn Phát, TT. Nhà Bè",699,1134587,2,0.0,0,0,0,0,26,0,10.703082,106.736891
/ho-chi-minh/tra-sua-laxy-nguyen-van-tao/binh-luan,Trà Sữa Laxy - Nguyễn Văn Tạo,"489A Nguyễn Văn Tạo, X. Long Thới",699,1143730,2,0.0,0,0,0,0,10,0,10.6444086456445,106.7324743799465
/ho-chi-minh/tiem-tra-sua-may-huynh-tan-phat/binh-luan,Tiệm Trà Sữa Mây - Huỳnh Tấn Phát,"1936 Huỳnh Tấn Phát, TT. Nhà Bè",699,1137461,2,0.0,0,0,0,0,6,0,10.6878101,106.7429288
/ho-chi-minh/khanh-cafe-tea/binh-luan,Khánh 839 - Trà Sữa Nướng & Cafe,"839/2 Lê Văn Lương, X. Phước Kiển",699,923052,2,0.0,107,1,0,0,92,0,10.7131276,106.6978
/ho-chi-minh/mix-kitchen-sunrise-riverside/binh-luan,Mix Kitchen - Sunrise Riverside,"Tháp K - 0103 - Sunrise Riverside, X. Phước Kiển",699,1117179,2,0.0,0,1,0,0,42,0,10.7227512,106.7049638
/ho-chi-minh/tu-dua-tra-sua-xien-que-le-van-luong/binh-luan,Tư Dừa - Trà Sữa & Xiên Que - Lê Văn Lương,"1086 Lê Văn Lương, X. Phước Kiển",699,1129995,2,0.0,0,0,0,0,35,0,10.7073074699307,106.7029878851327
/ho-chi-minh/nha-hang-song-han-pham-huu-lau/binh-luan,NHÀ HÀNG SÔNG HÀN - Phạm Hữu Lầu,"202B Phạm Hữu Lầu, X. Phước Kiển",699,1122341,2,0.0,0,0,0,0,30,0,10.703528,106.724556
/ho-chi-minh/afang-coffee-drink-the-park-residence/binh-luan,Afang - Coffee & Drink - The Park Residence,"The Park Residence, 12 Nguyễn Hữu Thọ, X. Phước Kiển",699,1119267,2,0.0,0,0,0,0,19,0,10.7131422379692,106.706827590851
/ho-chi-minh/de-tuoi-xom-chieu-nguyen-huu-tho/binh-luan,Dê Tươi Xóm Chiếu - Nguyễn Hữu Thọ,"152 Nguyễn Hữu Thọ, P. Phước Kiển",699,1110694,2,0.0,0,1,0,0,87,0,10.7153638467644,106.704048881316
/ho-chi-minh/tra-sua-rainbow-2104-huynh-tan-phat/binh-luan,Trà Sữa Rainbow - 2104 Huỳnh Tấn Phát,"2104 Huỳnh Tấn Phát, Khu Phố 7",699,1080062,2,0.0,0,0,0,0,62,0,10.687771,106.742936
/ho-chi-minh/oc-ghien-hai-san-le-van-luong/binh-luan,Ốc Ghiền - Hải Sản - Lê Văn Lương,"1238 Lê Văn Lương, X. Phước Kiển",699,1000038525,2,9.0,3,1,2,0,80,0,10.7004748,106.7041091
/ho-chi-minh/quan-hoa-sua-mam-com-gia-dinh-bun-cha-ha-noi-nguyen-huu-tho.jgaalj/binh-luan,Quán Hoa Sữa Mâm Cơm Gia Đình - Bún Chả Hà Nội - Nguyễn Hữu Thọ,"D1-12, Chung Cư Hoàng anh Gia Lai 3 Nguyễn Hữu Thọ, X. Phước Kiển",699,1000053693,2,7.0,1,0,1,0,32,0,10.719858,106.701429
/ho-chi-minh/tiem-banh-de-nui-banh-ngot-273-le-van-luong.ibw48t/binh-luan,Tiệm Bánh Dê Núi - Bánh Ngọt - 273 Lê Văn Lương,"273 Lê Văn Lương, P. Phước Kiển",699,1000053535,2,9.468,2,1,3,0,38,0,10.7051732,106.7035764
/ho-chi-minh/com-tam-thanh-ngoc/binh-luan,Cơm Tấm Thanh Ngọc,1740 Huỳnh Tấn Phát,699,128814,2,7.8,60,0,11,11,1630,6,10.6989891,106.738695
/ho-chi-minh/lau-de-nui-ngu/binh-luan,Lẩu Dê Núi Ngự,101/23/7 Lê Văn Lương,699,39256,2,7.17,59,0,7,5,3540,6,10.715252,106.703155
/ho-chi-minh/khai-phuong-beer-club/binh-luan,Nhà Hàng Khải Phương - Ẩm Thực Miền Trung,"C8/1- C8/12 Đường Số 17 KDC Phú Xuân, X. Phú Xuân",699,85425,2,7.38,11,0,8,4,7372,3,10.6791538,106.7362522
/ho-chi-minh/cau-ca-huong-que-le-van-luong/binh-luan,Câu Cá Hương Quê - Lê Văn Lương,190B Lê Văn Lương,699,101436,2,7.4,34,0,1,3,8537,3,10.6962857,106.7047658999999
/ho-chi-minh/quan-tu-tau/binh-luan,Tư Tàu - Đặc Sản Cá Chìa Vôi,"24/1 Đào Tông Nguyên, KP7, TT Nhà Bè",699,35313,2,8.2,6,0,2,10,7433,6,10.684049,106.749022
/ho-chi-minh/cau-vua-nha-hang-am-thuc/binh-luan,Cau Vua - Nhà Hàng Ẩm Thực,"Lô A Đường số 6, KCN Hiệp Phước, Xã Hiệp Phước",699,697088,2,8.1,115,0,4,5,2178,0,10.645575,106.736164
/ho-chi-minh/quan-bo-song-thanh-thao/binh-luan,Quán Bờ Sông Thanh Thảo,206/124 Huỳnh Tấn Phát,699,36643,2,8.0,11,0,1,0,1728,2,10.692891,106.740664
/ho-chi-minh/quan-cay-duoc/binh-luan,Quán Cây Đước,"21/4 Nguyễn Bình, X. Phú Xuân",699,35228,2,8.3,14,0,2,1,1689,1,10.6750882,106.740385
/ho-chi-minh/com-ga-a-dinh-huynh-tan-phat/binh-luan,Cơm Gà A Dinh - Huỳnh Tấn Phát,"2056/29/1 Huỳnh Tấn Phát, TT. Nhà Bè",699,1146400,2,0.0,0,0,0,0,4,0,10.6890863,106.7404025
/ho-chi-minh/an-vat-dzit-kul-sunrise-riverside/binh-luan,Ăn Vặt Dzịt Kul - Sunrise Riverside,"E.01.08 Tháp E, Sunrise Riverside, X. Phước Kiển",699,1146138,2,0.0,0,0,0,0,5,0,10.7229447,106.7052395
/ho-chi-minh/pi-coffee-tea-coffee-tra-trai-cay-le-van-luong.qpnzad/binh-luan,Pi Coffee & Tea - Coffee & Trà Trái Cây - Lê Văn Lương,"101/63 Lê Văn Lương, X. Phước Kiển",699,1000055969,2,0.0,0,0,0,0,2,0,10.710999,106.701741
/ho-chi-minh/daisy-cafe-tra-hoa-qua-nguyen-binh/binh-luan,Daisy Cafe - Trà Hoa Quả - Nguyễn Bình,"412 Nguyễn Bình, Ấp 1, X. Phú Xuân",699,1145655,2,0.0,0,0,0,0,4,0,10.673513,106.733051
/ho-chi-minh/dua-xiem-troc-co-ut-le-van-luong/binh-luan,Dừa Xiêm Trọc Cô Út - Lê Văn Lương,"1017/26/26 Lê Văn Lương, P. Phước Kiển",699,1145602,2,0.0,0,0,0,0,4,0,10.7089027,106.7041705
/ho-chi-minh/tin-tin-ca-vien-chien-nuoc-mam-an-vat-dao-su-tich.ygpqkq/binh-luan,"Tin Tin, Cá viên chiên nước mắm  - Ăn vặt  - Đào Sư Tích ",Đào Sư Tích ,699,1000055695,2,0.0,0,0,0,0,3,0,10.7112387,106.6932491
/ho-chi-minh/the-gioi-lau-nuong-phan-van-bay/binh-luan,Thế Giới Lẩu Nướng - Phan Văn Bảy,"192 Phan Văn Bảy, X. Hiệp Phước",699,1145373,2,0.0,0,0,0,0,1,0,10.6344042158074,106.7387638747082
/ho-chi-minh/bun-bo-hem-724-44-hem-724-44-le-van-luong/binh-luan,Bún Bò Hẻm 724/44 - Hẻm 724/44 Lê Văn Lương,"Hẻm 724/44 Lê Văn Lương, X. Phước Kiển",699,1144950,2,0.0,0,0,0,0,2,0,10.7135694,106.7010944
/ho-chi-minh/quan-banh-xeo-mien-trung-bun-cha-ca-bun-tho-tran-thi-tao/binh-luan,Quán Bánh Xèo Miền Trung - Bún Chả Cá & Bún Thố - Trần Thị Tao,"72 Trần Thị Tao, P. Phước Kiển",699,1144925,2,0.0,0,0,0,0,3,0,10.72091833156,106.6980224970776
/ho-chi-minh/tra-sua-doraemon-huynh-tan-phat/binh-luan,Trà Sữa Doraemon - Huỳnh Tấn Phát,"449 Huỳnh Tấn Phát, TT. Nhà Bè",699,1144769,2,0.0,0,0,0,0,3,0,10.6885536,106.7424977
/ho-chi-minh/ong-hung-com-ga-xoi-mo/binh-luan,Ông Hùng - Cơm Gà Xối Mỡ,"2389 Huỳnh Tấn Phát, TT. Nhà Bè",699,1028773,2,10.0,0,1,1,1,92,0,10.683053,106.746253
/ho-chi-minh/cua-hang-trai-cay-sach-an-vat-le-van-luong/binh-luan,Cửa Hàng Trái Cây Sạch & Ăn Vặt - Lê Văn Lương,"724/22 Lê Văn Lương, X. Phước Kiển",699,1140843,2,10.0,1,0,1,0,12,0,10.7231655,106.6963943
/ho-chi-minh/tree-milktea-coffee/binh-luan,Tree Milktea & Coffee,"193/5/7A Khu Phố 5, Huỳnh Tấn Phát, TT. Nhà Bè",699,280477,2,9.8,7,0,1,0,180,1,10.698193,106.739622
/ho-chi-minh/thuong-tra-sua-an-vat/binh-luan,Thương - Trà Sữa & Ăn Vặt,"970 Lê Văn Lương, Xã Phước Kiển",699,745718,2,9.8,28,1,1,1,386,0,10.708186,106.702555
/ho-chi-minh/cony-tea-tarot-phong-thuy/binh-luan,Cony Tea - Trà Sữa & Ăn Vặt,"Tòa B5, The Park Residence, 12 Nguyễn Hữu Thọ, Xã  Phước Kiểng",699,966916,2,9.72,12,0,5,1,87,0,10.712289,106.707155
/ho-chi-minh/nha-hang-maia-lounge/binh-luan,Nhà Hàng MAIA Lounge,"NL01 Khu Phố Ngân Long, Nguyễn Hữu Thọ, Xã Phước Kiển",699,654398,2,9.6,26,0,2,2,1064,2,10.7200908,106.7024186
/ho-chi-minh/y-quan-hu-tieu-sa-dec-banh-canh-gao/binh-luan,Ý Quán - Hủ Tiếu Sa Đéc & Bánh Canh Gạo,512/19 Nguyễn Văn Tạo,699,763105,2,9.6,6,0,1,0,158,4,10.6426390522746,106.7307316884398
/ho-chi-minh/q-cup-milktea-snack/binh-luan,Q - Cup Milktea & Snack,2185 Huỳnh Tấn Phát,699,716266,2,9.6,7,0,1,0,72,0,10.6915539939248,106.7413093149662
/ho-chi-minh/tra-sua-chu-hung/binh-luan,Trà Sữa Chú Hùng,"313 Lê Văn Lương, Xã Phước Kiển",699,881148,2,9.6,4,0,1,0,52,0,10.712348,106.701445
/ho-chi-minh/serenity-cafe-eatery/binh-luan,Serenity Cafe & Eatery,"1903 Huỳnh Tấn Phát, TT. Nhà Bè",699,894928,2,9.514,36,0,9,0,411,5,10.696611,106.739352
/ho-chi-minh/tra-sua-nha-lam-maika-nguyen-huu-tho/binh-luan,Trà Sữa Nhà Làm Maika - Nguyễn Hữu Thọ,"156A Nguyễn Hữu Thọ, X. Phước Kiển",699,1115102,2,7.734,1,0,12,0,32,0,10.7171075,106.7023797
/ho-chi-minh/anh-em-quan-hu-tieu-xao-com-ga/binh-luan,Anh Em Quán - Hủ Tiếu Xào & Cơm Gà,353 Huỳnh Tấn Phát,699,294652,2,7.68,51,0,10,4,322,0,10.69235,106.741065
/ho-chi-minh/tra-sua-doraemon-le-van-luong/binh-luan,Trà Sữa Doraemon - Lê Văn Lương,"1343 Lê Văn Lương, Xã Phước Kiển",699,880683,2,7.92,12,0,10,0,222,1,10.692956,106.703815
/ho-chi-minh/ca-vien-king/binh-luan,Cá Viên King - Ăn Vặt & Trái Cây,"83/76/16/22/5 Đào Tông Nguyên, KP. 7, TT. Nhà Bè",699,980530,2,6.734,13,0,9,1,269,0,10.6856515537559,106.7486601577533
/ho-chi-minh/sushi-vien-oishi/binh-luan,Oishi - Sushi Viên,"67B Lê văn lương, P. Phước Kiển",699,954026,2,9.2,28,0,2,7,194,1,10.710673,106.702056
/ho-chi-minh/quan-phuoc-long-bun-ga-mien-ga/binh-luan,Quán Phước Long - Bún Gà & Miến Gà,"1560 Lê Văn Lương, Ấp 2, X. Nhơn Đức",699,737311,2,8.398,10,0,3,7,280,1,10.6856171,106.7015347
/ho-chi-minh/bun-bo-hue-o-dien-le-van-luong/binh-luan,Bún Bò Huế O Diện - Lê Văn Lương,"843 Lê Văn Lương, Ấp 5, Xã Phước Kiển",699,137332,2,8.252,32,0,8,6,772,3,10.7187401,106.699428
/ho-chi-minh/bds-ba-ca-hai-san-tuoi-song/binh-luan,BĐS Bà Cả - Hải Sản Tươi Sống,1806/124/7 Huỳnh Tấn Phát,699,228608,2,7.7,33,0,6,6,735,2,10.696464,106.730354
/ho-chi-minh/nhu-y-nuoc-ep-trai-cay-tuoi-307-dao-su-tich.umq3jy/binh-luan,Như Ý Nước Ép Trái Cây Tươi - 307 Đào Sư Tích,"307 Đào Sư Tích, X. Phước Lộc",699,1000046910,2,0.0,0,0,0,0,19,0,10.704654,106.6882329
/ho-chi-minh/tiem-ngoc-xuan-tra-sua-an-vat-ap-4/binh-luan,Tiệm Ngọc Xuân - Trà Sữa & Ăn Vặt - Ấp 4,"1991/3/14 Ấp 4, Lê Văn Lương, X. Nhơn Đức",699,1104564,2,0.0,0,0,0,0,22,0,10.6577559,106.6896045
/ho-chi-minh/da-thao-sinh-to-nuoc-ep-138-dao-su-tich.vziaij/binh-luan,Dạ Thảo - Sinh Tố & Nước Ép - 138 Đào Sư Tích,"138 Đào Sư Tích, X. Phước Kiển",699,1000047929,2,0.0,0,0,0,0,21,0,10.7112387,106.6932491
/ho-chi-minh/tan-hu-tieu-vinh-long/binh-luan,Tân - Hủ Tiếu Vĩnh Long,189 Đào Sư Tích,699,880263,2,0.0,1,1,0,0,24,0,10.7109573306159,106.6933313012123
/ho-chi-minh/tran-hen-com-ga-chau-doc/binh-luan,Trần Hên - Cơm Gà Châu Đốc,121 Đào Sư Tích,699,880266,2,0.0,1,0,0,0,44,0,10.7113025779868,106.6944762691855
/ho-chi-minh/meebee-banh-keo-nhap-khau-shop-online/binh-luan,Meebee - Bánh Kẹo Nhập Khẩu - Shop Online,"10/35 Lê Văn Lương, X. Nhơn Đức",699,230233,2,0.0,11,0,0,0,335,1,10.661169,106.692252
/ho-chi-minh/the-gioi-an-vat-tra-sua-an-vat-le-van-luong/binh-luan,Thế Giới Ăn Vặt - Trà Sữa & Ăn Vặt - Lê Văn Lương,"724/28 Lê Văn Lương, X. Phước Kiểng",699,1000025108,2,0.0,0,0,0,0,26,0,10.7229823,106.695999
/ho-chi-minh/truong-an-hai-san-phu-quoc-va-kho/binh-luan,Trường An - Hải Sản Phú Quốc Và Khô,"1779/2 Lê Văn Lương, X. Nhơn Đức",699,1089413,2,0.0,0,0,0,0,15,0,10.6622949516875,106.6927278099167
/ho-chi-minh/huong-chi-cha-bong-heo-shop-online/binh-luan,Hương Chi - Chà Bông Heo - Shop Online,Lê Văn Lương,699,774711,2,0.0,3,0,0,0,55,0,10.6638366,106.6929099
/ho-chi-minh/3-rau-ga-ran-pizza-tra-sua-le-van-luong/binh-luan,"3 Râu - Gà Rán, Pizza & Trà Sữa - Lê Văn Lương","879 Lê Văn Lương, Xã Phước Kiển",699,1062955,2,6.0,1,0,1,0,111,0,10.716398,106.700205
/ho-chi-minh/banh-uot-banh-cuon-nhan-cn5-huynh-tan-phat/binh-luan,Bánh Ướt & Bánh Cuốn Nhân CN5 - Huỳnh Tấn Phát,"1897 Huỳnh Tấn Phát, X. Phú Xuân",699,1000036571,2,0.0,0,0,0,0,27,0,10.699035,106.738663
/ho-chi-minh/sushi-shin-sashimi-bento/binh-luan,Sushi Shin - Sashimi & Bento,"67 Lê Văn Lương, Xã Phước Kiểng",699,1082076,2,0.0,0,0,0,0,48,0,10.7176481,106.6997955
/ho-chi-minh/com-tam-phuc-tran-le-van-luong/binh-luan,Cơm Tấm Phúc Trân - Lê Văn Lương,"857A Lê Văn Lương, X. Phước Kiển",699,1110141,2,0.0,0,0,0,0,46,0,10.717513,106.7002669
/ho-chi-minh/com-tam-tam-nga-689-le-van-luong/binh-luan,Cơm Tấm Tám Nga - Lê Văn Lương,"73H Lê Văn Lương, X. Phước Kiển",699,789069,2,3.668,5,0,3,0,288,0,10.7227349,106.6979328
/ho-chi-minh/phuc-long-161-nguyen-binh/binh-luan,Phúc Long 161 Nguyễn Bình,161 Nguyễn Bình,699,1124339,2,0.0,0,0,0,0,32,0,10.6762432,106.745418
/ho-chi-minh/y-nha-bun-rieu-bun-bo-1-dao-su-tich.2cwqau/binh-luan,Ý Nhã - Bún Riêu & Bún Bò - 1 Đào Sư Tích,"1 Đào Sư Tích, X. Phước Kiển",699,1000039205,2,0.0,0,0,0,0,21,0,10.7134698,106.7008984
/ho-chi-minh/lucha-house-milk-tea-tra-sua-nha-be/binh-luan,Lucha House Milk Tea - Trà Sữa Nhà Bè," 160 Lê Văn Lương, Phước Kiển",699,799280,2,9.076,21,0,8,2,1028,2,10.702697,106.703815
/ho-chi-minh/coco-bana-ice-cream/binh-luan,Coco Bana Ice Cream,"C1.6 - KCH Phú Hoàng Anh 1, 9 Nguyễn Hữu Thọ, P. Phướng Kiểng",699,660831,2,9.066,47,0,3,4,216,15,10.715641,106.704716
/ho-chi-minh/bao-ngoc-com-tam/binh-luan,Bảo Ngọc - Cơm Tấm,"1750 Huỳnh Tấn Phát, TT. Nhà Bè",699,276424,2,8.72,20,0,5,4,433,3,10.698403,106.738847
/ho-chi-minh/banh-sau-rieng-tiem-banh-online/binh-luan,Bánh Sầu Riêng - Shop Online,"782 Lê Văn Lương, P. Phước Kiển ",699,271887,2,0.0,4,2,0,0,615,3,10.713841,106.701013
/ho-chi-minh/thuong-yen-to-yen-chung-san/binh-luan,Thượng Yến - Tổ Yến Chưng Sẵn,"Tòa Nhà Sunrise Riverside Block E, 673 Nguyễn Hữu Thọ, P. Phước Kiển",699,928323,2,0.0,1,0,0,0,144,1,10.722116,106.7006717
/ho-chi-minh/banh-mi-kebab-3-co-gai/binh-luan,Bánh Mì Kebab 3 Cô Gái,360 Phạm Hữu Lầu,699,731635,2,0.0,5,0,0,0,102,0,10.7027352,106.7224397
/ho-chi-minh/xoi-huong/binh-luan,Xôi Hường,3/4 Huỳnh Tấn Phát,699,710626,2,0.0,2,1,0,0,214,1,10.7017392780052,106.7383166402578
/ho-chi-minh/pho-hai-nam/binh-luan,Phở Hải Nam,"1349 Lê Văn Lương, Xã Phước Kiển",699,880681,2,0.0,1,0,0,0,36,0,10.692988,106.703833
/ho-chi-minh/pho-ly-quoc-su-140-le-van-luong/binh-luan,Phở Lý Quốc Sư - 140 Lê Văn Lương,"140 Lê Văn Lương, Xã Phước Kiển",699,745694,2,0.0,4,0,0,0,112,0,10.705475,106.703384
/ho-chi-minh/ca-vien-chien-176-923-le-van-luong/binh-luan,Cá Viên Chiên 176 - 923 Lê Văn Lương,"923 Đ. Lê Văn Lương, X. Phước Kiển",699,1037193,2,8.802,9,0,3,1,88,0,10.713659,106.701524
/ho-chi-minh/ech-ngoi-day-tho/binh-luan,Ếch Ngồi Đáy Thố,"61 Lê Văn Lương, P. Phước Kiển",699,1050669,2,0.0,0,0,0,0,76,0,10.717926,106.699655
/ho-chi-minh/neca-fresh-yogurt-le-van-luong/binh-luan,Neca Fresh Yogurt - Lê Văn Lương,"368 Lê Văn Lương, X. Phước Kiểng",699,1051323,2,0.0,0,0,0,0,77,0,10.7103533,106.702073
/ho-chi-minh/the-green1716-an-vat-tra-sua-huynh-tan-phat.qjhzhl/binh-luan,The Green1716 - Ăn Vặt & Trà Sữa - Huỳnh Tấn Phát,"1716/46 Huỳnh Tấn Phát, TT. Nhà Bè",699,1000038562,2,0.0,0,0,0,0,10,0,10.6951382,106.7397514
/ho-chi-minh/pizzago-pizza-my-y-salad-879-le-van-luong/binh-luan,PizzaGo - Pizza - Mỳ Ý & Salad - 879 Lê Văn Lương,"879 Lê Văn Lương, Xã Phước Kiển",699,1133701,2,0.0,0,0,0,0,10,0,10.7141461,106.7009099
/ho-chi-minh/quan-nuong-tay-bac-le-van-luong/binh-luan,Quán Nướng Tây Bắc - Lê Văn Lương,"885 Lê Văn Lương, X. Phước Kiển",699,1114386,2,0.0,0,2,0,2,41,0,10.7152225,106.7007845
/ho-chi-minh/tram-pho-79-pho-com-tam-nguyen-huu-tho.bclcke/binh-luan,Trạm Phở 79 - Phở & Cơm Tấm - Nguyễn Hữu Thọ,"79 Nguyễn Hữu Thọ, X. Phước Kiển",699,1000025893,2,0.0,0,0,0,0,29,0,10.7140715,106.705834
/ho-chi-minh/en-dee-town-coffee/binh-luan,En-Dee Town Coffee - Nhà Bè,"22 Lê Thị Kỉnh, Xã Phước Kiển",699,740617,2,8.932,22,0,6,1,968,2,10.71548,106.702569
/ho-chi-minh/bo-ne-mr-rau/binh-luan,Bò Né Mr Râu,"187A Lê Văn Lương, Xã Phước Kiển",699,844891,2,0.0,0,0,0,0,110,1,10.709739,106.702368
/ho-chi-minh/nguyen-coffee-le-van-luong/binh-luan,Nguyễn Coffee - Lê Văn Lương,"1440 Lê Văn Lương, Xã Phước Kiển",699,747559,2,0.0,10,0,0,0,45,0,10.6904116,106.7025441
/ho-chi-minh/ichi-coffee-nguyen-binh/binh-luan,Ichi Coffee - Nguyễn Bình,154 Nguyễn Bình,699,716263,2,0.0,7,0,0,0,129,0,10.6766695,106.7469114
/ho-chi-minh/pho-dai/binh-luan,Phở Đại,"803 Huỳnh Tấn Phát, Xã Phú Xuân",699,637593,2,0.0,4,0,0,0,77,0,10.676961,106.757493
/ho-chi-minh/bolero-coffee-le-van-luong/binh-luan,Bolero Coffee - Lê Văn Lương,1017/66 Lê Văn Lương,699,752415,2,0.0,1,0,0,0,52,0,10.7096192,106.702832
/ho-chi-minh/suri-coffee/binh-luan,Suri Coffee,197/24/11 Lê Văn Lương,699,752421,2,0.0,1,0,0,0,81,0,10.708269,106.702722
/ho-chi-minh/milano-coffee-86-le-van-luong/binh-luan,Milano Coffee - 86 Lê Văn Lương,86 Lê Văn Lương,699,827571,2,0.0,0,0,0,0,34,0,10.695562,106.704737
/ho-chi-minh/cua-bau-hien-cua-1342-le-van-luong/binh-luan,Cua Bầu Hiển - Cua - 1342 Lê Văn Lương,"1342 Lê Văn Lương, X. Phước Kiểng",699,1119748,2,7.798,2,0,3,0,35,0,10.696007,106.704818
/ho-chi-minh/napoli-coffee-dao-su-tich/binh-luan,Napoli Coffee - Đào Sư Tích,"8B Đào Sư Tích, P. Phước Kiển",699,752464,2,9.4,5,0,1,0,99,0,10.712369,106.697028
/ho-chi-minh/nini-milk-tea-huynh-tan-phat/binh-luan,Nini Milk Tea - Huỳnh Tấn Phát,"1982/6 Huỳnh Tấn Phát, TT. Nhà Bè",699,1034422,2,9.3,21,0,2,0,73,0,10.692584,106.740102
/ho-chi-minh/bo-tea-huynh-tan-phat/binh-luan,Bờ Tea - Huỳnh Tấn Phát,"25/6 Hẻm 116 Huỳnh Tấn Phát, X. Phú Xuân",699,862110,2,8.052,36,0,8,1,147,1,10.7011334262015,106.7354415966996
/ho-chi-minh/che-my-nguyen-huu-tho/binh-luan,Chè Mỹ - Nguyễn Hữu Thọ,"A2 Nguyễn Hữu Thọ, X. Phước Kiểng",699,752410,2,6.92,12,0,5,5,1243,2,10.719335,106.701242
/ho-chi-minh/quan-641-com-tam-dem/binh-luan,Quán 641 - Cơm Tấm Đêm ,641 Nguyễn Văn Tạo,699,47120,2,8.4,14,0,3,5,1456,7,10.6457108,106.7316431
/ho-chi-minh/quan-an-gia-dinh-cay-dua/binh-luan,Quán Ăn Gia Đình Cây Dừa,"113 Lê Văn Lương, X. Phước Kiển",699,48269,2,8.4,8,0,1,5,1494,0,10.694493,106.704653
/ho-chi-minh/quan-bao-han-hu-tieu-nam-giang/binh-luan,Quán Bảo Hân - Hủ Tiếu Nam Giang,"80 Lê Văn Lương, X. Phước Kiểng",699,36908,2,7.4,4,0,1,0,1352,0,10.715818,106.70019
/ho-chi-minh/oc-map-quan-huynh-tan-phat/binh-luan,Ốc Mập Quán - Huỳnh Tấn Phát,1716/9 Huỳnh Tấn Phát ,699,128234,2,8.6,17,0,1,6,1292,3,10.6997092923823,106.7377364999999
/ho-chi-minh/bun-mang-vit-huynh-tan-phat/binh-luan,Bún Măng Vịt - Huỳnh Tấn Phát,"Hẻm 660 Huỳnh Tấn Phát, Xã Phú Xuân",699,124502,2,3.48,23,0,8,0,1223,1,10.6831886,106.7461526
/ho-chi-minh/lucha-milk-tea/binh-luan,Lucha Milk Tea,"193 Nguyễn Văn Tạo, Xã Long Thới",699,755393,2,8.802,6,0,3,2,1198,0,10.658345,106.727929
/ho-chi-minh/bo-ne-luc-lac-vang/binh-luan,Bò Né Lục Lạc Vàng,"356B Lê Văn Lương, P. Phước Kiển",699,90377,2,7.7,17,0,6,3,1076,0,10.698098,106.704528
/ho-chi-minh/steppe-coffee-khu-dan-cu-phu-xuan/binh-luan,Steppe Coffee - Khu Dân Cư Phú Xuân,"Lô A10/01-02 Khu Dân Cư Phú Xuân, Huỳnh Tấn Phát, X. Phú Xuân",699,1144413,2,0.0,0,0,0,0,3,0,10.6871873887629,106.7411296409722
/ho-chi-minh/an-vat-mat-hi-ca-vien-chien-nuoc-mam-huynh-thi-dong/binh-luan,Ăn Vặt Mắt Hí - Cá Viên Chiên Nước Mắm - Huỳnh Thị Đồng,"12/2 Huỳnh Thị Đồng, Khu Phố 6, Thị Trấn Nhà Bè",699,1144103,2,0.0,0,0,0,0,4,0,10.6994315,106.7383684
/ho-chi-minh/minh-anh-banh-loc-banh-nam-le-van-luong/binh-luan,Minh Anh - Bánh Lọc & Bánh Nậm - Lê Văn Lương,"1508/15/11/9 Lê Văn Lương, Ấp 2, X. Nhơn Đức",699,1143801,2,0.0,0,0,0,0,2,0,10.6874342,106.700896
/ho-chi-minh/huynh-thuy-cafe-sinh-to-nuoc-ep-hem-1508-5-le-van-luong/binh-luan,"Huỳnh Thủy - Cafe, Sinh Tố & Nước Ép - Hẻm 1508/5 Lê Văn Lương","Hẻm 1508/5 Lê Văn Lương, X. Nhơn Đức",699,1143654,2,0.0,0,0,0,0,1,0,10.6790567,106.6989439
/ho-chi-minh/quan-com-thanh-ngoc-huynh-tan-phat/binh-luan,Quán Cơm Thanh Ngọc - Huỳnh Tấn Phát,"1738 Huỳnh Tấn Phát, TT. Nhà Bè",699,1143155,2,0.0,0,0,0,0,4,0,10.699286,106.738531
/ho-chi-minh/breadtalk-sunrise-riverside/binh-luan,BreadTalk - Sunrise Riverside,"B-01.11 Và B-01.12, Block B, Khu Căn Hộ Sunrise Riverside, Ấp 5, X. Phước Kiển",699,1142674,2,0.0,0,0,0,0,10,0,10.7219347116117,106.7039493767127
/ho-chi-minh/oc-tien-20k-oc-1170-le-van-luong/binh-luan,Ốc Tiền 20k - Ốc - 1170 Lê Văn Lương,"1170 Lê Văn Lương, X. Phước Kiển",699,1142592,2,0.0,0,0,0,0,3,0,10.7005222,106.7041031
/ho-chi-minh/tini-tea-tiem-banh-ngot-tra-sua-tuoi-nguyen-huu-tho/binh-luan,Tini Tea Tiệm Bánh Ngọt & Trà sữa Tươi - Nguyễn Hữu Thọ,"Sunrise Riverside, Nguyễn Hữu Thọ, X. Phước Kiển",699,1142566,2,0.0,0,0,0,0,3,0,10.7230366,106.7049425
/ho-chi-minh/ghe-sv-hai-san-tuoi-song-phan-thiet-nguyen-huu-tho/binh-luan,Ghẹ SV - Hải Sản Tươi Sống Phan Thiết - Nguyễn Hữu Thọ,"Block C, 09 Nguyễn Hữu Thọ, X. Phước Kiển",699,1142422,2,0.0,0,0,0,0,3,0,10.7195956,106.7004756
/ho-chi-minh/mi-y-a-quao-thuc-an-nhanh-le-van-luong/binh-luan,Mì Ý A Quạo - Thức Ăn Nhanh - Lê Văn Lương,"1191/19/5 Lê Văn Lương, X. Phước Kiển",699,1142221,2,0.0,0,0,0,0,4,0,10.7005817,106.7058048
/ho-chi-minh/tra-sua-9tea-le-van-luong/binh-luan,Trà Sữa 9Tea,1018 Lê Văn Lương,699,248217,2,9.4,25,0,2,0,256,4,10.7099,106.702179
/ho-chi-minh/quan-chay-dieu-thanh/binh-luan,Quán Chay Diệu Thanh,"28/4 Ấp 3, Huỳnh Tấn Phát",699,716259,2,9.3,13,0,2,1,214,0,10.6975694674773,106.7391967400908
/ho-chi-minh/chao-vit-co-xuan-le-van-luong/binh-luan,Cháo Vịt Cô Xuân - Lê Văn Lương,Lê Văn Lương,699,141321,2,9.25,19,0,4,3,418,2,10.6878410045131,106.702099442482
/ho-chi-minh/thanh-binh-lau-de-nui/binh-luan,Thanh Bình - Lẩu Dê Núi,"894 Lê Văn Lương, Xã Nhơn Đức",699,930092,2,9.2,32,0,5,0,198,4,10.700652,106.704141
/ho-chi-minh/le-montage-bar-bistro/binh-luan,Le Montage - Bar & Bistro,"4 Đường Số 7, KDC Trần Thái, Block G Sunrise Riverside, X. Phước Kiển",699,1034146,2,9.2,16,7,1,4,523,0,10.72327557152,106.7056626229705
/ho-chi-minh/sushi-shin/binh-luan,Sushi Shin,67 Lê Văn Lương,699,1041888,2,9.2,26,0,1,1,313,0,10.7175,106.699832
/ho-chi-minh/tree-tra-sua-cafe/binh-luan,Tree - Trà Sữa & Cafe,"Hẻm 1927 Huỳnh Tấn Phát, TT. Nhà Bè",699,267596,2,9.134,16,0,3,1,278,1,10.6911411,106.7414812
/ho-chi-minh/khu-am-thuc-cho-phu-xuan/binh-luan,Khu Ẩm Thực Chợ Phú Xuân,"Huỳnh Tấn Phát, TT. Phú Xuân",699,671514,2,7.232,32,0,6,1,896,1,10.702326,106.737457
/ho-chi-minh/chuoi-chien-phong-huynh-tan-phat/binh-luan,Chuối Chiên Phồng - Huỳnh Tấn Phát,"2102 Huỳnh Tấn Phát, Xã Phú Xuân",699,986524,2,7.7,10,1,2,6,421,0,10.6876915,106.7428171
/ho-chi-minh/bon-sai-coffee/binh-luan,Bon Sai Coffee,"Lê Văn Lương, Xã Nhơn Đức",699,198154,2,7.6,23,0,1,0,115,1,10.661964,106.692861
/ho-chi-minh/banh-trang-tron-cuon-tram-anh-tra-sua-122-dao-su-tich.sidiur/binh-luan,Bánh Tráng Trộn & Cuốn Trâm Anh - Trà Sữa - 122 Đào Sư Tích,"122 Đào Sư Tích, X. Phước Kiển",699,1000052846,2,0.0,0,0,0,0,8,0,10.7120785,106.6958805
/ho-chi-minh/quan-nuong-oscar-vit-nuong-ga-nuong/binh-luan,Quán Nướng Oscar - Vịt Nướng & Gà Nướng,123 Đào Sư Tích,699,880269,2,0.0,1,0,0,0,42,0,10.7118082592557,106.695933714509
/ho-chi-minh/lau-ga-la-e-duong-soc-5/binh-luan,LẨU GÀ LÁ É - Đường Số 5,"12 Đường Số 5 Khu Dân Cư Phước Kiển, Xã Phước Kiển",699,1078192,2,0.0,0,0,0,0,58,0,10.7218895,106.6965173
/ho-chi-minh/ut-ngan-dac-san-bun-soc-trang/binh-luan,Út Ngân - Đặc Sản Bún Sóc Trăng,"1853 Lê Văn Lương, Xã Nhơn Đức",699,985913,2,0.0,0,0,0,0,19,0,10.6631621442138,106.6934949159622
/ho-chi-minh/lucky-coffee-tra-sua-sinh-to-dao-su-tich/binh-luan,Lucky Coffee - Trà Sữa & Sinh Tố - Đào Sư Tích,"110 Đào Sư Tích, Xã Phước Kiển",699,1065366,2,0.0,0,0,0,0,39,0,10.7124375,106.6965218
/ho-chi-minh/quan-thinh-hu-tieu-nam-vang-bo-kho/binh-luan,Quán Thịnh - Hủ Tiếu Nam Vang & Bò Kho,Đào Sư Tích,699,716036,2,0.0,5,1,0,0,40,0,10.71215383509,106.696663275361
/ho-chi-minh/cho-oc-chuyen-cac-mon-oc/binh-luan,Chợ Ốc - Chuyên Các Món Ốc,"347 Lê Văn Lương, Xã Phước Kiển",699,888543,2,0.0,0,0,0,0,37,0,10.723666,106.69765
/ho-chi-minh/che-ba-lep-le-van-luong/binh-luan,Chè Bà Lép - Lê Văn Lương,"386B Lê Văn Lương, Ấp 3, X. Phước Kiển",699,932709,2,0.0,0,1,0,0,30,0,10.723642,106.697779
/ho-chi-minh/com-ga-xoi-mo-vu-hung-phat-huynh-tan-phat/binh-luan,Cơm Gà Xối Mỡ Vũ Hưng Phát - Huỳnh Tấn Phát,"2132 Huỳnh Tấn Phát, Xã Phú Xuân",699,1118325,2,0.0,0,0,0,0,11,0,10.6870339,106.7433515
/ho-chi-minh/an-vat-co-ba-huynh-tan-phat/binh-luan,Ăn Vặt Cô Ba - Huỳnh Tấn Phát,"1979/38/6B Huỳnh Tấn Phát, tt. Nhà Bè",699,1000034993,2,0.0,0,0,0,0,15,0,10.698154,106.7405454
/ho-chi-minh/pho-24-saigon-south-residences/binh-luan,Phở 24 - Saigon South Residences,"A0.02, Sài Gòn South Residences, Nguyễn Hữu Thọ, Xã Phước Kiển",699,1053098,2,5.4,0,1,1,1,102,0,10.721167,106.703165
/ho-chi-minh/ga-nuong-thanh-loan-do-nuong-huynh-tan-phat.dogimk/binh-luan,Gà Nướng Thanh Loan - Đồ Nướng  - Huỳnh Tấn Phát,"23/1B Huỳnh Tấn Phát, P. Phú Xuân",699,1000026347,2,0.0,0,0,0,0,25,0,10.6820655,106.7471069
/ho-chi-minh/gold-mi-cay-7-cap-do/binh-luan,Gold - Mì Cay 7 Cấp Độ,1185 Lê Văn Lương,699,708869,2,7.72,11,0,5,1,475,2,10.693776,106.704411
/ho-chi-minh/hien-coffee-tea/binh-luan,Hiên - Coffee & Tea,"1118 Lê Văn Lương, Xã Phước Kiển",699,671302,2,6.0,35,0,5,2,385,1,10.706041,106.703175
/ho-chi-minh/nguoi-anh-em-oc-hai-san/binh-luan,Người Anh Em - Ốc & Hải Sản,175 Lê Văn Lương,699,260754,2,7.934,30,0,3,3,890,2,10.7132109850275,106.7010882496833
/ho-chi-minh/milano-coffee-phu-hoang-anh/binh-luan,Milano Coffee - Phú Hoàng Anh,"A1 - 4 Chung Cư Phú Hoàng Anh, Nguyễn Hữu Thọ",699,203510,2,8.7,5,0,4,2,405,1,10.71767,106.703541
/ho-chi-minh/ga-ran-cp-five-star-948-nguyen-van-tao/binh-luan,Gà Rán CP Five Star - 948 Nguyễn Văn Tạo,"948 Nguyễn Văn Tạo, X. Hiệp Phước",699,1122643,2,0.0,0,0,0,0,28,0,10.6254914,106.7373294
/ho-chi-minh/ken-tra-sua-dao-tong-nguyen/binh-luan,Ken Trà Sữa - Đào Tông Nguyên,"60 Đào Tông Nguyên, X. Phú Xuân",699,1136929,2,0.0,0,0,0,0,5,0,10.6844963,106.749777
/ho-chi-minh/ganamosi-tra-sua-tran-thi-lien/binh-luan,GANAMOSI - Trà Sữa - Trần Thị Liền,"197/26A Trần Thị Liền (Cạnh Vicky Phan), X. Phước Kiển",699,1000033388,2,0.0,0,0,0,0,26,0,10.7100284,106.7043506
/ho-chi-minh/ga-nui-lua-nguyen-huu-tho/binh-luan,Gà Núi Lửa - Nguyễn Hữu Thọ,"Sài Gòn South Residences, Nguyễn Hữu Thọ, X. Phước Kiển",699,1141293,2,0.0,0,0,0,0,3,0,10.7207117,106.7033998
/ho-chi-minh/vit-nuong-kim-bien-vit-nuong-le-van-luong.hscpxs/binh-luan,Vịt Nướng Kim Biên  - Vịt Nướng - Lê Văn Lương,"166E Lê Văn Lương, Phước Kiển",699,1000025653,2,0.0,0,0,0,0,27,0,10.71997,106.6989
/ho-chi-minh/binh-minh-pho-ga-ta-duong-so-21/binh-luan,BÌNH MINH - PHỞ GÀ TA - ĐƯỜNG SỐ 21,"Số 7, Đường 21, X. Phước Kiển",699,1120165,2,0.0,0,0,0,0,30,0,10.7128823,106.7017746
/ho-chi-minh/chiu-milktea-tra-dau-nguyen-van-tao.iim0op/binh-luan,Chiu Milktea - Trà Dâu - Nguyễn Văn Tạo,"512/14 Nguyễn Văn Tạo, Long Thới",699,1000027445,2,0.0,0,0,0,0,19,0,10.6519325,106.7265038
/ho-chi-minh/tra-sua-te-amo-1998a-huynh-tan-phat/binh-luan,Trà Sữa Te Amo - 1998A Huỳnh Tấn Phát,"1998A Huỳnh Tấn Phát, TT. Nhà Bè",699,1137612,2,0.0,0,0,0,0,32,0,10.6923953,106.7408706
/ho-chi-minh/golden-shrimp-the-gioi-tom-nguyen-huu-tho/binh-luan,Golden Shrimp - Thế Giới Tôm - Nguyễn Hữu Thọ,"Block A, Dragon Hill, Nguyễn Hữu Thọ, Xã Phước Kiển",699,1062264,2,0.0,0,0,0,0,21,0,10.7112671,106.7081041
/ho-chi-minh/man-man-mi-gia/binh-luan,Mẫn Mẫn Mì Gia,2129 Huỳnh Tấn Phát,699,714646,2,8.0,15,6,1,1,302,1,10.693413,106.741572
/ho-chi-minh/bep-ny-banh-mi-ga-nuong-bo-ne/binh-luan,Bếp NY - Bánh Mì Gà Nướng & Bò Né,"1086 Lê Văn Lương, X. Phước Kiển",699,1000051659,2,0.0,0,0,0,0,21,0,10.7072943,106.7029899
/ho-chi-minh/cua2-kien-giang-ca-ri-cua-cua-sot-12-nguyen-huu-tho.wlsds7/binh-luan,CUA2 Kiên Giang - Cà Ri Cua & Cua Sốt - 12 Nguyễn Hữu Thọ,"12 Nguyễn Hữu Thọ, X. Phước Kiển",699,1000054605,2,0.0,1,0,0,0,12,0,10.7120201,106.7073368
/ho-chi-minh/khoai-kafe/binh-luan,Khoái Kafe,"37 Lê Thị Kỉnh, Xã Phước Kiểng",699,1012021,2,0.0,0,0,0,0,42,0,10.714691,106.702165
/ho-chi-minh/win-coffee-2-522-nguyen-van-tao/binh-luan,Win Coffee 2 - 522 Nguyễn Văn Tạo,"522 Nguyễn Văn Tạo, X. Long Thới",699,1117626,2,0.0,0,0,0,0,22,0,10.6456787,106.7315504
/ho-chi-minh/pho-ngoc-2-le-van-luong/binh-luan,Phở Ngọc 2 - Lê Văn Lương,"1165 Lê Văn Lương, Xã Phước Kiểng",699,743090,2,8.2,6,1,2,1,108,0,10.7032906,106.7040437
/ho-chi-minh/bun-rieu-cua-le-van-luong/binh-luan,Bún Riêu Cua - Lê Văn Lương,"1169 Lê Văn Lương, Xã Phước Kiển",699,752542,2,8.0,2,0,1,0,166,1,10.7114327,106.7014839
/ho-chi-minh/easy-life-tra-sua-cuoc-song-de-dang-sunrise-riverside-novaland/binh-luan,Easy Life - Trà Sữa Cuộc Sống Dễ Dàng - Sunrise Riverside Novaland," Tầng Trệt, Shop D1.02 Sunrise Riverside Novaland, Nguyễn Hữu Thọ, X. Phước Kiển",699,1076955,2,0.0,0,0,0,0,56,0,10.722,106.703
/ho-chi-minh/quan-son-ca-be-thui-lau-bo/binh-luan,Quán Sơn Ca - Bê Thui & Lẩu Bò,"924 Lê Văn Lương, Xã Phước Kiến",699,39262,2,0.0,19,3,0,1,1035,1,10.7002370063474,106.7042589560151
/ho-chi-minh/quan-com-9-mao-le-van-luong/binh-luan,Quán Cơm 9 Mão - Lê Văn Lương,"465 Lê Văn Lương, P. Phước Kiển",699,70959,2,0.0,8,5,0,2,968,3,10.692802,106.703763
/ho-chi-minh/dao-hai-long-nha-hang-hai-san/binh-luan,Đảo Hải Long - Nhà Hàng Hải Sản,"179A Nguyễn Hữu Thọ, Xã Nhơn Đức",699,714860,2,7.6,25,0,2,2,915,3,10.6746521,106.7234717999999
/ho-chi-minh/tra-sua-ben-ben-huynh-tan-phat/binh-luan,Trà Sữa Ben Ben - Huỳnh Tấn Phát,2072A Huỳnh Tấn Phát,699,716258,2,5.0,7,1,1,0,867,1,10.6886649823934,106.7422739043831
/ho-chi-minh/kim-oanh-bun-bo-hue/binh-luan,Kim Oanh - Bún Bò Huế ,"219 Huỳnh Tấn Phát, Xã Phú Xuân",699,86270,2,7.6,5,0,1,0,831,0,10.680413,106.748028
/ho-chi-minh/banh-kem-huy-long-huynh-tan-phat/binh-luan,Bánh Kem Huy Long - Huỳnh Tấn Phát,"17/13 Huỳnh Tấn Phát	, Xã Phú Xuân",699,158736,2,7.0,7,0,1,0,826,1,10.692482,106.740964
/ho-chi-minh/com-suon-bun-thit-nuong-co-truc-do-an-sang-trua-huynh-tan-phat/binh-luan,Cơm Sườn Bún Thịt Nướng Cô Trúc - Đồ Ăn Sáng Trưa - Huỳnh Tấn Phát,"2395 Huỳnh Tấn Phát, Thị Trấn Nhà Bè",699,1142197,2,0.0,0,0,0,0,3,0,10.6943704,106.7411559
/ho-chi-minh/khe-coffee-tra-sua-le-van-luong/binh-luan,Khế - Coffee & Trà Sữa - Lê Văn Lương,"283 Lê Văn Lương, Ấp 3, X. Phước Kiển",699,1141268,2,0.0,0,0,0,0,3,0,10.7043754,106.7037039
/ho-chi-minh/tra-sua-kong-le-van-luong/binh-luan,Trà Sữa Kong - Lê Văn Lương,"863 Lê Văn Lương, P. Phước Kiến",699,1141061,2,0.0,0,0,0,0,3,0,10.7169983,106.700173
/ho-chi-minh/phuong-nam-quan-ngo-quang-tham/binh-luan,Phương Nam Quán - Ngô Quang Thắm,"23/4 Ngô Quang Thắm, Ấp 2,  X. Long Thới",699,1140524,2,0.0,0,0,0,0,3,0,10.6621734,106.6979058
/ho-chi-minh/tra-sua-17k-le-van-luong/binh-luan,Trà Sữa 17K - Lê Văn Lương,"1401 Lê Văn Lương, X. Phước Kiểng",699,1140255,2,0.0,0,0,0,0,4,0,10.691141442193,106.7029701042425
/ho-chi-minh/haidangs-ca-vien-chien-an-vat-tran-thi-lien/binh-luan,HaiDangs - Cá Viên Chiên & Ăn Vặt - Trần Thị Liền,"16 Trần Thị Liền, X. Phước Kiển",699,1000054581,2,0.0,0,0,0,0,3,0,10.7099744,106.7041221
/ho-chi-minh/lily-tra-sua-an-vat-nguyen-binh.pjr9oh/binh-luan,Lily - Trà Sữa & Ăn Vặt - Nguyễn Bình,"191 Nguyễn Bình, X. Phú Xuân",699,1000054010,2,0.0,0,0,0,0,4,0,10.6763131,106.7446346
/ho-chi-minh/banh-hoanh-thanh-homemade-shop-online/binh-luan,Bánh Hoành Thánh Homemade - Shop Online,"Newsaigon - Hoàng Anh Gia Lai 3, Nguyễn Hữu Thọ, P. Phước Kiển",699,1021921,2,9.1,10,0,2,2,57,0,10.720582,106.7013
/ho-chi-minh/dac-san-de-nui-nguyen-binh/binh-luan,Đặc Sản Dê Núi - Nguyễn Bình,2/3B Nguyễn Bình,699,120017,2,9.0,19,0,1,2,679,1,10.6830019,106.6976844999999
/ho-chi-minh/quan-sen-bun-bo-bun-cha-ha-noi/binh-luan,Quán Sen - Bún Bò & Bún Chả Hà Nội,"1 Đào Sư Tích, Xã Phước Kiển",699,284152,2,9.0,7,0,1,2,276,2,10.7132762274875,106.7004020829422
/ho-chi-minh/vuong-vit-co/binh-luan,Vương - Vịt Cỏ,"998 Lê Văn Lương, Xã Phước Kiển",699,684539,2,8.866,19,0,3,3,249,0,10.706445,106.703245
/ho-chi-minh/tan-loc-quan-lau-de/binh-luan,Tấn Lộc - Quán Lẩu Dê,"58 Nguyễn Văn Tạo, Xã Long Thới",699,910065,2,8.8,6,0,1,0,89,2,10.661617,106.726589
/ho-chi-minh/thu-thuy-coffee/binh-luan,Thu Thủy Coffee,"A9/1 Khu Dân Cư Phú Xuân, Xã Phú Xuân",699,719801,2,8.8,14,0,1,0,47,0,10.679187,106.740352
/ho-chi-minh/bot-chien-15k-huynh-tan-phat/binh-luan,Bột Chiên 15K - Huỳnh Tấn Phát,2375 Huỳnh Tấn Phát,699,677910,2,7.636,26,0,6,3,278,0,10.678665,106.753055
/ho-chi-minh/tau-hu-nong-5k/binh-luan,Tàu Hủ Nóng 5K,"1940 Huỳnh Tấn Phát, Xã Phú Xuân",699,711442,2,8.332,16,0,3,4,244,1,10.694184,106.740245
/ho-chi-minh/ba-thong-xoi-xeo-ha-noi/binh-luan,Bà Thông - Xôi Xéo Hà Nội,839/4/17 Lê Văn Lương,699,253303,2,6.6,7,0,2,4,323,1,10.7208062797311,106.7007234692573
/ho-chi-minh/banh-xeo-tom-nhay-binh-dinh/binh-luan,Bánh Xèo Tôm Nhảy Bình Định,"1319 Lê Văn Lương, Xã Phước Kiển",699,708878,2,0.0,3,5,0,4,123,0,10.6944383,106.7047079
/ho-chi-minh/lua-hong-bbq/binh-luan,Lửa Hồng BBQ,"12/5B Đường Số 5, Xã Phước Kiển",699,727348,2,0.0,0,0,0,0,98,2,10.722188,106.697734
/ho-chi-minh/good-banh-mi-cha-ca-duong-so-2.z8vpm5/binh-luan,GOOD - Bánh Mì Chả Cá - ĐƯỜNG SỐ 2,"041 Đường Số 2, P. Phước Kiển",699,1000024291,2,0.0,0,0,0,0,9,0,10.720977,106.6976761
/ho-chi-minh/tina-cafe-sinh-to/binh-luan,Tina Cafe & Sinh Tố,"94A Lê Văn Lương, Xã Phước Kiển",699,747560,2,0.0,8,0,0,0,31,0,10.7228657999012,106.6978507134119
/ho-chi-minh/an-cafe-368-le-van-luong/binh-luan,An Cafe - 368 Lê Văn Lương,"368 Lê Văn Lương, Xã Phước Kiển",699,880487,2,0.0,6,0,0,0,19,0,10.723093,106.697871
/ho-chi-minh/loan-banh-trang-100-dao-su-tich/binh-luan,Loan - Bánh Tráng - 100 Đào Sư Tích,"100 Đào Sư Tích, Phước Kiển",699,1000040233,2,0.0,0,0,0,0,3,0,10.71244,106.697275
/ho-chi-minh/bo-hanh-phuc-cac-mon-bo-shop-online/binh-luan,Bò Hạnh Phúc - Các Món Bò - Shop Online,"34 Đường Số 23, KDC Phước Kiển",699,914621,2,0.0,0,0,0,0,24,0,10.717944,106.697614
/ho-chi-minh/cafe-san-vuon-huong-sang/binh-luan,Cafe Sân Vườn Hương Sang,"7 Trần Thị Tao, X. Phước Kiển",699,840494,2,0.0,0,0,0,0,21,0,10.720829,106.69803
/ho-chi-minh/tra-su-a-nho-c-bill-tra-su-a-da-o-su-ti-ch.57w02u/binh-luan,Trà Sữa Nhóc Bill - Trà Sữa - Đào Sư Tích,"106 Đào Sư Tích, X. Phước Kiển",699,1000043924,2,0.0,0,0,0,0,4,0,10.7124327,106.6975619
/ho-chi-minh/banh-cuon-nong-hiep-phat-banh-cuon-banh-uot-huynh-tan-phat.p49vqv/binh-luan,Bánh Cuốn Nóng Hiệp Phát - Bánh Cuốn & Bánh Ướt - Huỳnh Tấn Phát,"1806/111C Huỳnh Tấn Phát, tt. Nhà Bè",699,1000038181,2,0.0,0,0,0,0,25,0,10.6966995,106.7351379
/ho-chi-minh/bun-cha-ha-noi-banh-da-ca-ro-dong/binh-luan,Bún Chả Hà Nội - Bánh Đa Cá Rô Đồng,37 Lê Thị Kỉnh,699,913611,2,0.0,0,1,0,1,120,0,10.714866,106.702612
/ho-chi-minh/xoi-ong-loc/binh-luan,Xôi Ông Lộc,"2177/1/2/9A Huỳnh Tấn Phát, T.T Nhà Bè",699,1047561,2,0.0,0,1,0,0,80,0,10.69121,106.741509
/ho-chi-minh/miss-cafe-xoi-banh-mi/binh-luan,Miss Café - Xôi & Bánh Mì,"1716/46/50 KP. 5, Hẻm Nhà Giảng, TT. Nhà Bè",699,1000034818,2,0.0,0,0,0,0,30,0,10.699275,106.7363175
/ho-chi-minh/quan-chay-tinh-giac-dao-su-tich/binh-luan,Quán Chay Tỉnh Giác - Đào Sư Tích,"8B Đào Sư Tích, P. Phước Kiển",699,1115573,2,0.0,0,2,0,1,6,0,10.7136106,106.7004375
/ho-chi-minh/ha-cao-khoai-lang-lac/binh-luan,Há Cảo & Khoai Lang Lắc,426 Lê Văn Lương,699,315679,2,8.668,8,0,3,3,290,1,10.7085517888717,106.7026405781507
/ho-chi-minh/tra-sua-ngo-nguyen-binh/binh-luan,Trà Sữa Ngố - Nguyễn Bình,"4/3b Nguyễn Bình, Xã Nhơn Đức",699,685830,2,8.5,108,0,2,1,219,1,10.6768433,106.7053513000001
/ho-chi-minh/quan-lau-ly-tina-huynh-tan-phat/binh-luan,Quán Lẩu Ly Tina - Huỳnh Tấn Phát,"2395 Huỳnh Tấn Phát, Thị Trấn Nhà Bè",699,1122906,2,0.0,0,0,0,0,5,0,10.687899,106.7428333
/ho-chi-minh/yummy-food-an-vat-sai-gon-shop-online/binh-luan,Yummy Food - Ăn Vặt Sài Gòn - Shop Online,"1886/91/1 Huỳnh Tấn Phát, TT. Nhà Bè",699,1026849,2,0.0,0,1,0,1,42,0,10.6944656,106.7369951
/ho-chi-minh/quynh-y-com-dao-su-tich.mogwl8/binh-luan,Quỳnh Ý - Cơm - Đào Sư Tích,"23B Đào Sư Tích, X. Phước Kiển",699,1000051328,2,0.0,0,0,0,0,20,0,10.7132132,106.6995995
/ho-chi-minh/napoli-coffee-hoang-anh-gold-house/binh-luan,Napoli Coffee - Hoàng Anh Gold House,"B1.01 - 01 Hoàng Anh Gold House, 187A Lê Văn Lương, P. Phước Kiển",699,854616,2,0.0,0,0,0,0,50,0,10.711207,106.704061
/ho-chi-minh/muk-muk-an-vat-tra-sua/binh-luan,Muk Muk - Ăn Vặt & Trà Sữa,"CC The Park Residence, 12 Nguyễn Hữu Thọ, P. Phước Kiến",699,1084952,2,0.0,0,0,0,0,9,0,10.7219787,106.7015548
/ho-chi-minh/an-vat-hoang-phuc-hamburger-nguyen-binh/binh-luan,Ăn Vặt Hoàng Phúc - Hamburger - Nguyễn Bình,"94 Nguyễn Bình, X. Phú Xuân",699,1078345,2,0.0,0,0,0,0,37,0,10.6770825,106.7484817
/ho-chi-minh/lo-banh-mi-ha-noi-huynh-tan-phat/binh-luan,Lò Bánh Mì Hà Nội - Huỳnh Tấn Phát,"2060 Huỳnh Tấn Phát, Khu Phố 7, TT. Nhà Bè",699,1085967,2,0.0,0,0,0,0,24,0,10.6896462902382,106.7418670973148
/ho-chi-minh/quan-van-chao-goi-ga-vit/binh-luan,Quán Vân - Cháo & Gỏi Gà Vịt,"224A Lê Văn Lương, P. Phước Kiển",699,1114215,2,0.0,0,0,0,0,11,0,10.7099232,106.7022094
/ho-chi-minh/hem-milk-tea-coffee-le-van-luong.kefiwy/binh-luan,Hẻm Milk Tea & Coffee - Lê Văn Lương,"1685/2 Lê Văn Lương, X. Nhơn Đức",699,1000046055,2,0.0,0,0,0,0,25,0,10.6733462,106.6984311
/ho-chi-minh/ga-ran-cp-five-star-1995-huynh-tan-phat/binh-luan,Gà Rán CP Five Star - 1995 Huỳnh Tấn Phát,"1995 Huỳnh Tấn Phát, TT. Nhà Bè",699,1105929,2,0.0,0,0,0,0,24,0,10.6963503,106.7397173
/ho-chi-minh/quan-banh-cuon-nong-ha-noi-le-thi-kinh.pqxlgt/binh-luan,Quán Bánh Cuốn Nóng Hà Nội - Lê Thị Kỉnh,"26 Lê Thị Kỉnh, X. Phước Kiển",699,1000052499,2,0.0,0,0,0,0,28,0,10.7153181,106.7028941
/ho-chi-minh/banh-kem-linh-huong-bong-lan-trung-muoi-pho-mai-banh-mi-hoa-cuc-le-van-luong/binh-luan,Bánh Kem Linh Hương - Bông Lan Trứng Muối Phô Mai & Bánh Mì Hoa Cúc - Lê Văn Lương,"12B Lê Văn Lương, X. Phước Kiển",699,1129715,2,0.0,0,0,0,0,31,0,10.71257,106.701447
/ho-chi-minh/banh-cuon-trung-huynh-tan-phat/binh-luan,Bánh Cuốn Trứng - Huỳnh Tấn Phát,1931 Huỳnh Tấn Phát,699,155924,2,7.6,23,0,1,2,732,0,10.697962,106.739276
/ho-chi-minh/mma-cafe-le-van-luong/binh-luan,MMA Cafe - Lê Văn Lương,101/29/15 Lê Văn Lương,699,87668,2,0.0,10,1,0,0,705,1,10.7138171,106.704862
/ho-chi-minh/hao-nuong-le-van-luong/binh-luan,Hào Nướng - Lê Văn Lương,"267 Lê Văn Lương, Xã Phước Kiểng",699,701689,2,7.0,17,0,2,2,610,0,10.7059544939267,106.7034794390201
/ho-chi-minh/mai-thu-quan-nguyen-huu-tho/binh-luan,Mai Thu Quán - Nguyễn Hữu Thọ,"Nhà A01-02, New Saigon,HAGL 3, Nguyễn Hữu Thọ ",699,110362,2,6.6,11,0,1,1,607,2,10.7209037,106.701173
/ho-chi-minh/tra-sua-kong-s-nguyen-van-tao/binh-luan,Trà Sữa Kong's - Nguyễn Văn Tạo,221 Nguyễn Văn Tạo,699,896252,2,0.0,0,1,0,0,603,0,10.655729,106.728662
/ho-chi-minh/mi-quang-di-hanh-le-van-luong/binh-luan,Mì Quảng Dì Hạnh - Lê Văn Lương,Hẻm 915/20 Lê Văn Lương,699,165054,2,6.0,10,0,1,3,594,2,10.714816,106.702429
/ho-chi-minh/nha-hang-sentosa-palace/binh-luan,Nhà Hàng Sentosa Palace,"116A Nguyễn Hữu Thọ, P. Phước Kiển",699,721991,2,3.8,7,0,2,0,585,1,10.7185677,106.7020607
/ho-chi-minh/chao-long-18a-nam-dinh-2266-huynh-tan-phat/binh-luan,Cháo Lòng 18A Nam Định - 2266 Huỳnh Tấn Phát,"2266 Huỳnh Tấn Phát, X. Phú Xuân",699,1137941,2,0.0,0,0,0,0,15,0,10.6827243931883,106.7462844689362
/ho-chi-minh/quan-nhu-y-nuoc-le-van-luong/binh-luan,Quán Như Ý - Nước - Lê Văn Lương,"1734/8/9A Lê Văn Lương, X. Nhơn Đức",699,1000053340,2,0.0,0,0,0,0,4,0,10.673882,106.697011
/ho-chi-minh/co-3-ca-vien-an-vat-vien-chien-37-1-khu-pho-4-huynh-tan-phat/binh-luan,"CÔ 3 CÁ VIÊN - Ăn Vặt & Viên Chiên - 37/1 Khu Phố 4, Huỳnh Tấn Phát","37/1 Khu Phố 4, Huỳnh Tấn Phát, TT. Nhà Bè",699,1136932,2,0.0,0,0,0,0,16,0,10.7030996,106.7370627
/ho-chi-minh/gaxeo-chicken-beer-bbq-nguyen-huu-tho/binh-luan,GAXEO Chicken - Beer & BBQ - Nguyễn Hữu Thọ,"Tầng 1, Khu A Chung Cư Phú Hoàng Anh 1, 9 Nguyễn Hữu Thọ, Xã Phước Kiển",699,896287,2,8.6,12,0,1,1,232,0,10.716758,106.703864
/ho-chi-minh/smart-coffee-nguyen-huu-tho/binh-luan,Smart Coffee - Nguyễn Hữu Thọ,"Khu 12 Chung Cư The Park Resident, Nguyễn Hữu Thọ, X. Phước Kiển",699,1058200,2,8.6,2,0,1,0,37,0,10.7118900184319,106.708034981006
/ho-chi-minh/milktea-juice-kad/binh-luan,Milktea & Juice Kad,"1792 Huỳnh Tấn Phát, KP. 6, TT. Nhà Bè",699,1038168,2,8.534,9,0,3,0,41,0,10.696705,106.739427
/ho-chi-minh/yeu-cafe-tra-sua-an-vat/binh-luan,"Yêu - Cafe, Trà Sữa & Ăn Vặt",197/50A Lê Văn Lương,699,650027,2,8.5,29,0,2,1,171,1,10.7100336,106.7054355999999
/ho-chi-minh/tra-sua-trang-nhi-2/binh-luan,Trà Sữa Trang Nhi 2,"Đối Diện 2227 Huỳnh Tấn Phát, Xã Phú Xuân",699,684403,2,7.65,26,0,4,0,211,0,10.683187,106.746014
/ho-chi-minh/tina-banh-cuon-banh-uot/binh-luan,Tina - Bánh Cuốn & Bánh Ướt,"1971 Huỳnh Tấn Phát, Xã Phú Xuân",699,284380,2,6.95,17,0,4,0,189,0,10.677123,106.7567
/ho-chi-minh/com-tam-minh-tho/binh-luan,Cơm Tấm Minh Thơ,"1297 Lê Văn Lương, Xã Phước Kiển",699,708874,2,7.15,3,0,4,0,77,0,10.6957333,106.7049281
/ho-chi-minh/mo-banh-mi-xiu-mai-shop-online/binh-luan,Mơ - Bánh Mì Xíu Mại - Shop Online,"5/19 Nguyễn Bình, Ấp 1, X. Nhơn Đức",699,1023282,2,8.1,1,0,2,3,37,0,10.6703198849278,106.7189192771656
/ho-chi-minh/hu-tieu-chay-kien-giang/binh-luan,Hủ Tiếu Chay Kiên Giang,"4A Đào Sư Tích, Phước Kiểng",699,263210,2,0.0,9,12,0,3,270,2,10.7131181,106.6996457
/ho-chi-minh/nuong-nam-bo-ga-nuong-cut-nuong/binh-luan,Nướng Nam Bộ - Gà Nướng & Cút Nướng,44A Lê Văn Lương,699,716290,2,0.0,15,8,0,3,180,1,10.7153511,106.7003589
/ho-chi-minh/nem-nam-nam-dinh-shop-online/binh-luan,Nem Nắm Nam Định - Shop Online,"Chung Cư Hưng Phát, Lê Văn Lương, Xã Phước Kiểng",699,235417,2,0.0,2,6,0,3,407,2,10.7141861029196,106.700726151466
/ho-chi-minh/pho-hai-duong/binh-luan,Phở Hải Dương,"116 Ấp 5, Lê Văn Lương, Xã Phước Kiển",699,229175,2,0.0,2,1,0,1,57,1,10.721972,106.698223
/ho-chi-minh/banh-mi-quang-huy-le-van-luong/binh-luan,Bánh Mì Quang Huy - Lê Văn Lương,"109 Lê Văn Lương, Ấp 3, Xã Phước Kiểng",699,786094,2,0.0,5,2,0,0,103,0,10.7130159,106.6977952
/ho-chi-minh/bun-ca-le-van-luong/binh-luan,Bún Cá - Lê Văn Lương,"Hẻm 57 Lê Văn Lương, Phước Kiển",699,1018211,2,0.0,0,0,0,0,28,0,10.7187208,106.6981543
/ho-chi-minh/chao-ga-ta-dao-su-tich/binh-luan,Cháo Gà Ta - Đào Sư Tích,"23 Đào Sư Tích, Xã Phước Kiển",699,752466,2,4.3,3,0,2,0,114,0,10.7125897,106.6978763
/ho-chi-minh/tu-thuy-seafood-tran-thi-tao/binh-luan,Tư Thuỷ Seafood - Trần Thị Tao,"72 Trần Thị Tao, Xã Phước Kiển",699,1050982,2,0.0,0,0,0,0,30,0,10.720898,106.698424
/ho-chi-minh/foodti-pizza-an-vat-duong-so-11/binh-luan,Foodti - Pizza & Ăn Vặt - Đường Số 11,9B Đường Số 11,699,261465,2,0.0,0,0,0,0,119,0,10.720855,106.698438
/ho-chi-minh/time-cafe-le-van-luong/binh-luan,Time Cafe,4/4 Lê Văn Lương,699,261520,2,0.0,3,0,0,0,143,0,10.7217128531819,106.6985642910003
/ho-chi-minh/an-cafe-le-van-luong/binh-luan,An Cafe,65 Lê Văn Lương,699,655243,2,0.0,4,0,0,0,29,0,10.7207268885402,106.6985314339399
/ho-chi-minh/uyen-trang-bakery-hamburger/binh-luan,Uyên Trang - Bakery & Hamburger,"109 Lê Văn Lương, Xã Phước Kiểng",699,778382,2,0.0,27,0,0,0,130,2,10.7208341769585,106.6985470343933
/ho-chi-minh/bun-thit-nuong-le-van-luong/binh-luan,Bún Thịt Nướng - Lê Văn Lương,"Lê Văn Lương, Xã Phước Kiểng",699,654200,2,0.0,1,4,0,1,103,1,10.721247,106.698635
/ho-chi-minh/blue-bee-milk-tea-coffee/binh-luan,Blue Bee - Milk Tea & Coffee,"816 Lê Văn Lương Ấp 5, X. Phước Kiển",699,1068802,2,0.0,0,0,0,0,54,0,10.7202472,106.6986937
/ho-chi-minh/bun-rieu-bun-bo-hue-co-hai-8b-dao-su-tich/binh-luan,Bún Riêu & Bún Bò Huế Cô Hai - 8B Đào Sư Tích,"8B Đào Sư Tích, P. Phước Kiển",699,1000047032,2,2.8,0,0,1,0,34,0,10.7133945,106.7008138
/ho-chi-minh/quan-che-quynh-anh/binh-luan,Quán Chè Quỳnh Anh,"2315 Huỳnh Tấn Phát, Thị Trấn Nhà Bè",699,1078339,2,0.0,0,0,0,0,43,0,10.6879069,106.7427749
/ho-chi-minh/tiem-nha-may-le-van-luong/binh-luan,Tiệm Nhà Mây - Lê Văn Lương,"843 Lê Văn Lương, P. Phước Kiển",699,1123188,2,0.0,0,0,0,0,30,0,10.7181341,106.6997408
/ho-chi-minh/co-ha-bun-thit-nuong-huynh-tan-phat.kd0ovu/binh-luan,Cô Hà - Bún Thịt Nướng - Huỳnh Tấn Phát,"23/11 (Chợ Phú Xuân, Đầu Hẻm 1622) Huỳnh Tấn Phát, TT. Nhà Bè",699,1000049393,2,0.0,0,0,0,0,41,0,10.7017369,106.7376709
/ho-chi-minh/beelove-tra-sua-an-vat-huynh-tan-phat.pbys6t/binh-luan,BEELOVE - Trà Sữa & Ăn Vặt - Huỳnh Tấn Phát,"1716/46/28A Huỳnh Tấn Phát, X. Phước Kiển",699,1000034872,2,0.0,0,0,0,0,23,0,10.7000943,106.738138
/ho-chi-minh/bun-bo-hue-pho-bo-le-van-luong/binh-luan,Bún Bò Huế & Phở Bò - Lê Văn Lương,"176 Lê Văn Lương, Ấp 3",699,139062,2,7.132,11,0,3,2,396,1,10.7149451114298,106.7008012533187
/ho-chi-minh/oc-binh-dan-20k/binh-luan,Ốc Bình Dân 20K,420/4/12 Huỳnh Tấn Phát,699,205479,2,7.1,12,0,2,1,396,3,10.6907316711706,106.7398290708661
/ho-chi-minh/new-saigon-cafe-bar/binh-luan,New Saigon Cafe Bar,"New Saigon Apartment, Nguyễn Hữu Thọ",699,718500,2,6.8,45,0,1,1,251,9,10.719844,106.700705
/ho-chi-minh/bum-bin-sup-cua-le-van-luong.vxblkl/binh-luan,Bum Bin - Súp Cua - Lê Văn Lương,"1191 Lê Văn Lương, X. Phước Kiển",699,1000050591,2,0.0,0,0,0,0,2,0,10.700435,106.7043567
/ho-chi-minh/sonat-tea-tra-sua-pham-huu-lau.omheq2/binh-luan,Sonat Tea - Trà Sữa - Phạm Hữu Lầu,"360/10/23 Phạm Hữu Lầu, X. Phước Kiển",699,1000048874,2,0.0,0,0,0,0,2,0,10.705179,106.723748
/ho-chi-minh/trung-ka-tra-sua-an-vat-1716-46-huynh-tan-phat.eezavr/binh-luan,Trung Ka - Trà Sữa & Ăn Vặt - 1716/46 Huỳnh Tấn Phát,"1716/46/28A Huỳnh Tấn Phát, X. Phú Xuân",699,1000037484,2,0.0,0,0,0,0,6,0,10.6997328,106.736532
/ho-chi-minh/sai-gon-oi-quan-goi-cuon-che-buoi-nguyen-huu-tho.iyezfa/binh-luan,Sài Gòn Ơi Quán - Gỏi Cuốn & Chè Bưởi - Nguyễn Hữu Thọ,"B1906 Nguyễn Hữu Thọ, X. Phước Kiển",699,1000034068,2,0.0,0,0,0,0,17,0,10.7203772,106.7011177
/ho-chi-minh/jd-coffee-cafe-kimbap-pham-huu-lau.fkabes/binh-luan,JD Coffee - Cafe & Kimbap - Phạm Hữu Lầu,"360/33 Phạm Hữu Lầu, P. Phước Kiển",699,1000050978,2,0.0,0,0,0,0,2,0,10.7017872,106.7213493
/ho-chi-minh/18cent-banh-trang-tron-chi-nhanh-2/binh-luan,18CENT - Bánh Tráng Trộn Chi Nhánh 2,"1063 Lê Văn Lương, X. Phước Kiển",699,1081582,2,0.0,0,0,0,0,55,0,10.700769,106.704081
/ho-chi-minh/ca-phe-diem-tam-kim-banh-uot-ca-phe-dao-tong-nguyen.3nbg2a/binh-luan,Cà Phê & Điểm Tâm Kim - Bánh Ướt & Cà Phê - Đào Tông Nguyên,"24 Đào Tông Nguyên, X. Phú Xuân",699,1000051045,2,0.0,0,0,0,0,17,0,10.6847085,106.7499594
/ho-chi-minh/kutin-chao-goi-vit-ga-ga-vit-nuong-le-van-luong/binh-luan,"Kutin - Cháo Gỏi Vịt, Gà & Gà Vịt Nướng - Lê Văn Lương","18/3 Lê Văn Lương, P. Phước Kiển",699,1075958,2,0.0,0,0,0,0,36,0,10.7161311,106.7004359
/ho-chi-minh/the-green-fro-an-vat-tra-sua-huynh-tan-phat.zmeob5/binh-luan,The Green Fro - Ăn Vặt & Trà Sữa - Huỳnh Tấn Phát,"1716/46/28A Huỳnh Tấn Phát, X. Phú Xuân",699,1000038233,2,0.0,0,0,0,0,16,0,10.6998,106.736478
/ho-chi-minh/linh-thang-ga-ta-tam-ky/binh-luan,Linh Thắng - Gà Ta Tam Kỳ,"993 Lê Văn Lương, Xã Phước Kiển",699,1056098,2,0.0,0,1,0,1,26,0,10.7107978,106.7018896
/ho-chi-minh/loan-banh-trang-le-van-luong/binh-luan,Loan - Bánh Tráng - Lê Văn Lương,"923 Lê Văn Lương, X. Phước Kiển",699,1000035966,2,0.0,0,0,0,0,24,0,10.7130855,106.7012791
/ho-chi-minh/quan-com-tam-phuc-tran-tran-thi-lien/binh-luan,QUÁN CƠM TẤM PHÚC TRÂN - Trần Thị Liền,"15 Trần Thị Liền, X. Phước Kiển",699,1107334,2,0.0,0,0,0,0,24,0,10.709803,106.703116
/ho-chi-minh/ga-ran-so-1-ga-ran-huynh-tan-phat.a7vbvo/binh-luan,Gà Rán Số 1 - Gà Rán - Huỳnh Tấn Phát ,"2056 Huỳnh Tấn Phát, TT. Nhà Bè",699,1000022755,2,0.0,0,0,0,0,28,0,10.6898059,106.7416743
/ho-chi-minh/tai-ky-mi-gia-2183-huynh-tan-phat/binh-luan,Tài Ký Mì Gia - 2183 Huỳnh Tấn Phát,"2183 Huỳnh Tấn Phát, Thị Trấn Nhà Bè",699,784831,2,0.0,1,2,0,1,163,0,10.6877011,106.7428221
/ho-chi-minh/vit-nuong-minh-hieu-3-huynh-tan-phat.bczhbl/binh-luan,Vịt Nướng Minh Hiếu 3 - Huỳnh Tấn Phát,"1768 Huỳnh Tấn Phát, X. Phú Xuân",699,1000051276,2,0.0,0,0,0,0,4,0,10.698293,106.7384258
/ho-chi-minh/kofi-kai-coffee-le-van-luong/binh-luan,Kofi Kai Coffee - Lê Văn Lương,267 Lê Văn Lương,699,737546,2,0.0,8,1,0,0,577,2,10.705644,106.703497
/ho-chi-minh/coffee-tea-phu-my/binh-luan,Coffee & Tea Phú Mỹ,"333 Lê Văn Lương, Ấp 3, X. Phước Kiển",699,1000025334,2,0.0,0,1,0,1,37,0,10.702048,106.7040752
/ho-chi-minh/suoi-mo-cafe-huynh-tan-phat/binh-luan,Suối Mơ Cafe,Huỳnh Tấn Phát,699,276156,2,7.2,8,0,1,0,518,8,10.693139,106.737766
/ho-chi-minh/oc-tien-huynh-tan-phat/binh-luan,Ốc Tiên - Huỳnh Tấn Phát,1740 Huỳnh Tấn Phát,699,163783,2,7.3,5,0,2,1,490,1,10.7049101,106.7377636
/ho-chi-minh/sun-moon-coffee-take-away/binh-luan,Sun & Moon Coffee Take Away,101/23/3 Lê Văn Lương,699,98569,2,0.0,1,1,0,1,457,1,10.7153982,106.7031729
/ho-chi-minh/sua-bo-tuoi-yumi-thuc-uong-le-van-luong.4tbi2q/binh-luan,Sữa Bò Tươi Yumi  - Thức Uống   - Lê Văn Lương,"197/45/4 Lê Văn Lương, X. Phước Kiển",699,1000052278,2,0.0,0,0,0,0,26,0,10.7088845,106.7023873
/ho-chi-minh/round-banh-trang-lui-nguyen-huu-tho.mvieur/binh-luan,Round - Bánh Tráng Lụi - Nguyễn Hữu Thọ,"Saigon South, Block D, 113A Nguyễn Hữu Thọ, X. Phước Kiển",699,1000051919,2,0.0,0,0,0,0,23,0,10.7200359,106.7001992
/ho-chi-minh/an-vat-nhu-y-bot-chien-2129-huynh-tan-phat.nrxt1k/binh-luan,Ăn Vặt Như Ý - Bột Chiên - 2129 Huỳnh Tấn Phát,"2129/29/2/7 Huỳnh Tấn Phát, TT. Nhà Bè",699,1000051836,2,0.0,0,0,0,0,20,0,10.699213,106.738305
/ho-chi-minh/bun-rieu-canh-bun-binh-huynh-tan-phat/binh-luan,Bún Riêu & Canh Bún Bình - Huỳnh Tấn Phát,"1806/24 Huỳnh Tấn Phát, TT. Nhà Bè",699,1000051581,2,0.0,0,0,0,0,13,0,10.7003133,106.736484
/ho-chi-minh/bean-bakery-banh-le-van-luong.o1ytey/binh-luan,Bean Bakery - Bánh - Lê Văn Lương,"1236/8/7D Lê Văn Lương, X. Phước Kiển",699,1000051332,2,0.0,0,0,0,0,27,0,10.7131573,106.7015348
/ho-chi-minh/truc-xinh-tra-oi-cafe-1709-le-van-luong.qtwqs5/binh-luan,Trúc Xinh - Trà Ổi & Cafe - 1709 Lê Văn Lương ,"1709 Lê Văn Lương, P. Nhơn Đức",699,1000051256,2,0.0,0,0,0,0,24,0,10.6717128,106.6979514
/ho-chi-minh/nuoc-ep-fresh-shop-online/binh-luan,Nước Ép Fresh - Shop Online,1716/46/74/1A Huỳnh Tấn Phát,699,188950,2,8.4,1,0,1,0,104,0,10.6978244315914,106.7350602865082
/ho-chi-minh/pho-dan/binh-luan,Phở Đan,"1913 Huỳnh Tấn Phát, KP. 5",699,739460,2,8.332,16,0,3,0,105,0,10.69839,106.738895
/ho-chi-minh/com-tam-sang/binh-luan,Cơm Tấm Sáng,"1942/40 Huỳnh Tấn Phát, Xã Phú Xuân",699,674237,2,7.398,15,0,3,1,86,0,10.693474,106.73891
/ho-chi-minh/suoi-da-cafe-le-van-luong/binh-luan,Suối Đá Cafe,"203 Lê Văn Lương, Ấp 3, Xã Phước Kiển",699,290630,2,7.134,7,0,3,0,291,1,10.7089520549484,106.7026684060692
/ho-chi-minh/banh-canh-cua-442/binh-luan,Bánh Canh Cua 442,"1942 Huỳnh Tấn Phát, Xã Phú Xuân",699,221468,2,8.0,12,7,1,2,257,3,10.690829,106.741449
/ho-chi-minh/pho-thin-2/binh-luan,Phở Thìn 2,"1944 Huỳnh Tấn Phát, P. Phú Xuân",699,979422,2,7.3,17,3,2,2,60,0,10.696675,106.73946
/ho-chi-minh/ven-tron-tiem-banh-online-le-van-luong.jmvwie/binh-luan,Vẹn Tròn - Tiệm Bánh Online - Lê Văn Lương,"Chung cư Goldora Plaza, 26 Lê Văn Lương, X. Phước Kiển",699,1000024208,2,0.0,0,0,0,0,12,0,10.719434,106.698682
/ho-chi-minh/com-binh-dan-thanh-tam/binh-luan,Cơm Bình Dân Thanh Tâm,47 Đào Sư Tích,699,880275,2,0.0,1,0,0,0,25,0,10.7125554141391,106.6982964053749
/ho-chi-minh/bun-bo-hue-dao-su-tich/binh-luan,Bún Bò Huế - Đào Sư Tích,261 Đào Sư Tích,699,752468,2,0.0,1,2,0,0,28,0,10.712806613628,106.6983162683305
/ho-chi-minh/di-5-com-hu-tieu-bun-rieu/binh-luan,"Dì 5 - Cơm, Hủ Tiếu & Bún Riêu",25 Đào Sư Tích,699,880274,2,0.0,1,1,0,0,14,0,10.7125975815555,106.6983409970998
/ho-chi-minh/bep-am-an-vat-online/binh-luan,Bếp Ấm - Ăn Vặt Online,"74 Đào Sư Tích, X. Phước Kiểng",699,1019220,2,1.8,1,0,1,0,32,0,10.7127745,106.6983834
/ho-chi-minh/chao-long-hu-tieu-banh-canh-le-van-luong/binh-luan,"Cháo Lòng, Hủ Tiếu & Bánh Canh - Lê Văn Lương","166C Lê Văn Lương, Xã Phước Kiển",699,882251,2,0.0,1,0,0,0,54,1,10.7199823892214,106.6988261416554
/ho-chi-minh/kati-milk-tea-tra-sua-sinh-to-le-van-luong/binh-luan,"KATI MILK TEA - Trà Sữa, Sinh Tố - Lê Văn Lương","799 Lê Văn Lương Ấp 5, Xã Phước Kiểng",699,1000022546,2,0.0,0,0,0,0,17,0,10.7203218,106.6988626
/ho-chi-minh/xi-trum-quan-an-vat-le-van-luong/binh-luan,Xì Trum Quán - Ăn Vặt - Lê Văn Lương,"26 Lê Văn Lương, X. Phước Kiển",699,1000022578,2,0.0,0,0,0,0,46,0,10.7195413,106.6989323
/ho-chi-minh/ga-nuong-ngan-26-le-van-luong.yqyrri/binh-luan,Gà Nướng Ngân - 26 Lê Văn Lương,"26 Lê Văn Lương, X. Phước Kiển",699,1000037465,2,0.0,0,0,0,0,22,0,10.7191694,106.6990273
/ho-chi-minh/sang-sang-coffe-nuoc-uong-le-van-luong.ubkunq/binh-luan,Sang Sang Coffe - Nước Uống - Lê Văn Lương,"26 Lê Văn Lương, P. Phước Kiển",699,1000049588,2,0.0,0,0,0,0,7,0,10.7191694,106.6990273
/ho-chi-minh/cafe-huong-sang-le-van-luong/binh-luan,Cafe Hương Sang - Lê Văn Lương,"160 Lê Văn Lương, Ấp 5, X. Phước Kiển",699,1083836,2,0.0,0,0,0,0,32,0,10.7194732,106.6991097
/ho-chi-minh/bun-thai-ghien/binh-luan,Bún Thái Ghiền,"Block C 1.2 Phú Hoàng Anh, 9 Nguyễn Hữu Thọ, X. Phước Kiển",699,1034918,2,1.0,7,2,1,2,98,1,10.71681,106.70391
/ho-chi-minh/ka-coffee/binh-luan,KA Coffee,78B Dương Cát Lợi,699,696400,2,7.7,10,0,2,0,66,2,10.7015907,106.7408568000001
/ho-chi-minh/milano-coffee-phan-van-bay/binh-luan,Milano Coffee - Phan Văn Bảy,"178 Phan Văn Bảy, Áp 1, Xã hiệp Phước",699,1027800,2,0.0,0,0,0,0,42,0,10.632354,106.736942
/ho-chi-minh/an-vat-milk-sua-gao-nguyen-binh.ckfygw/binh-luan,Ăn Vặt & Milk Sữa Gạo - Nguyễn Bình,"26/4c Ấp 1 Nguyễn Bình, P. Phú Xuân",699,1000049963,2,0.0,0,0,0,0,13,0,10.6781325,106.7520401
/ho-chi-minh/em-la-nem-nem-cha-nha-trang/binh-luan,Em Là Nem - Nem Chả Nha Trang,"Block G, Chung Cư Saigon South Residence, Đường Nguyễn Hữu Thọ, X. Phước Kiển",699,1087880,2,0.0,0,0,0,0,26,0,10.7205882,106.7023676
/ho-chi-minh/quan-mien-trung-banh-xeo-le-van-luong.d2dpmj/binh-luan,Quán Miền Trung - Bánh Xèo - Lê Văn Lương,"1368/41 Lê Văn Lương, P. Phước Kiển",699,1000024599,2,0.0,0,0,0,0,18,0,10.693959,106.702636
/ho-chi-minh/com-tam-le-hieu-le-van-luong/binh-luan,Cơm Tấm Lê Hiếu - Lê Văn Lương,"1017 Lê Văn Lương, Ấp 3, X. Phước Kiển",699,1111614,2,0.0,0,0,0,0,23,0,10.710023,106.702174
/ho-chi-minh/dinh-ky-am-thuc-hoa-viet/binh-luan,Đinh Ký - Ẩm Thực Hoa Việt,"B.01.07 Sunrise Riverside, Nguyễn Hữu Thọ, Xã Phước Kiển",699,1044429,2,0.0,0,0,0,0,28,0,10.722,106.703
/ho-chi-minh/thuc-pham-tuoi-ngon-moi-ngay-huynh-tan-phat/binh-luan,Thực Phẩm Tươi Ngon Mỗi Ngày - Huỳnh Tấn Phát,"2790 Huỳnh Tấn Phát, X. Phú Xuân",699,1086385,2,0.0,0,0,0,0,25,0,10.673887,106.764855
/ho-chi-minh/ashley-s-snack-huynh-tan-phat/binh-luan,Ashley’s Snack - Huỳnh Tấn Phát,"2266/14/33/13C Huỳnh Tấn Phát, Xã Phú Xuân",699,1084080,2,0.0,0,0,0,0,16,0,10.6830896,106.74362
/ho-chi-minh/haocha-milk-tea-dragon-parc-1/binh-luan,HAOCHA Milk Tea - Dragon Parc 1,"Căn DP25 Khu Biệt Thự Dragon Parc 1, Đường Nguyễn Hữu Thọ, X. Phước Kiến",699,1112262,2,0.0,0,0,0,0,14,0,10.7017246,106.7151604
/ho-chi-minh/tra-sua-kitty-le-van-luong/binh-luan,Trà Sữa Kitty,"187 Lê Văn Lương, Xã Phước Kiểng",699,708295,2,7.1,5,0,2,0,156,0,10.711433,106.702115
/ho-chi-minh/mia-cong-nuoc-mia-sau-rieng-rau-ma-va-banh-mi-que-nguyen-huu-tho/binh-luan,"Mía Cộng - Nước Mía Sầu Riêng, Rau Má Và Bánh Mì Que - Nguyễn Hữu Thọ","Chung cư Saigon South Residence, 673 Nguyễn Hữu Thọ, P. Phước Kiển",699,1000048446,2,0.0,0,1,0,1,31,0,10.7218031,106.7016429
/ho-chi-minh/co-xanh-food-thit-bo-nhap-khau/binh-luan,Cỏ Xanh Food - Thịt Bò Nhập Khẩu,"54/4 Dương Cát Lợi, KP. 4, TT. Nhà Bè",699,1091423,2,0.0,0,0,0,0,37,0,10.7013358,106.7386086
/ho-chi-minh/bun-bo-hue-co-do/binh-luan,Bún Bò Huế Cố Đô,"787 Nguyễn Văn Tạo, Ấp 1, Xã Long Thới",699,178892,2,8.2,1,0,1,0,384,1,10.6386860211054,106.7342849587219
/ho-chi-minh/com-ga-hai-nam-giao-com-van-phong/binh-luan,Cơm Gà Hải Nam - Giao Cơm Văn Phòng,"D108 Chung Cư Hoang Anh Gia Lai 3, Nguyễn Hữu Thọ, X. Phước Kiển",699,218573,2,0.0,0,5,0,2,356,1,10.7203058842831,106.7008716613054
/ho-chi-minh/kimbap-cuon-cuon/binh-luan,Kimbap Cuốn & Cuộn,1840 Huỳnh Tấn Phát,699,257980,2,0.0,3,5,0,1,355,1,10.6969866711888,106.739202439785
/ho-chi-minh/sup-cua-ga-xe-huynh-tan-phat/binh-luan,Súp Cua Gà Xé - Huỳnh Tấn Phát,1944 Huỳnh Tấn Phát,699,212399,2,7.0,2,0,1,1,342,1,10.693898,106.740252
/ho-chi-minh/mr-bbq-pizza/binh-luan,Mr.BBQ & Pizza,2064 Huỳnh Tấn Phát,699,697888,2,5.0,4,0,1,0,339,0,10.6876037,106.7428778999999
/ho-chi-minh/lucky-quan-ca-vien-chien-chien-nuoc-mam-huynh-tan-phat.tcky3h/binh-luan,Lucky Quán  - Cá Viên Chiên & Chiên Nước Mắm - Huỳnh Tấn Phát,"1622/36/25 Huỳnh Tấn Phát, T.T Nhà Bè",699,1000051092,2,0.0,1,0,0,0,15,0,10.7027162,106.7369665
/ho-chi-minh/tiem-coffee-lawyers-cafe-tra-le-van-luong.djv1y0/binh-luan,Tiệm Coffee & Lawyers - Cafe & Trà - Lê Văn Lương,"Chung Cư Hoàng Anh Gia Lai An Tiến 187 Lê Văn Lương, X. Phước Kiển",699,1000050757,2,0.0,0,0,0,0,5,0,10.710111,106.7023067
/ho-chi-minh/chicken-168-chip-chip-pizza-ga-sot-cay-han-quoc-nguyen-van-tao.aqzttr/binh-luan,Chicken 168 Chip Chip - Pizza Gà Sốt Cay Hàn Quốc - Nguyễn Văn Tạo,"718 Nguyễn Văn Tạo, P. Hiệp Phước",699,1000050534,2,0.0,1,0,0,0,28,1,10.6346382,106.7351968
/ho-chi-minh/dreamerry-cakery-banh-va-cac-loai-trang-mieng-le-van-luong.qsicuz/binh-luan,Dreamerry Cakery - Bánh Và Các Loại Tráng Miệng - Lê Văn Lương,"1017/26/38  Lê Văn Lương, X. Phước Kiển",699,1000050487,2,0.0,14,0,0,0,14,0,10.709168,106.7048027
/ho-chi-minh/bep-co-muoi-bu-n-bo-bo-ne-huynh-tan-phat.dkv0q5/binh-luan,BẾP CÔ MƯỜI - Bún Bò & Bò Né - Huỳnh Tấn Phát,"1994 Huỳnh Tấn Phát, TT. Nhà Bè",699,1000050149,2,0.0,0,0,0,0,3,0,10.6876098,106.7428859
/ho-chi-minh/lau-bo-189-lau-bo-chung-cu-sunrise-riverside.otbocg/binh-luan,Lẩu Bò 189 - Lẩu Bò - Chung Cư Sunrise Riverside,"Căn E01.01 Block E Sunrise Riverside, X. Phước Kiển",699,1000050115,2,0.0,0,0,0,0,3,0,10.7225915,106.7035988
/ho-chi-minh/dao-le-ha-cao-nha-be-1806-110-huynh-tan-phat.iqhrak/binh-luan,Đào Lệ Há Cảo Nhà Bè - 1806/110 Huỳnh Tấn Phát,"1806/110 Huỳnh Tấn Phát, TT. Nhà Bè",699,1000050015,2,0.0,0,0,0,0,19,0,10.6999481,106.738308
/ho-chi-minh/thuc-an-nhanh-huynh-tan-phat/binh-luan,Thức Ăn Nhanh - Huỳnh Tấn Phát,"1952 Huỳnh Tấn Phát, P. Phú Xuân",699,995943,2,8.2,12,0,1,0,31,0,10.69666,106.739415
/ho-chi-minh/banh-mi-sandwich-kep-kep/binh-luan,Bánh Mì Sandwich Kẹp Kẹp,"Chung Cư New Sài Gòn, Nguyễn Hữu Thọ, Xã Phước Kiểng",699,1059667,2,8.2,0,0,1,0,68,0,10.7200515,106.7007583
/ho-chi-minh/sinh-to-nuoc-ep-1740-huynh-tan-phat/binh-luan,Sinh Tố & Nước Ép - 1740 Huỳnh Tấn Phát,"1740 Huỳnh Tấn Phát, Xã Phú Xuân",699,993464,2,8.1,26,0,2,0,38,0,10.686408,106.743712
/ho-chi-minh/a-duc-bun-bo-hue-bun-cha-tom/binh-luan,A Đức - Bún Bò Huế & Bún Chả Tôm,"1827 Huỳnh Tấn Phát, Xã Phú Xuân",699,267117,2,7.4,12,0,2,2,259,0,10.691262,106.741471
/ho-chi-minh/pho-hu-tieu-bun-moc/binh-luan,"Phở, Hủ Tiếu & Bún Mọc","65 Lê Văn Lương, Xã Phước Kiển",699,702388,2,6.9,7,0,2,2,62,0,10.708768,106.702552
/ho-chi-minh/hue-hu-tieu-bun-ca-quy-nhon/binh-luan,Huệ - Hủ Tiếu & Bún Cá Quy Nhơn,"1017/19 Lê Văn Lương, Xã Phước Kiển",699,699239,2,7.0,11,0,1,2,176,0,10.70977,106.703228
/ho-chi-minh/quan-chay-vegan/binh-luan,Quán Chay Vegan,"Hẻm 5 Lê Văn Lương, P. Phước Kiển",699,701709,2,0.0,9,5,0,2,143,1,10.7152824479348,106.703354716301
/ho-chi-minh/bo-la-lop-bo-nuong-mo-chai/binh-luan,Bò Lá Lốp & Bò Nướng Mỡ Chài,"1317 Lê Văn Lương, Xã Phước Kiển",699,708879,2,0.0,3,5,0,2,130,0,10.6945607,106.7047295
/ho-chi-minh/xoi-chien-anh-thu-le-van-luong/binh-luan,Xôi Chiên Anh Thư - Lê Văn Lương,"454 Lê Văn Lương, Xã Phước Kiểng",699,776240,2,0.0,3,3,0,2,91,0,10.710255,106.702027
/ho-chi-minh/banh-cuon-nhan-le-van-luong/binh-luan,Bánh Cuốn Nhân - Lê Văn Lương,"831/7 Lê Văn Lương, X. Phước Kiển",699,1068976,2,0.0,0,0,0,0,28,0,10.7194009,106.6992941
/ho-chi-minh/tre-tron-cuben-tre-tron-le-van-luong.gtcfhs/binh-luan,Tré Trộn Cuben - Tré Trộn - Lê Văn Lương,"7 Lê Văn Lương, X. Phước Kiển",699,1000044261,2,0.0,0,0,0,0,17,0,10.7192987,106.6993009
/ho-chi-minh/com-trua-van-phong-chu-tret-com-phan-le-van-luong.r7llpa/binh-luan,Cơm Trưa Văn Phòng Chú Trệt - Cơm Phần - Lê Văn Lương,"7 Lê Văn Lương, X. Phước Kiển",699,1000040318,2,0.0,0,0,0,0,20,0,10.7192987,106.6993009
/ho-chi-minh/thong-thai-lo-banh-mi/binh-luan,Thông Thái - Lò Bánh Mì,"160 Lê Văn Lương, Xã Phước Kiển",699,882243,2,0.0,1,1,0,0,33,1,10.719077,106.699304
/ho-chi-minh/bun-mam-banh-canh-hoang-yen/binh-luan,Bún Mắm & Bánh Canh Hoàng Yến,"7 Lê Văn Lương, Xã Phước Kiển",699,1053965,2,0.0,0,1,0,1,69,1,10.719268,106.69934
/ho-chi-minh/chao-trang-bun-thit-nuong-le-van-luong/binh-luan,Cháo Trắng & Bún Thịt Nướng - Lê Văn Lương,183 Lê Văn Lương,699,752547,2,0.0,1,0,0,0,94,0,10.7185939,106.6993156
/ho-chi-minh/com-tam-44-dao-su-tich/binh-luan,Cơm Tấm 44 - Đào Sư Tích,"23 Đào Sư Tích, Ấp 3, X.Phước Kiển",699,238408,2,0.0,8,0,0,0,80,2,10.7129765,106.6992027
/ho-chi-minh/pho-ha-noi-quang-dai-huynh-tan-phat/binh-luan,Phở Hà Nội Quang Đại - Huỳnh Tấn Phát,"2315A Huỳnh Tấn Phát Khu Phố 7, TT. Nhà Bè",699,1114676,2,0.0,0,0,0,0,26,0,10.685583,106.744528
/ho-chi-minh/tam-ky-nguyen-binh/binh-luan,Tâm Ký - Nguyễn Bình,"288 Nguyễn Bình, Ấp 1, Xã Phú Xuân",699,1053971,2,0.0,0,0,0,0,77,0,10.674569,106.736389
/ho-chi-minh/com-tam-binh-dan-18-le-van-luong/binh-luan,Cơm Tấm Bình Dân - 18 Lê Văn Lương,18 Lê Văn Lương,699,791476,2,0.0,6,1,0,1,86,0,10.712222,106.7015379
/ho-chi-minh/sake-quan-banh-mi-hamburger-an-vat/binh-luan,Sake Quán - Bánh Mì Hamburger & Ăn Vặt,"88A Ấp 2, Đường Nguyễn Bình, X. Phú Xuân",699,1120989,2,0.0,0,0,0,0,8,0,10.676799,106.747866
/ho-chi-minh/ca-vien-chien-le-van-luong/binh-luan,Cá Viên Chiên 176 - Lê Văn Lương,176 Lê Văn Lương,699,139069,2,0.0,0,1,0,1,126,0,10.7149029,106.7008012
/ho-chi-minh/hana-juice-milktea-05-saigon-south-residence.zweawr/binh-luan,HANA - Juice & Milktea - 05 Saigon South Residence,"Shop 05 Chung Cư Saigon South Residence, X. Phước Kiển",699,1000047105,2,0.0,0,0,0,0,6,0,10.7216633,106.7039716
/ho-chi-minh/cau-dat-coffee-nguyen-huu-tho/binh-luan,Cầu Đất Coffee - Nguyễn Hữu Thọ,"Center Point Plaza, 12 Nguyễn Hữu Thọ, Xã Phước Kiển",699,925006,2,0.0,0,0,0,0,20,0,10.711606,106.707607
/ho-chi-minh/saffron-juice-nuoc-ep-lanh-nhuy-hoa-nghe-tay-huu-co/binh-luan,Saffron Juice - Nước Ép Lạnh Nhụy Hoa Nghệ Tây Hữu Cơ,"A1-11 Hoàng Anh Gia Lai 3, Nguyễn Hữu Thọ, Xã Phước Kiển",699,1077573,2,0.0,0,0,0,0,54,0,10.720909,106.701168
/ho-chi-minh/pho-ngoc-duong-le-van-luong/binh-luan,Phở Ngọc - 69C Lê Văn Lương,"69C Lê Văn Lương, X. Phước Kiển",699,752420,2,0.0,1,1,0,1,106,0,10.70842,106.7025648
/ho-chi-minh/tiem-an-hai-thanh-huynh-tan-phat/binh-luan,Tiệm Ăn Hải Thành - Huỳnh Tấn Phát,"2303 Huỳnh Tấn Phát, TT. Nhà Bè",699,1129451,2,0.0,0,0,0,0,5,0,10.6879063039761,106.7428181969053
/ho-chi-minh/de-tuoi-truong-khang-de-tuoi-nguyen-van-tao.h7hoym/binh-luan,Dê Tươi Trường Khang - Dê Tươi - Nguyễn Văn Tạo,"491 Nguyễn Văn Tạo, X. Hiệp Phước",699,1000049373,2,0.0,0,0,0,0,16,0,10.6317488,106.7360155
/ho-chi-minh/pulls-coffee-ca-phe-tra-sua-le-van-luong.jfqrja/binh-luan,Pulls Coffee - Cà Phê & Trà Sữa - Lê Văn Lương,"1246 Lê Văn Lương, X. Phước Kiển",699,1000039353,2,0.0,0,0,0,0,13,0,10.7004692,106.7041173
/ho-chi-minh/lucha-tea-coffee/binh-luan,Lucha - Tea & Coffee,"1200 Lê Văn Lương, Ấp 3, P. Phước Kiển",699,1069001,2,0.0,0,0,0,0,50,0,10.7005163,106.704113
/ho-chi-minh/tra-sua-mi-y-son-beo-tra-sua-mi-y.ezcott/binh-luan,Trà Sữa Mì Ý Sơn Béo - Trà Sữa - Mì Ý,"1942/14 Huỳnh Tấn Phát, TT. Nhà Bè",699,1000022732,2,0.0,0,0,0,0,28,0,10.6930105,106.7383438
/ho-chi-minh/mang-s-mania-nha-hang-chay/binh-luan,Măng's Mania - Nhà Hàng Chay,"Chung Cư Phú Hoàng Anh, Nguyễn Hữu Thọ, Xã Phước Kiển",699,660512,2,0.0,11,6,0,1,327,1,10.7118247309441,106.7061173915863
/ho-chi-minh/tra-sua-meo-luoi/binh-luan,Mèo Lười - Quán Ăn & Trà Sữa," 466 Huỳnh Tấn Phát, TT. Nhà Bè",699,798989,2,0.0,2,3,0,1,321,2,10.689464,106.741889
/ho-chi-minh/hai-co-bun-dau-mam-tom/binh-luan,Hai Cô - Bún Đậu Mắm Tôm,"1125 Lê Văn Lương, Xã Phước Kiển",699,881149,2,5.0,2,0,1,0,313,0,10.697317,106.704678
/ho-chi-minh/codi-coffee/binh-luan,Codi Coffee,"150 Long Hậu, Xã Hiệp Phước",699,768928,2,0.0,40,1,0,0,309,1,10.631606,106.734285
/ho-chi-minh/five-star-chicken-hoang-khong-le-van-luong/binh-luan,Five Star Vietnam Hoàng Khổng - Lê Văn Lương,"116 Lê Văn Lương, Phước Kiểng",699,118742,2,0.0,2,3,0,0,300,1,10.6905268,106.7026882
/ho-chi-minh/thien-huong-bakery/binh-luan,Thiên Hương Bakery,"1423 Lê Văn Lương, Xã Phước Kiển, X. Phước Kiển",699,747551,2,0.0,5,0,0,0,294,1,10.6895207,106.7023107
/ho-chi-minh/coffee-68-nguyen-binh/binh-luan,Coffee 68 - Nguyễn Bình,"5/12B Nguyễn Bình, Ấp 1, X. Nhơn Đức",699,1129927,2,0.0,0,0,0,0,20,0,10.671622,106.723624
/ho-chi-minh/milano-nuoc-ep-trai-cay-mix-le-van-luong.zzpqix/binh-luan,Milano - Nước Ép Trái Cây Mix - Lê Văn Lương,"1360 Lê Văn Lương, X. Phước Kiển",699,1000048826,2,0.0,0,0,0,0,7,0,10.6955215,106.7047246
/ho-chi-minh/khoi-vegan-kitchen-lau-thai-chay-nguyen-huu-tho.gvjceh/binh-luan,Khoi Vegan Kitchen - Lẩu Thái Chay - Nguyễn Hữu Thọ,"Shophouse 80, Block B, CC The Park Residence, 12 Nguyễn Hữu Thọ, X. Phước Kiển",699,1000048534,2,0.0,0,0,0,0,50,0,10.7121278,106.7073071
/ho-chi-minh/hi-potato-tra-sua-an-vat/binh-luan,Hi Potato - Trà Sữa & Ăn Vặt,"992 Lê Văn Lương, Xã Phước Kiển",699,745715,2,8.0,18,0,1,1,100,0,10.706899,106.702868
/ho-chi-minh/phi-long-coffee-showroom-tra-ca-phe/binh-luan,Phi Long Coffee - Showroom Trà & Cà Phê,"1967 Huỳnh Tấn Phát, Tt. Nhà Bè",699,959644,2,8.0,16,0,1,1,258,0,10.697175,106.739414
/ho-chi-minh/quan-oc-han-quoc/binh-luan,Quán Ốc Hàn Quốc,"857 Lê Văn Lương, Xã Phước Kiển",699,1051724,2,7.8,5,0,1,0,34,0,10.713857,106.700986
/ho-chi-minh/bot-chien-cay-me-phu-xuan/binh-luan,Bột Chiên Cây Me - Phú Xuân,"1888 Huỳnh Tấn Phát, TT. Nhà Bè",699,1001518,2,7.8,10,0,1,0,39,0,10.69667,106.739439
/ho-chi-minh/banh-xeo-rau-rung-hem-1979/binh-luan,Bánh Xèo Rau Rừng Hẻm 1979,"Căn Tin UBND Thị Trấn Nhà Bè, Hẻm 1979 Huỳnh Tấn Phát",699,650565,2,7.8,0,0,1,1,104,0,10.6969191339547,106.7402109503746
/ho-chi-minh/ichi-coffee/binh-luan,Ichi Coffee,1080 Lê Văn Lương,699,667715,2,5.0,11,0,2,0,253,2,10.713817,106.700981
/ho-chi-minh/nuoc-ep-sinh-to-sai-gon/binh-luan,Nước Ép Sinh Tố Sài Gòn,"1092 Lê Văn Lương, Xã Phước Kiểng",699,709034,2,0.0,2,2,0,2,135,0,10.700595,106.7040936
/ho-chi-minh/pho-bun-bo-binh-dan/binh-luan,Phở & Bún Bò Bình Dân,"101 Lê Văn Lương, Xã Phước Kiển",699,238402,2,0.0,2,2,0,2,38,0,10.707849,106.7028359999999
/ho-chi-minh/nam-duyen-banh-xeo-mien-tay/binh-luan,Năm Duyên - Bánh Xèo Miền Tây,"195 Lê Văn Lương, X. Phước Kiểng",699,786121,2,0.0,2,2,0,2,82,0,10.708288,106.702759
/ho-chi-minh/com-chay-goi-cuon-banh-trang-tron/binh-luan,"Cơm Cháy, Gỏi Cuốn & Bánh Tráng Trộn","105A Lê Văn Lương, Phước Kiển",699,880488,2,0.0,1,2,0,2,83,0,10.7095251270924,106.7024461562515
/ho-chi-minh/v2-coffee/binh-luan,V2 Coffee,101/8 Lê Văn Lương,699,716274,2,0.0,14,0,0,0,58,0,10.7178866,106.6995839
/ho-chi-minh/goi-cuon-hot-vit-lon-trung-cut-lon-le-van-luong/binh-luan,"Gỏi Cuốn, Hột Vịt Lộn & Trứng Cút Lộn - Lê Văn Lương","123 Lê Văn Lương, Xã Phước Kiển",699,882245,2,0.0,1,0,0,0,68,0,10.718151,106.699635
/ho-chi-minh/lo-quay-truc-lieu-2/binh-luan,Lò Quay Trúc Liễu 2,860 Lê Văn Lương,699,880247,2,0.0,1,1,0,1,71,0,10.7176530169137,106.6996204107999
/ho-chi-minh/quan-quy-oc-lau/binh-luan,Quán Quý - Ốc & Lẩu,101 Lê Văn Lương,699,716282,2,0.0,12,0,0,0,58,0,10.7177215378088,106.6996482387185
/ho-chi-minh/bao-phuong-banh-mi-doner-kebab-le-van-luong/binh-luan,Bảo Phương - Bánh Mì Doner Kebab - Lê Văn Lương,"101 Lê Văn Lương, Xã Phước Kiển",699,882018,2,0.0,1,0,0,0,35,0,10.7177215378088,106.6996482387185
/ho-chi-minh/sinh-to-thanh-phat/binh-luan,Sinh Tố Thành Phát,134C Lê Văn Lương,699,880253,2,0.0,1,0,0,0,27,0,10.7169879022267,106.6996200755238
/ho-chi-minh/au-tea-tra-sua-tra-trai-cay-dao-su-tich/binh-luan,Au Tea - Trà Sữa & Trà Trái Cây - Đào Sư Tích,"23 Đào Sư Tích, Ấp 3, X. Phước Kiểng",699,1083426,2,0.0,0,0,0,0,31,0,10.7131444,106.6994081
/ho-chi-minh/vit-nuong-la-mac-mat-ga-nuong-muoi-ot/binh-luan,Vịt Nướng Lá Mắc Mật & Gà Nướng Muối Ớt,866 Lê Văn Lương,699,880249,2,0.0,1,0,0,0,114,0,10.7173667443523,106.6996938362717
/ho-chi-minh/com-tam-dem-834-le-van-luong/binh-luan,Cơm Tấm Đêm - 834 Lê Văn Lương,834 Lê Văn Lương,699,880095,2,0.0,1,0,0,0,17,0,10.7174632666616,106.6997240111231
/ho-chi-minh/pho-ly-nguyen-huu-tho.qwnag6/binh-luan,Phở Ly - Nguyễn Hữu Thọ,"iI 01.04 Tháp I Sunrise Riverside, 43 Nguyễn Hữu Thọ, Phước Kiển",699,1000038059,2,0.0,0,0,0,0,29,0,10.7225194,106.7035795
/ho-chi-minh/tham-goi-ga-vit-chao/binh-luan,Thắm - Gỏi Gà Vịt & Cháo,"1038B Lê Văn Lương, P. Phước Kiển",699,709040,2,0.0,4,0,0,0,85,1,10.7096112,106.702273
/ho-chi-minh/dong-ngoc-quan-an-gia-dinh/binh-luan,Đồng Ngọc - Quán Ăn Gia Đình,12/6 Nguyễn Bình,699,211619,2,6.6,14,0,1,1,221,1,10.6777127075055,106.7520377427139
/ho-chi-minh/bun-bo-com-tam-le-van-luong/binh-luan,Bún Bò & Cơm Tấm - Lê Văn Lương,"Đối Diện 224 Lê Văn Lương, Ấp 3, X. Phước Kiển",699,288425,2,7.0,4,0,1,1,110,1,10.7096583668014,106.7024132609367
/ho-chi-minh/chao-dinh-duong-viet-soup-le-van-luong/binh-luan,Cháo Dinh Dưỡng Việt Soup - Lê Văn Lương,"1193A Lê Văn Lương, Ấp 2",699,752579,2,0.0,1,0,0,0,70,1,10.7105422,106.7019808
/ho-chi-minh/ga-ta-tam-ky-92-le-van-luong/binh-luan,Gà Ta Tam Kỳ - 92 Lê Văn Lương,"92 Lê Văn Lương, P. Tân Kiểng",699,709039,2,0.0,4,0,0,0,80,1,10.709482,106.702266
/ho-chi-minh/quan-an-vat-bun-mam-nem-bina-1806-23-51-huynh-tan-phat.qqx57z/binh-luan,Quán Ăn Vặt & Bún Mắm Nêm BiNa - 1806/23/51 Huỳnh Tấn Phát,"1806/23/51 Huỳnh Tấn Phát, tt. Nhà Bè",699,1000047314,2,0.0,0,0,0,0,4,0,10.6877118,106.7428141
/ho-chi-minh/an-vat-abi-an-vat-le-van-luong.mzif9n/binh-luan,Ăn Vặt ABI - Ăn Vặt - Lê Văn Lương,"1344 Lê Văn Lương,X. Phước Kiển",699,1000027371,2,0.0,0,0,0,0,6,0,10.696099,106.7046179
/ho-chi-minh/pho-thuan-nguyen-huu-tho/binh-luan,Phở Thuận - Nguyễn Hữu Thọ,"B0.05 Khu SaiGon South, Nguyễn Hữu Thọ, Xã Phước Kiển",699,1049978,2,0.0,0,1,0,1,75,0,10.722671,106.703468
/ho-chi-minh/hong-hanh-hu-tieu-nam-vang-banh-xeo/binh-luan,Hồng Hạnh - Hủ Tiếu Nam Vang & Bánh Xèo,"1806/94 Huỳnh Tấn Phát, TT. Nhà Bè",699,1057725,2,0.0,0,1,0,1,26,0,10.696746,106.736133
/ho-chi-minh/com-tam-7-doi-com-209-bui-van-ba.a7iv7p/binh-luan,CƠM TẤM 7 ĐỜI - Cơm - khu phố 4,"1622/102 khu phố 4, TT. Nhà Bè",699,1000047746,2,0.0,0,0,0,0,21,0,10.7021018,106.7367463
/ho-chi-minh/kho-c-sinh-to-nuoc-ep-so-3-dao-tong-nguyen.9zcn6j/binh-luan,Kho C - Sinh Tố & Nước Ép - Số 3 Đào Tông Nguyên,"3 Đào Tông Nguyên, TT. Nhà Bè",699,1000047694,2,0.0,0,0,0,0,19,0,10.6821391,106.7473022
/ho-chi-minh/bep-quynh-12-nguyen-huu-tho.jos0xl/binh-luan,Bếp Quỳnh - 12 Nguyễn Hữu Thọ,"12 Nguyễn Hữu Thọ, X. Phước Kiển",699,1000047436,2,0.0,0,0,0,0,25,0,10.7121282,106.7073069
/ho-chi-minh/haocha-milk-tea-bdl-coffee-nha-be/binh-luan,HAOCHA Milk Tea - BDL Coffee Nhà Bè,"Căn Biệt Thự DP37-DP39, Khu Biệt Thự Dragon Parc, Nguyễn Hữu Thọ, X. Phước Kiển",699,1078639,2,0.0,0,0,0,0,49,0,10.702926,106.7149
/ho-chi-minh/tra-sua-suboy-nha-be-tra-sua-tran-chau-duong-den-nguyen-binh.4qprvr/binh-luan,Trà Sữa Suboy Nhà Bè - Trà Sữa Trân Châu Đường Đen - Nguyễn Bình,"49 Nguyễn Bình, X. Phú Xuân",699,1000035029,2,0.0,0,0,0,0,18,0,10.676908,106.7485365
/ho-chi-minh/kofi-kai-coffee-le-van-luong.zowgdu/binh-luan,Kofi Kai - Coffee - Lê Văn Lương,"1591 Lê Văn Lương, X. Nhơn Đức",699,1000033250,2,0.0,0,0,0,0,24,0,10.6825212,106.7004723
/ho-chi-minh/go79-goi-oc-nha-trang-maichan-takoyaki/binh-luan,GO79 Gỏi Ốc Nhà Trang - Maichan Takoyaki,"51/18 Đặng Nhữ Lâm, Thị Trấn Nhà Bè",699,1073634,2,0.0,0,2,0,0,46,0,10.6960271,106.7437316
/ho-chi-minh/nuoc-mia-quynh-anh-nuoc-mia-le-van-luong.wqkvxx/binh-luan,Nước Mía Quỳnh Anh - Nước Mía - Lê Văn Lương,"57/36 Công Ty TNHH Nước Khoáng Việt Lê Văn Lương, X. Phước Kiển",699,1000045910,2,0.0,0,0,0,0,19,0,10.7177794,106.7006698
/ho-chi-minh/stupiducks-specialty-coffee.dptof7/binh-luan,Stupiducks - Specialty Coffee,"360/63 Phạm Hữu Lầu, P. Phước Kiển",699,1000033832,2,0.0,0,0,0,0,4,0,10.7086555,106.7212483
/ho-chi-minh/bun-rieu-canh-bun-le-van-luong/binh-luan,Bún Riêu - Canh Bún - Lê Văn Lương,"287 Lê Văn Lương, Xã Phước Kiển",699,137656,2,6.5,5,0,2,1,285,0,10.7034543623808,106.7039448022842
/ho-chi-minh/quan-oc-24/binh-luan,Quán Ốc 24,939 Lê Văn Lương,699,655225,2,5.6,8,2,1,0,271,1,10.713822,106.700987
/ho-chi-minh/tra-sua-cau-vong-tim-huynh-tan-phat/binh-luan,Trà Sữa Cầu Vồng Tím - Huỳnh Tấn Phát,"2108 Huỳnh Tấn Phát, Thị Trấn Nhà Bè",699,1127401,2,0.0,0,0,0,0,2,0,10.6874987986819,106.7428765136838
/ho-chi-minh/co-hai-pho-bo-bun-bo-hue/binh-luan,PHỞ CÔ HAI - PHỞ BÒ & BÚN BÒ HUẾ - 1790 HUỲNH TẤN PHÁT,"1790 Huỳnh Tấn Phát, tt. Nhà Bè",699,991046,2,7.4,6,0,1,1,61,0,10.6979947,106.7388671
/ho-chi-minh/bun-mam-mien-tay-le-van-luong/binh-luan,Bún Mắm Miền Tây - Lê Văn Lương,"1261 Lê Văn Lương, Xã Phước Kiển",699,708873,2,5.0,3,0,2,0,158,0,10.6971092,106.7047617
/ho-chi-minh/quan-com-cong-nhan-le-van-luong/binh-luan,Quán Cơm Công Nhân - Lê Văn Lương,"831 Lê Văn Lương, Xã Phước Kiển",699,882249,2,0.0,1,0,0,0,29,0,10.7178239896952,106.6997565329074
/ho-chi-minh/bun-mam-bun-nuoc-leo-soc-trang-le-van-luong/binh-luan,Bún Mắm & Bún Nước Lèo Sóc Trăng - Lê Văn Lương,"851 Lê Văn Lương, Xã Phước Kiển",699,882244,2,1.6,1,0,1,0,76,0,10.717596,106.699806
/ho-chi-minh/com-tam-chu-tret/binh-luan,Cơm Tấm Chú Trệt,"831/7 Lê Văn Lương, Xã Phước Kiển",699,882248,2,0.0,1,0,0,0,11,0,10.71787,106.699832
/ho-chi-minh/quan-thang-ban-lau-thai-oc-mon-nuong-dao-su-tich/binh-luan,"Quán Thằng Bạn - Lẩu Thái, Ốc & Món Nướng - Đào Sư Tích","23 Đào Sư Tích, X. Phước Kiển",699,1076277,2,0.0,0,0,0,0,34,0,10.7130149304336,106.6995622123176
/ho-chi-minh/chi-van-pho-bun-bo-hue/binh-luan,Chị Vân - Phở & Bún Bò Huế,23 Đào Sư Tích,699,754786,2,0.0,5,2,0,0,32,0,10.7130155,106.6995637
/ho-chi-minh/truc-ghe-banh-canh-lau-ghe/binh-luan,Bánh Canh Ghẹ Ánh Dương,"11 Lê Văn Lương, Xã Phước Kiển",699,745726,2,0.0,4,2,0,1,92,0,10.7174813,106.6998378
/ho-chi-minh/bep-ngoc-lan-chao-long-mien-tay-nuoc-mat-shop-online/binh-luan,Bếp Ngọc Lan - Cháo Lòng Miền Tây & Nước Mát - Shop Online,"7 Đào Sư Tích, X. Phước Kiển",699,1034085,2,0.0,0,0,0,0,22,0,10.71333,106.700664
/ho-chi-minh/ninety-nice-ga-ran-tra-soda-trai-cay-le-van-luong/binh-luan,"Ninety Nice - Gà Rán, Trà & Soda Trái Cây - Lê Văn Lương","839/14 Lê Văn Lương, X. Phước Kiển",699,1000024601,2,0.0,0,0,0,0,12,0,10.7189523,106.7008489
/ho-chi-minh/robina-sinh-to-nuoc-ep-nguyen-binh/binh-luan,ROBINA - Sinh Tố & Nước Ép - Nguyễn Bình,"299 Nguyễn Bình, Ấp 1, X. Nhơn Đức",699,1000023299,2,0.0,0,0,0,0,36,0,10.6719016,106.7256937
/ho-chi-minh/thaideli-lau-thai-mon-thai-huynh-tan-phat/binh-luan,Thaideli - Lẩu Thái & Món Thái - Huỳnh Tấn Phát,"1716/46 Huỳnh Tấn Phát, X. Phú Xuân",699,1106273,2,0.0,0,0,0,0,49,0,10.6998966,106.7381373
/ho-chi-minh/thu-tra-sua-an-vat-duong-cat-loi/binh-luan,Thư Trà Sữa & Ăn Vặt - Dương Cát Lợi,"76/20/2 Dương Cát Lợi, Khu Phố 4, TT. Nhà Bè",699,1111298,2,0.0,0,0,0,0,37,0,10.7013587,106.738936
/ho-chi-minh/ga-ta-tam-ky-243-le-van-luong/binh-luan,Gà Ta Tam Kỳ - 243 Lê Văn Lương,"243 Lê Văn Lương, Xã Phước Kiển",699,779564,2,2.8,5,0,1,0,105,0,10.7109784,106.7018248
/ho-chi-minh/lucha-950-le-van-luong-tra-tra-sua-950-le-van-luong.aomrvc/binh-luan,Lucha 950 Lê Văn Lương - Trà & Trà Sữa - 950 Lê Văn Lương,"950 Lê Văn Lương, P. Phước Kiển",699,1000046628,2,0.0,0,0,0,0,33,0,10.7146101,106.702143
/ho-chi-minh/quan-oc-ca-na-sunrise-riverside/binh-luan,Quán Ốc Cà Na - Sunrise Riverside,"B1.06 Sunrise Riverside, Nguyễn Hữu Thọ, X. Phước Kiển",699,1125760,2,0.0,0,0,0,0,42,0,10.7227402,106.7036772
/ho-chi-minh/cherryo-foods-bot-chien-mi-12-nguyen-huu-tho/binh-luan,Cherryo Foods - Bột Chiên & Mì - 12 Nguyễn Hữu Thọ,"Chung Cư The Park Residence Block B3, 12 Nguyễn Hữu Thọ, X. Phước Kiển",699,1000046462,2,0.0,0,0,0,0,19,0,10.7123773030924,106.707114474159
/ho-chi-minh/sen-viet-yaourt-nguyen-huu-tho.olzw5r/binh-luan,Sen Việt - Yaourt - Nguyễn Hữu Thọ,"12 Nguyễn Hữu Thọ, P. Phước Kiển",699,1000045927,2,0.0,0,0,0,0,3,0,10.7221157,106.7015655
/ho-chi-minh/thuy-tien-ba-nh-mi-tho-nhi-ky-le-van-luong.7vjjj0/binh-luan,Thuỷ Tiên - Bánh Mì Thổ Nhĩ Kỳ - Lê Văn Lương,"1436 Lê Văn Lương, X. Phước Kiển",699,1000045745,2,0.0,0,0,0,0,3,0,10.6927055,106.7034245
/ho-chi-minh/co-phuc-che-buoi-sua-dau-nanh-143-le-van-luong.pcjort/binh-luan,Cô Phúc - Chè Bưởi & Sữa Đậu Nành - 143 Lê Văn Lương,"143 Lê Văn Lương, X. Phước Kiển",699,1000045594,2,0.0,0,0,0,0,28,0,10.7117272,106.7017484
/ho-chi-minh/meo-meo-chan-ga-sot-thai-huynh-tan-phat/binh-luan,Meo Meo - Chân Gà Sốt Thái - Huỳnh Tấn Phát,2855/25C Huỳnh Tấn Phát,699,1123869,2,0.0,0,0,0,0,6,0,10.674730622983,106.764607446156
/ho-chi-minh/71c3-seafood-tran-thi-lien.wbvuku/binh-luan,71C3 Seafood - Trần Thị Liền,"61 Trần Thị Liền, X. Phước Kiển",699,1000045316,2,0.0,0,0,0,0,25,0,10.7103503,106.7052145
/ho-chi-minh/quan-287-hu-tieu-nam-vang/binh-luan,Quán 287 - Hủ Tiếu Nam Vang,"287 Lê Văn Lương, Xã Phước Kiển",699,745703,2,7.4,7,0,1,1,144,0,10.703999,106.703738
/ho-chi-minh/trung-nguyen-legend-coffee-nguyen-huu-tho/binh-luan,Trung Nguyên Legend Coffee - Nguyễn Hữu Thọ,"55 Khu Biệt Thự Kim Long, KDC Phú Long, Nguyễn Hữu Thọ, X. Phước Kiểng",699,878045,2,0.0,13,3,0,1,257,0,10.719748,106.70255
/ho-chi-minh/mai-lam-ga-ac-tiem-thuoc-bac/binh-luan,Mai Lâm - Gà Ác Tiềm Thuốc Bắc,"447A Huỳnh Tấn Phát, TT. Nhà Bè",699,218516,2,0.0,1,1,0,0,250,0,10.6880649824928,106.7427024247894
/ho-chi-minh/hoi-quan-thanh-nien-coffee-tea/binh-luan,Hội Quán Thanh Niên - Coffee & Tea,"223/3 Huỳnh Tấn Phát, Khu Phố 6",699,221033,2,0.0,8,0,0,0,237,0,10.6969280291035,106.7398646101355
/ho-chi-minh/cafe-bi-da-tin-phat-2-kdc-long-hau-1/binh-luan,Cafe Bi-Da Tín Phát 2 - KDC Long Hậu 1,"L01, KDC Long Hậu 1, Ấp 3, Xã Long Hậu",699,1126011,2,0.0,0,0,0,0,30,0,10.6342770421155,106.728154325565
/ho-chi-minh/lolipop-tra-sua-sinh-to/binh-luan,Lolipop - Trà Sữa & Sinh Tố,4/11C Huỳnh Tấn Phát,699,665564,2,7.6,18,0,1,1,111,0,10.690075,106.741385
/ho-chi-minh/banh-trang-tron-banh-cuon-nong-15k/binh-luan,Bánh Tráng Trộn & Bánh Cuốn Nóng 15k,1778 Huỳnh Tấn Phát,699,697887,2,7.6,4,0,1,1,173,0,10.6967049,106.7393946
/ho-chi-minh/quan-3t-hu-tieu-banh-canh-cha-ca/binh-luan,Quán 3T - Hủ Tiếu & Bánh Canh Chả Cá,"915/3 Lê Văn Lương, Xã Phước Kiểng",699,743096,2,7.6,9,0,1,0,85,0,10.7067072,106.7033686
/ho-chi-minh/ca-ri-tra-sua-an-do/binh-luan,Cà Ri & Trà Sữa Ấn Độ,8B Đào Sư Tích,699,238404,2,0.0,3,2,0,0,128,0,10.713119,106.699649
/ho-chi-minh/phat-tai-lau-de-cac-mon-nhau-binh-dan/binh-luan,Phát Tài - Lẩu Dê & Các Món Nhậu Bình Dân,118B Lê Văn Lương,699,880096,2,0.0,1,0,0,0,78,0,10.7166278370539,106.6999040544033
/ho-chi-minh/bun-ca-chau-doc-dao-su-tich/binh-luan,Bún Cá Châu Đốc - Đào Sư Tích,8B Đào Sư Tích,699,754837,2,0.0,1,1,0,0,57,0,10.7131184,106.6997137999999
/ho-chi-minh/chao-long-bun-rieu-canh-bun/binh-luan,"Cháo Lòng, Bún Riêu & Canh Bún",Đối Diện 122 Lê Văn Lương,699,236290,2,0.0,3,0,0,0,64,0,10.7173868394431,106.6999590396881
/ho-chi-minh/loc-phat-de-nuong-hai-san/binh-luan,Lộc Phát - Dê Nướng & Hải Sản,4 Đào Sư Tích,699,694941,2,0.0,18,2,0,0,86,0,10.713117,106.699723
/ho-chi-minh/vit-nuong-la-mat-mat-le-van-luong/binh-luan,Vịt Nướng Lá Mắt Mật - Lê Văn Lương,"123 Lê Văn Lương, Xã Phước Kiển",699,882246,2,0.0,1,0,0,0,44,0,10.717006,106.699961
/ho-chi-minh/quan-bin-oc-lau-ca-thac-lac/binh-luan,Quán Bin - Ốc & Lẩu Cá Thác Lác,18A/3 Lê Văn Lương,699,880256,2,0.0,1,0,0,0,71,0,10.7166301430537,106.6999419406056
/ho-chi-minh/chi-em-quan-oc-cac-mon-nhau-binh-dan/binh-luan,Chị Em Quán - Ốc & Các Món Nhậu Bình Dân,854 Lê Văn Lương,699,880098,2,0.0,1,0,0,0,49,0,10.7162410877088,106.6999436169862
/ho-chi-minh/hien-com-tam-bun-thit-nuong/binh-luan,Hiền - Cơm Tấm & Bún Thịt Nướng,"73C Lê Văn Lương, Xã Phước Kiển",699,882242,2,0.0,1,0,0,0,28,0,10.7170086561989,106.6999885439872
/ho-chi-minh/com-tam-tam-nga/binh-luan,Cơm Tấm Tám Nga,"47 Lê Văn Lương, Xã Phước Kiển",699,882238,2,0.0,1,0,0,0,30,0,10.716932,106.700026
/ho-chi-minh/ca-phe-pha-may-mang-di-phi-long-huynh-tan-phat/binh-luan,Cà Phê Pha Máy Mang Đi Phi Long - Huỳnh Tấn Phát,"1967 Huỳnh Tấn Phát, Thị Trấn Nhà Bè",699,1102671,2,0.0,0,0,0,0,25,0,10.697188,106.739354
/ho-chi-minh/the-gioi-pizza/binh-luan,Thế Giới Pizza - Lê Văn Lương,"1401 Lê Văn Lương, Xã Phước Kiển",699,951907,2,0.0,0,0,0,0,135,0,10.694835,106.704677
/ho-chi-minh/go79-seafood-goi-oc-va-chao-hai-san-nha-trang-huynh-tan-phat/binh-luan,Go79 Seafood - Gỏi Ốc Và Cháo Hải Sản Nha Trang - Huỳnh Tấn Phát,"51/18 Đặng Nhữ Lâm, KP. 6, TT. Nhà Bè",699,1076654,2,0.0,0,3,0,0,64,0,10.6959548,106.7417931
/ho-chi-minh/nha-hang-han-quoc-hana-nguyen-huu-tho/binh-luan,Nhà hàng Hàn Quốc HaNa - Nguyễn Hữu Thọ,"Shop 05 Block A Chung Cư Saigon South Residences Nguyễn Hữu Thọ, X. Phước Kiển",699,1086828,2,0.0,0,0,0,0,87,0,10.7204891,106.7023774
/ho-chi-minh/pho-gia-truyen-le-van-luong/binh-luan,Phở Gia Truyền - Lê Văn Lương,"69C Lê Văn Lương, P. Phước Kiển",699,699273,2,7.4,3,0,1,0,92,2,10.7105557494481,106.7020763084292
/ho-chi-minh/nuoc-mia-nuoc-dua-long-hau/binh-luan,Nước Mía & Nước Dừa - Long Hậu,"Long Hậu, Xã Hiệp Phước",699,238469,2,6.8,8,0,1,0,128,1,10.63191,106.734842
/ho-chi-minh/tra-sua-an-vat-ngo/binh-luan,Trà Sữa Ăn Vặt Ngố,"4/3B Nguyễn Bình ( Gần Công Ty Nhà Đất Gia Định 867 Nguyễn Bình), Ấp 2 Xã Nhơn Đức",699,1078332,2,0.0,0,0,0,0,15,0,10.6770028,106.7045456
/ho-chi-minh/wood-kafe-le-van-luong/binh-luan,Wood Kafe - Lê Văn Lương,"195 Lê Văn Lương, P. Phước Kiển",699,1112846,2,0.0,0,0,0,0,3,0,10.7027516,106.7042082
/ho-chi-minh/quan-hoang-anh-bun-bo-bun-rieu-thom-ngon-le-van-luong/binh-luan,Quán Hoàng Anh - Bún Bò & Bún Riêu Thơm Ngon - Lê Văn Lương,"1535 Lê Văn Lương, Ấp 2, X. Nhơn Đức",699,1113760,2,0.0,0,0,0,0,30,0,10.685371,106.701483
/ho-chi-minh/my-anh-food-mi-xao-pham-huu-lau.k2nwdh/binh-luan,Mỹ Anh Food - Mì Xào - Phạm Hữu Lầu,"387/2/1B Phạm Hữu Lầu, Phước Kiển",699,1000040427,2,0.0,0,0,0,0,5,0,10.7020452,106.7232566
/ho-chi-minh/heathy-cup-duong-cat-loi/binh-luan,Heathy Cup - Dương Cát Lợi,"98/55A Dương Cát Lợi, Thị Trấn Nhà Bè",699,1109739,2,0.0,0,0,0,0,4,0,10.699834,106.742057
/ho-chi-minh/ong-map-bbq-nguyen-huu-tho/binh-luan,Ông Mập BBQ - Nguyễn Hữu Thọ,"D01.06 - D01.07 Sunrise Riverside, Nguyễn Hữu Thọ, Xã Phước Kiển",699,1058293,2,0.0,0,6,0,0,88,0,10.7227623,106.7039943
/ho-chi-minh/tho-bong-dao-food-tra-sua-an-vat-nguyen-binh/binh-luan,Thỏ Bồng Đào Food - Trà Sữa & Ăn Vặt - Nguyễn Bình,"42/5 Nguyễn Bình, X. Phú Xuân",699,1000032144,2,0.0,0,0,0,0,34,0,10.6779338,106.7508406
/ho-chi-minh/quan-lau-xi-quach-ga-nuong-nguyen-binh/binh-luan,Quán Lẩu Xí Quách & Gà Nướng - Nguyễn Bình,"317 Nguyễn Bình, X. Phú Xuân",699,1122194,2,0.0,0,1,0,0,48,1,10.6751442,106.7406822
/ho-chi-minh/cat-tien-bakery-nguyen-van-tao/binh-luan,Cát Tiên Bakery - Nguyễn Văn Tạo,"274/8A Nguyễn Văn Tạo, X. Long Thới",699,1120361,2,0.0,0,0,0,0,34,0,10.6516588918116,106.7297849913555
/ho-chi-minh/ne-tra-milk-tea-phan-van-bay/binh-luan,Nê Trà Milk Tea - Phan Văn Bảy,"154 Phan Văn Bảy, Thị Trấn Nhà Bè, X. Hiệp Phước",699,1120821,2,0.0,0,0,0,0,22,0,10.6323851,106.7369095
/ho-chi-minh/toro-tea-tra-tra-sua-le-van-luong.kpwake/binh-luan,TORO TEA - Trà & Trà Sữa - Lê Văn Lương,"1091 Lê Văn Lương, X. Phước Kiển",699,1000043970,2,0.0,0,0,0,0,2,0,10.7055859,106.7036311
/ho-chi-minh/chuc-ca-mau-lau-cua-cua-che-bien-le-van-luong.kekcwm/binh-luan,Chúc Cà Mau - Lẩu Cua & Cua Chế Biến - Lê Văn Lương,"1078 Lê Văn Lương,X. Phước Kiển",699,1000028781,2,0.0,0,0,0,0,15,0,10.7006091,106.7040996
/ho-chi-minh/lau-de-an-binh-le-van-luong/binh-luan,Lẩu Dê An Bình - Lê Văn Lương,"18/3B Lê Văn Lương, Xã Phước Kiểng",699,716289,2,1.0,22,0,1,0,230,0,10.7121265,106.7010866
/ho-chi-minh/hu-tieu-bo-kho-le-van-luong/binh-luan,Hủ Tiếu Bò Kho - Lê Văn Lương,"1023 Lê Văn Lương, Xã Phước Kiển",699,135240,2,0.0,0,1,0,1,222,2,10.7096109279971,106.7023998498916
/ho-chi-minh/next-healthy-thuc-uong-dinh-duong-tu-trai-cay-shop-online/binh-luan,Next Healthy - Thức Uống Dinh Dưỡng Từ Trái Cây - Shop Online,928 Lê Văn Lương,699,633472,2,0.0,16,3,0,0,214,1,10.7136161,106.7005131999999
/ho-chi-minh/avata-tea-coffee-le-van-luong/binh-luan,Avata - Tea & Coffee - Lê Văn Lương,"973 Lê Văn Lương, X. Phước Kiểng",699,1121779,2,0.0,0,0,0,0,26,0,10.7113859,106.7018575
/ho-chi-minh/pho-ut-thien/binh-luan,Phở Út Thiện,"552A Lê Văn Lương, Ấp 3, Xã Phước Kiển",699,232383,2,7.4,19,0,1,0,127,0,10.7026452,106.703695
/ho-chi-minh/banh-uot-banh-cuon-nong-15k/binh-luan,Bánh Ướt & Bánh Cuốn Nóng 15k,"Đối Diện 1942/90 Huỳnh Tấn Phát, Xã Phú Xuân",699,709171,2,7.4,4,0,1,0,68,0,10.6966502,106.739415
/ho-chi-minh/quan-246-hu-tieu-nam-vang/binh-luan,Quán 246 - Hủ Tiếu Nam Vang,Kế Bên 67B Lê Văn Lương,699,220175,2,7.2,3,0,1,1,113,0,10.7105597026698,106.702110171318
/ho-chi-minh/eak-ar-tea-coffee-cake/binh-luan,EAKAR - Tea & Coffee Cake,"43 Nguyễn Hữu Thọ (Cổng Ra Chung Cư SaiGon South), Xã Phước Kiển",699,901265,2,0.0,130,2,0,1,74,1,10.720473388409,106.7024297752637
/ho-chi-minh/a-duc-lau-duoi-bo/binh-luan,A Đức - Lẩu Đuôi Bò,64 Dương Cát Lợi,699,765664,2,0.0,29,5,0,1,66,1,10.701434,106.740374
/ho-chi-minh/tomato-home-foods-drinks/binh-luan,Tomato Home - Foods & Drinks,"B3-01.03 Hoàng Anh Gold House, 187A Lê Văn Lương",699,677936,2,0.0,14,2,0,1,95,1,10.711423,106.702127
/ho-chi-minh/goi-be-nem-chao-nam-dinh-le-van-luong/binh-luan,Gỏi Bê & Nem Chạo Nam Định - Lê Văn Lương,"123 Lê Văn Lương, Xã Phước Kiển",699,882247,2,0.0,1,0,0,0,54,0,10.716805,106.700062
/ho-chi-minh/mon-bac-lau-cua-dong/binh-luan,Món Bắc - Lẩu Cua Đồng,65 Lê Văn Lương,699,655249,2,0.0,4,1,0,0,110,0,10.7169918553643,106.7000897973775
/ho-chi-minh/five-star-vietnam-1023-le-van-luong/binh-luan,Five Star Vietnam - 1023 Lê Văn Lương,"1023 Lê Văn Lương, Ấp 3",699,752554,2,0.0,1,0,0,0,78,0,10.715181971769,106.7000120133161
/ho-chi-minh/thanh-thuy-com-tam-bun-thit-nuong/binh-luan,Thanh Thủy - Cơm Tấm & Bún Thịt Nướng,"126B Lê Văn Lương, Xã Phước Kiển",699,800863,2,0.0,0,0,0,0,40,1,10.716705,106.700116
/ho-chi-minh/chao-dinh-duong-ngon-me-ly-le-van-luong/binh-luan,Cháo Dinh Dưỡng Ngon Mê Ly - Lê Văn Lương,"18/3 Lê Văn Lương, Xã Phước Kiển",699,882234,2,0.0,1,0,0,0,26,0,10.7167055821778,106.7001189664006
/ho-chi-minh/quan-loan-com-bun-moc-bo-kho/binh-luan,"Quán Loan - Cơm, Bún Mọc & Bò Kho",850 Lê Văn Lương,699,880097,2,0.0,1,0,0,0,22,0,10.7160958095052,106.7000897973775
/ho-chi-minh/ga-ran-my-my/binh-luan,Gà Rán My My,1 Đào Sư Tích,699,880285,2,0.0,1,0,0,0,17,0,10.7131767240715,106.7000810801982
/ho-chi-minh/luc-phat-bakery-huynh-tan-phat/binh-luan,Lực Phát Bakery - Huỳnh Tấn Phát,"1684 Huỳnh Tấn Phát, TT. Nhà Bè",699,1048741,2,0.0,0,1,0,0,123,0,10.69671,106.739424
/ho-chi-minh/bami-deli-fastfood/binh-luan,Bami Deli - Fastfood,"58A Nguyễn Văn Tạo, Xã Long Thới",699,650215,2,6.2,8,0,1,0,143,1,10.646258,106.731699
/ho-chi-minh/an-vat-pe-heo-huynh-tan-phat-shop-online.4hdopg/binh-luan,Ăn Vặt Pé Heo - Huỳnh Tấn Phát - Shop Online,"1886/16 Huỳnh Tấn Phát, tt. Nhà Bè",699,1000037311,2,0.0,0,0,0,0,6,0,10.6948591,106.7374221
/ho-chi-minh/quan-mi-duck-tac-nguyen-huu-tho/binh-luan,Quán Mì Duck Tắc - Nguyễn Hữu Thọ,"D003, 26 Nguyễn Hữu Thọ, KP. Sài Gòn South Residences, X. Phước Kiển",699,1041151,2,0.0,0,0,0,0,39,0,10.7188942,106.701922
/ho-chi-minh/banh-cuon-banh-uot-yen-nhi/binh-luan,Bánh Cuốn - Bánh Ướt Yến Nhi,"127 Lê Văn Lương, Xã Phước Kiển",699,1072175,2,0.0,0,0,0,0,7,0,10.715974,106.700357
/ho-chi-minh/an-vat-hung-anh/binh-luan,Ăn Vặt Hùng Anh,"1942/24 Huỳnh Tấn Phát, P. Phú Xuân",699,1078353,2,0.0,0,0,0,0,9,0,10.6938608,106.7393651
/ho-chi-minh/oc-thanh-ha-huynh-tan-phat/binh-luan,Ốc Thanh Hà - Huỳnh Tấn Phát,"2450 Huỳnh Tấn Phát, X. Phú Xuân",699,1120647,2,0.0,0,0,0,0,39,0,10.6790519,106.7515939
/ho-chi-minh/tra-sua-tran-nhi-le-van-luong/binh-luan,Trà Sữa Trân Nhi - Lê Văn Lương,"Block A4-07-05 -187A Lê Văn Lương, P. Phước Kiển",699,1118756,2,0.0,0,0,0,0,28,0,10.7116312,106.7045992
/ho-chi-minh/hu-tieu-ma-9-hu-tieu-bun-huynh-tan-phat.tjxewe/binh-luan,Hủ Tiếu Má 9 - Hủ Tiếu & Bún - Huỳnh Tấn Phát,"2056/21 Huỳnh Tấn Phát, tt. Nhà Bè",699,1000038698,2,0.0,0,1,0,1,26,0,10.6894876535318,106.7411126443026
/ho-chi-minh/duyen-tinh-com-chay/binh-luan,Duyên Tịnh - Cơm Chay,"1979/3B Huỳnh Tấn Phát, TT. Nhà Bè",699,738017,2,5.0,5,2,1,0,209,0,10.701251,106.738076
/ho-chi-minh/ga-hap-mam-nhi-le-van-luong/binh-luan,Gà Hấp Mắm Nhĩ - Lê Văn Lương,"211 Lê Văn Lương, Xã Phước Kiển",699,1063529,2,0.0,0,0,0,0,34,0,10.707377,106.703138
/ho-chi-minh/nha-hang-thang-bom/binh-luan,Nhà Hàng Thằng Bờm,"105A Lê Thị Kỉnh, Phước Kiển",699,987305,2,0.0,87,3,0,0,211,8,10.7142528,106.7011628999999
/ho-chi-minh/hoa-cuc-quan-quan-chay/binh-luan,Hoa Cúc Quán - Quán Chay,"A3 - 01 - 01 Hoàng Anh An Tiến Gold House, 187A Lê Văn Lương, P. Phước Kiển",699,296892,2,0.0,5,3,0,1,205,0,10.711854,106.702174
/ho-chi-minh/golden-tree-coffee-tea/binh-luan,"Golden Tree - Coffee,Tea & Bánh Waffle","Khu Biệt Thự Lavila, 90 Đường Số 3, Xã Phước Kiểng",699,856652,2,0.0,25,1,0,0,205,0,10.692783,106.72054
/ho-chi-minh/khoa-map-lau-bo-hai-san/binh-luan,Khoa Mập - Lẩu Bò & Hải Sản,"14/1 Huỳnh Tấn Phát, Xã Phú Xuân",699,709340,2,0.0,3,5,0,1,202,0,10.678761,106.751884
/ho-chi-minh/ca-vien-chien-176-le-van-luong/binh-luan,Cá Viên Chiên 176 - Lê Văn Lương,"18/3 Lê Văn Lương, Xã Phước Kiển",699,716288,2,0.0,6,3,0,1,195,0,10.7127685571917,106.7013273015618
/ho-chi-minh/com-chay-nuoc-mam-kho-ga-la-chanh-shop-online/binh-luan,Cơm Cháy Nước Mắm & Khô Gà Lá Chanh - Shop Online,2266 Huỳnh Tấn Phát,699,682854,2,0.0,3,1,0,0,185,0,10.683154,106.743851
/ho-chi-minh/banh-trang-thuy-huynh-tan-phat.gzmnjs/binh-luan,Bánh Tráng Thúy - Huỳnh Tấn Phát,"51/2 1886 Huỳnh Tấn Phát, TT. Nhà Bè",699,1000040169,2,0.0,0,0,0,0,13,0,10.6996845,106.7383684
/ho-chi-minh/bo-la-lot-bun-thit-nuong-goi-cuon/binh-luan,"Bò Lá Lốt, Bún Thịt Nướng & Gỏi Cuốn","1660 Huỳnh Tấn Phát, Xã Phú Xuân",699,886331,2,7.2,5,0,1,0,126,0,10.676876,106.757641
/ho-chi-minh/banh-mi-co-hai-nha-be/binh-luan,Bánh Mì Cô Hai Nhà Bè,"2699 Huỳnh Tấn Phát, Xã Phú Xuân",699,693448,2,0.0,8,4,0,1,98,1,10.676808842211,106.7579463869333
/ho-chi-minh/ngoc-anh-pho-bun-bo-hue/binh-luan,Ngọc Ánh - Phở & Bún Bò Huế,"2/2 Huỳnh Tấn Phát, KP 7",699,221471,2,0.0,4,2,0,1,134,1,10.699555,106.7381179999999
/ho-chi-minh/banh-handmade-huynh-tan-phat/binh-luan,Bánh Handmade,1833 Huỳnh Tấn Phát,699,260477,2,0.0,3,2,0,1,100,1,10.70051,106.738603
/ho-chi-minh/the-friend-pizza-spaghetti-american-breakfast/binh-luan,"The Friend Restaurant - Các Món Bò, Steak & Lẩu","187A Lê Văn Lương, P. Phước Kiểng",699,925316,2,0.0,51,2,0,1,109,0,10.709757,106.702364
/ho-chi-minh/lau-de-thanh-binh-lau-de-le-van-luong.lqu76u/binh-luan,Lẩu Dê Thanh Bình - Lẩu Dê - Lê Văn Lương,"984 Lê Văn Lương, P. Nhơn Đức",699,1000028052,2,0.0,26,6,0,1,21,0,10.6759889,106.698642
/ho-chi-minh/truong-cafe-sinh-to/binh-luan,Trường Cafe & Sinh Tố,1 Đào Sư Tích,699,880284,2,0.0,1,0,0,0,23,0,10.713270612259,106.7001833394169
/ho-chi-minh/sentona-singapore-restaurant/binh-luan,Sentona - Singapore Restaurant,"Căn Hộ Kenton Node, 116A Nguyễn Hữu Thọ, Xã Phước Kiển",699,715604,2,0.0,0,3,0,1,50,0,10.722417,106.700724
/ho-chi-minh/quan-chu-tu-hu-tieu/binh-luan,Quán Chú Tư - Hủ Tiếu,"887 Lê Văn Lương, Xã Phước Kiển",699,1054466,2,0.0,0,1,0,1,23,0,10.715821,106.700377
/ho-chi-minh/quan-an-gia-dinh-1874/binh-luan,Quán Ăn Gia Đình 1874 - Lê Văn Lương," 1874 Lê Văn Lương, Nhơn Đức",699,705856,2,0.0,0,0,0,0,125,1,10.673451,106.698001
/ho-chi-minh/hu-tiu-mi-le-van-luong/binh-luan,Hủ Tíu Mì - Lê Văn Lương,"885 Lê Văn Lương, Xã Phước Kiển",699,882235,2,0.0,1,0,0,0,26,0,10.715799,106.700401
/ho-chi-minh/dai-phat-9-lo-banh-mi-dien/binh-luan,Đại Phát 9 - Lò Bánh Mì Điện,"140A Lê Văn Lương, X. Phước Kiểng",699,786108,2,0.0,5,1,0,1,125,0,10.705433,106.703444
/ho-chi-minh/7-eleven-cua-hang-tien-loi-hoang-anh-gold-house/binh-luan,7-Eleven - Cửa Hàng Tiện Lợi - Hoàng Anh Gold House,"Hoàng Anh Gold House, 187A Lê Văn Lương, Xã Phước Kiểng",699,800435,2,0.0,0,1,0,1,139,0,10.709897,106.702297
/ho-chi-minh/bep-nha-gau-nhim-le-van-luong/binh-luan,Bếp Nhà Gấu Nhím - Lê Văn Lương,"1419/164 Lê Văn Lương, X. Phước Kiển",699,1107078,2,0.0,0,0,0,0,9,0,10.7055316660066,106.7027229978817
/ho-chi-minh/the-win-coffee-nguyen-van-tao/binh-luan,The Win Coffee - Nguyễn Văn Tạo,"520 Nguyễn Văn Tạo, Xã Long Thới",699,871308,2,7.0,21,0,1,0,123,0,10.6460058541397,106.7316651647241
/ho-chi-minh/quan-68-hao-nuong-hai-san-cac-mon-lau/binh-luan,"Quán 68 - Hào Nướng, Hải Sản & Các Món Lẩu","1434 Lê Văn Lương, Xã Phước Kiển",699,880514,2,5.0,1,0,1,0,88,1,10.692778,106.703649
/ho-chi-minh/coffee-island/binh-luan,Coffee Island,"398 Phạm Hữu Lầu, P. Phước Kiển",699,908907,2,0.0,6,0,0,0,56,0,10.698475,106.718752
/ho-chi-minh/daisy-by-yen-ori-nguyen-binh/binh-luan,Daisy By Yen Ori - Nguyễn Bình,"412 Nguyễn Bình, Xã Phú Xuân",699,1064906,2,0.0,0,0,0,0,21,0,10.6741737,106.7353327
/ho-chi-minh/ga-mo-nhon/binh-luan,Gà Mỏ Nhọn,"11/10 Dương Cát Lợi, Khu Phố 4, Thị Trấn Nhà Bè",699,1078323,2,0.0,0,0,0,0,8,0,10.7015119,106.7393043
/ho-chi-minh/quan-ne-tra/binh-luan,Quán Nê Trà,"154 Phan Văn Bảy, X. Hiệp Phước",699,1078326,2,0.0,0,0,0,0,24,0,10.6323206,106.736935
/ho-chi-minh/che-thai-le-van-luong/binh-luan,Chè Thái - Lê Văn Lương ,269 Lê Văn Lương,699,708880,2,0.0,2,0,0,0,87,0,10.700775,106.70416
/ho-chi-minh/a-bao-snacks/binh-luan,A Bảo Snacks,"1758 Huỳnh Tấn Phát, Khu Phố 5, Thị Trấn Nhà Bè",699,1078325,2,0.0,0,1,0,1,29,0,10.6986568,106.7386923
/ho-chi-minh/banh-mi-ha-noi-quoc-dat-huynh-tan-phat/binh-luan,Bánh Mì Hà Nội Quốc Đạt - Huỳnh Tấn Phát,"18/9C Huỳnh Tấn Phát, X. Phú Xuân",699,1114663,2,0.0,0,0,0,0,3,0,10.6819464505915,106.7479133464771
/ho-chi-minh/quan-559-hu-tieu-nam-vang-hu-tieu-bo-kho-banh-mi-bo-kho-nguyen-van-tao.w80bol/binh-luan,"Quán 559 - Hủ Tiếu Nam Vang, Hủ Tiếu Bò Kho & Bánh Mì Bò Kho - Nguyễn Văn Tạo","21 Nguyễn Văn Tạo, Xã Long Thới",699,1000026815,2,0.0,0,0,0,0,43,0,10.6664686,106.7250073
/ho-chi-minh/honey-bunch-bakery-ca-phe-le-thi-kinh/binh-luan,Honey Bunch - Bakery & Cà Phê - Lê Thị Kỉnh,"22 Lê Thị Kỉnh, X. Phước Kiển",699,1000038662,2,0.0,0,0,0,0,31,0,10.7150807,106.7025716
/ho-chi-minh/ki-ot-ca-phe-diem-tam-tra-sua-saigon-south/binh-luan,Ki Ốt Cà Phê - Điểm Tâm & Trà Sữa - SaiGon South,"Đối Diện Cổng Vào SaiGon South, X. Phước Kiển",699,1117565,2,0.0,0,0,0,0,23,0,10.7205036743976,106.7022123042008
/ho-chi-minh/sua-gao-shin-sua-gao-le-van-luong.uluqp8/binh-luan,Sữa Gạo Shin - Sữa Gạo - Lê Văn Lương,"1040/7 Lê Văn Lương, Phước Kiển",699,1000038316,2,0.0,0,0,0,0,4,0,10.7134585,106.701795
/ho-chi-minh/cau-vong-quan-pham-huu-lau/binh-luan,Cầu Vồng Quán - Phạm Hữu Lầu,"202B Phạm Hữu Lầu, Ấp 4, Phước Kiển",699,1117195,2,0.0,0,0,0,0,25,0,10.6982062700898,106.7188241389878
/ho-chi-minh/quan-lau-tu-do-tu-xuyen-lau-huynh-tan-phat.kirlhb/binh-luan,Quán Lẩu Tự Do Tứ Xuyên - Lẩu - Huỳnh Tấn Phát,"1716/46/28A Huỳnh Tấn Phát, X. Phú Xuân",699,1000037482,2,0.0,0,0,0,0,32,0,10.6840227,106.7452451
/ho-chi-minh/hieu-map-lo-banh-mi-heo-quay/binh-luan,Hiếu Mập - Lò Bánh Mì & Heo Quay,"1372 Lê Văn Lương, P. Phước Kiển",699,747561,2,0.0,4,1,0,0,183,0,10.700861,106.704147
/ho-chi-minh/com-tam-le-van-luong/binh-luan,Cơm Tấm - Lê Văn Lương,Lê Văn Lương,699,140873,2,0.0,1,0,0,0,182,1,10.7047615888265,106.7035049200058
/ho-chi-minh/phuong-vien-cafe/binh-luan,Phương Viên Cafe,"71A  Nguyễn Văn Tạo, Xã Long Thới",699,264860,2,0.0,6,8,0,1,179,0,10.653213,106.7294071999999
/ho-chi-minh/com-chay-duc-hanh-44-le-van-luong/binh-luan,Cơm Chay Đức Hạnh - 44 Lê Văn Lương,44 Lê Văn Lương,699,708285,2,0.0,4,1,0,0,180,0,10.713707,106.700892
/ho-chi-minh/banh-mi-xiu-mai-le-van-luong/binh-luan,Bánh Mì Xíu Mại - Lê Văn Lương,"109 Lê Văn Lương, P. Phước Kiển",699,743189,2,0.0,6,1,0,0,172,0,10.713278,106.701282
/ho-chi-minh/a-d-bakery/binh-luan,A&D Bakery,"1162 Lê Văn Lương,  Ấp 3, Phước Kiến",699,276590,2,0.0,6,0,0,0,165,0,10.7138429,106.7009735
/ho-chi-minh/cow-bubble-tea-tra-sua-tra/binh-luan,Cow Bubble Tea - Trà Sữa & Trà,"2 Lê Thị Kỉnh, P. Phước Kiển",699,1118871,2,0.0,0,0,0,0,23,0,10.7141873192192,106.7010800005103
/ho-chi-minh/angels-sunrise-riverside/binh-luan,Angels - Sunrise Riverside,"Tháp K 01.16 Sunrise Riverside, X. Phước Kiển",699,1118144,2,0.0,0,0,0,0,30,0,10.7229461,106.7057466
/ho-chi-minh/quan-van-chao-bun-mien-goi-ga-vit/binh-luan,"Quán Vân - Cháo, Bún, Miến & Gỏi Gà Vịt","224A Lê Văn Lương, Xã Phước Kiển",699,745709,2,0.0,11,2,0,1,141,0,10.7081845,106.7026245
/ho-chi-minh/five-star-vietnam-334-huynh-tan-phat/binh-luan,Five Star Vietnam - 334 Huỳnh Tấn Phát,"334A Huỳnh Tấn Phát, Xã Phú Xuân",699,682987,2,0.0,0,1,0,1,156,1,10.684329,106.7453
/ho-chi-minh/bun-bo-hue-mai/binh-luan,Bún Bò Huế Mai,"Chợ Tạm Phước Kiển, 143 Lê Văn Lương, P. Phước Kiển",699,778724,2,0.0,0,3,0,1,45,1,10.7113263,106.7020746000001
/ho-chi-minh/banh-mi-ha-noi-989-le-van-luong/binh-luan,Bánh Mì Hà Nội - 989 Lê Văn Lương,"989 Lê Văn Lương, Xã Phước Kiển",699,778604,2,0.0,5,1,0,1,42,0,10.7100546065192,106.7021203865776
/ho-chi-minh/pho-gia-truyen-ha-noi-bun-bo-gio-heo/binh-luan,Phở Gia Truyền Hà Nội & Bún Bò Giò Heo,929 Huỳnh Tấn Phát,699,727042,2,0.0,4,3,0,1,68,0,10.674478,106.764136
/ho-chi-minh/sinh-to-nuoc-ep-bun-thit-nuong/binh-luan,Sinh Tố & Nước Ép,"187A Lê Văn Lương, P. Phước Kiển",699,998322,2,0.0,0,0,0,0,35,0,10.7097328,106.7001594
/ho-chi-minh/saffron-juice-nuoc-ep-lanh-nguyen-huu-tho.5uxjhh/binh-luan,Saffron Juice - Nước Ép Lạnh - Nguyễn Hữu Thọ,"A1-11 Hoàng Anh Gia Lai 3 Nguyễn Hữu Thọ, P, Phước Kiển",699,1000029021,2,0.0,0,0,0,0,19,0,10.719954,106.70078
/ho-chi-minh/banh-trang-co-ngoc-nguyen-huu-tho/binh-luan,Bánh Tráng Cô Ngọc - Nguyễn Hữu Thọ,"Chung Cư Hoàng Anh Gia Lai 3, Nguyễn Hữu Thọ, X. Phước Kiển",699,1105570,2,0.0,0,0,0,0,6,0,10.7199433339574,106.7007904258581
/ho-chi-minh/cara-cafe-tra-sua-ca-phe/binh-luan,Cara Café - Trà Sữa & Cà Phê,"B1 - 07 Block B2 Chung Cư New Saigon HAGL3, X. Phước Kiển",699,1103795,2,0.0,0,0,0,0,11,0,10.7199916192467,106.700803874369
/ho-chi-minh/quan-lau-bo-9999/binh-luan,Quán Lẩu Bò 9999,"8B Đào Sư Tích, X. Phước Kiến",699,1078358,2,0.0,0,0,0,0,23,0,10.7135526,106.7004697
/ho-chi-minh/o-huong-banh-mi-thit-nuong-xu-hue/binh-luan,O Hương - Bánh Mì Thịt Nướng Xứ Huế,"978 Lê Văn Lương, X. Phước Kiển",699,1051770,2,0.0,0,1,0,0,48,0,10.7091612,106.7026298
/ho-chi-minh/quan-chay-sinh-thanh-le-van-luong/binh-luan,Quán Chay Sinh Thành - Lê Văn Lương,"213 Lê Văn Lương, P. Phước Kiển",699,1068981,2,0.0,0,0,0,0,35,0,10.708524,106.702895
/ho-chi-minh/hu-tieu-co-thu-huynh-tan-phat/binh-luan,Hủ Tiếu Cô Thu - Huỳnh Tấn Phát,"206/19/12 Huỳnh Tấn Phát, TT. Nhà Bè",699,1110150,2,0.0,0,0,0,0,7,0,10.6876146189461,106.7428915695737
/ho-chi-minh/pho-ha-noi-143-le-van-luong/binh-luan,Phở Hà Nội - Lê Văn Lương,"143 Lê Văn Lương, Xã Phước Kiểng",699,654220,2,0.0,0,0,0,0,57,3,10.711883,106.701702
/ho-chi-minh/pho-ha-noi-145-le-van-luong/binh-luan,Phở Hà Nội - 145 Lê Văn Lương,"145 Lê Văn Lương, X. Phước Kiển",699,708291,2,0.0,4,0,0,0,71,0,10.704815,106.703313
/ho-chi-minh/banh-canh-gio-heo-chao-long-mi-xao/binh-luan,"Bánh Canh Giò Heo, Cháo Lòng & Mì Xào","189 Lê Văn Lương, Xã Phước Kiển",699,881726,2,0.0,1,1,0,1,58,0,10.709872,106.70231
/ho-chi-minh/bun-mam-co-hue-huynh-tan-phat/binh-luan,Bún Mắm Cô Huệ - Huỳnh Tấn Phát,"1909 Huỳnh Tấn Phát, TT. Nhà Bè",699,1114963,2,0.0,0,0,0,0,5,0,10.6876135746674,106.7428852458467
/ho-chi-minh/bun-bo-hue-hong-map-huynh-tan-phat/binh-luan,Bún Bò Huế Hồng Mập - Huỳnh Tấn Phát,"2386 Huỳnh Tuấn Phát, Xã Phú Xuân",699,1114798,2,0.0,0,0,0,0,6,0,10.6797750991667,106.7500172078852
/ho-chi-minh/ca-phe-song-linh-huynh-tan-phat/binh-luan,Cà Phê Song Linh - Huỳnh Tấn Phát,"519 Huỳnh Tấn Phát, TT. Nhà Bè",699,1114678,2,0.0,0,0,0,0,4,0,10.6854616209851,106.7446702685233
/ho-chi-minh/godman-coffee-ca-phe-ca-phe-sua/binh-luan,GODMAN COFFEE - Cà Phê & Cà Phê Sữa,"2405 Huỳnh Tấn Phát, TT. Nhà Bè",699,1114671,2,0.0,0,0,0,0,3,0,10.6828631,106.7467818
/ho-chi-minh/lau-ga-ot-hiem-79/binh-luan,Lẩu Gà Ớt Hiểm 79,"1167 Lê Văn Lương, Xã Phước Kiển",699,1044045,2,0.0,0,0,0,0,72,0,10.7007338377717,106.7040600813583
/ho-chi-minh/trung-nguyen-e-coffee-nguyen-huu-tho/binh-luan,Trung Nguyên E-Coffee - Nguyễn Hữu Thọ,"B01.06 Chung Cư Sunrise Riverside, Nguyễn Hữu Thọ, Xã Phước Kiển",699,967381,2,0.0,1,0,0,0,127,0,10.722159,106.702809
/ho-chi-minh/wiking-cafe-and-beer/binh-luan,Wiking Cafe and Beer,"79 Nguyễn Hữu Thọ, X. Phước Kiển",699,973130,2,0.0,0,0,0,0,37,0,10.714095,106.705823
/ho-chi-minh/com-chay-duc-hanh/binh-luan,Cơm Chay Đức Hạnh,943 Lê Văn Lương,699,655235,2,0.0,5,0,0,0,164,2,10.7063570695123,106.7035387828946
/ho-chi-minh/nara-quan-diem-tam-com-trua-an-vat/binh-luan,"Nara Quán - Điểm Tâm, Cơm Trưa & Ăn Vặt","Hoàng Anh Gold House, 187A Lê Văn Lương, P. Phước Kiển",699,698855,2,0.0,7,2,0,0,164,0,10.7105906695708,106.7038230970502
/ho-chi-minh/iron-coffee-tea-phan-van-bay/binh-luan,Iron - Coffee &Tea - Phan Văn Bảy,"760B Phan Văn Bảy, Xã Hiệp Phước",699,804025,2,0.0,10,0,0,0,161,0,10.63198,106.735248
/ho-chi-minh/ne-tra-milk-tea/binh-luan,Nê Trà - Milk Tea & Blend,162 Phan Văn Bảy,699,835107,2,0.0,5,0,0,0,161,0,10.631985,106.736214
/ho-chi-minh/banh-mi-362-nguyen-huu-tho/binh-luan,Bánh Mì 362 - Nguyễn Hữu Thọ,"C1-2 Chung Cư Phú Hoàng Anh, Nguyễn Hữu Thọ, X. Phước Kiển",699,726627,2,0.0,0,1,0,0,156,0,10.71237,106.7074317
/ho-chi-minh/banh-trang-tron-nha-be-nguyen-huu-tho/binh-luan,Bánh Tráng Trộn Nhà Bè - Nguyễn Hữu Thọ,"17/3 Nguyễn Hữu Thọ, Xã Phú Xuân",699,889965,2,0.0,12,0,0,0,155,0,10.7188,106.7024999999999
/ho-chi-minh/khanh-thu-banh-beo-banh-bot-loc/binh-luan,Khánh Thư - Bánh Bèo & Bánh Bột Lọc,"Lô B1 KDC Long Thới, Nguyễn Văn Tạo, Xã Long Thới",699,676592,2,0.0,0,1,0,1,154,0,10.6422455834421,106.732510370639
/ho-chi-minh/quan-thang-nhi-com-van-phong/binh-luan,Quán Thằng Nhí - Cơm Văn Phòng,"C01 - 08 Chung Cư Hoàng Anh Gia Lai 3, Nguyễn Hữu Thọ",699,200006,2,0.0,6,2,0,0,153,3,10.7203591176694,106.7009288534424
/ho-chi-minh/mix-cafe-sunrise-riverside/binh-luan,Mix Cafe - Sunrise Riverside,"K01.03 Sunrise Riverside, X. Phước Kiển",699,1117454,2,0.0,0,0,0,0,29,0,10.7227512122498,106.704963759524
/ho-chi-minh/pho-bo-mien-luon/binh-luan,Phở Bò & Miến Lươn,187A Lê Văn Lương,699,655244,2,0.0,3,1,0,1,47,0,10.7103294274233,106.7019670084118
/ho-chi-minh/van-anh-bun-ca-ro-banh-da-cua-hai-phong/binh-luan,Vân Anh - Bún Cá Rô & Bánh Đa Cua Hải Phòng,"1205 Lê Văn Lương, Xã Phước Kiểng",699,786125,2,0.0,2,3,0,1,58,0,10.693164,106.703935
/ho-chi-minh/ut-dieu-bo-la-lot-goi-cuon-hot-vit-lon/binh-luan,"Út Diệu - Bò Lá Lốt, Gỏi Cuốn & Hột Vịt Lộn","Hẻm 1017 Lê Văn Lương, Xã Phước Kiển",699,881722,2,0.0,1,2,0,1,33,0,10.709581,106.702435
/ho-chi-minh/com-binh-dan-20k-le-van-luong/binh-luan,Cơm Bình Dân 20K -  Lê Văn Lương,928 Lê Văn Lương,699,754836,2,0.0,2,0,0,0,35,0,10.713781,106.700517
/ho-chi-minh/banh-trang-muoi-tay-ninh-shop-online/binh-luan,Bánh Tráng Muối Tây Ninh - Shop Online,"Hưng Phát Apartment, 928 Lê Văn Lương, Xã Phước Kiển",699,1044908,2,0.0,0,0,0,0,13,0,10.7141047996049,106.7005516748687
/ho-chi-minh/cua-hang-cha-lua-le-van-luong/binh-luan,Cửa Hàng Chả Lụa - Lê Văn Lương,"914 Lê Văn Lương, Xã Phước Kiển",699,932495,2,0.0,0,1,0,0,14,0,10.714819,106.700607
/ho-chi-minh/quan-an-gia-dinh-khoi-nguyen/binh-luan,Quán Ăn Gia Đình Khởi Nguyên - Bê Thui & Lẩu Nướng,"180 Lê Văn Lương, X. Phước Kiển",699,887305,2,0.0,0,0,0,0,35,0,10.714593,106.700629
/ho-chi-minh/chi-nga-chao-ga-goi-ga-20k/binh-luan,Chị Nga - Cháo Gà & Gỏi Gà 20K,3B Đào Sư Tích,699,754785,2,0.0,3,0,0,0,34,0,10.713397,106.7005836999999
/ho-chi-minh/co-vy-tra-bi-dao-tuoi-mat/binh-luan,Cô Vy - Trà Bí Đao Tươi Mát,9 Đào Sư Tích,699,754787,2,0.0,2,0,0,0,47,0,10.713397,106.7005836999999
/ho-chi-minh/cara-cafe-hagl-3-new-sai-gon/binh-luan,Cara Café - HAGL 3 New Sài Gòn,"B1 - 07 Chung Cư HAGL 3 New Sài Gòn, Nguyễn Hữu Thọ, Xã Phước Kiển",699,1001073,2,0.0,0,0,0,0,69,0,10.71953,106.700963
/ho-chi-minh/am-thuc-chay-carrot/binh-luan,Ẩm Thực Chay Carrot,"CC The Park Residence 12 Nguyễn Hữu Thọ, X. Phước Kiển",699,1080757,2,0.0,0,0,0,0,18,0,10.7118696,106.7080306
/ho-chi-minh/ga-u-muoi-long-giang-huynh-tan-phat/binh-luan,Gà Ủ Muối Long Giang - Huỳnh Tấn Phát,"Lô A, Chung Cư Phú Mỹ Thuận, Đường Huỳnh Tấn Phát, X. Phú Xuân",699,1086062,2,5.0,0,0,1,0,53,0,10.678780572372,106.7504059139792
/ho-chi-minh/com-tam-tam-nga-67-le-van-luong/binh-luan,Cơm Tấm Tám Nga - 67 Lê Văn Lương,"67 Lê Văn Lương, Xã Phước Kiển",699,799071,2,4.0,0,0,1,0,94,0,10.717528,106.699837
/ho-chi-minh/huong-duong-tra-sua-nha-lam/binh-luan,Hướng Dương - Trà Sữa Nhà Làm,43 Nguyễn Văn Tạo,699,788056,2,0.0,184,0,0,0,78,5,10.6668595999999,106.7251126999999
/ho-chi-minh/a-new-day-hanh-phi-gion-rum-yaourt-sanh-min-nguyen-huu-tho.re9ijn/binh-luan,A New Day - Hành Phi Giòn Rụm & Yaourt Sánh Mịn - Nguyễn Hữu Thọ,"Chung Cư Saigon South Nguyễn Hữu Thọ, X. Phước Kiển",699,1000032892,2,0.0,0,0,0,0,25,0,10.7203798,106.7033471
/ho-chi-minh/thit-bo-chi-tien-pham-huu-lau/binh-luan,Thịt Bò Chị Tiên - Phạm Hữu Lầu,"387/2/1J Phạm Hữu Lầu, X. Phước Kiển",699,1088416,2,0.0,0,0,0,0,42,0,10.701896,106.723179
/ho-chi-minh/e-coffee-nguyen-huu-tho/binh-luan,E-Coffee - Nguyễn Hữu Thọ,"C1.2 Chung Cư Phú Hoàng Anh, 9 Nguyễn Hữu Thọ, X. Phước Kiển",699,1042196,2,0.0,0,0,0,0,27,0,10.716709,106.704477
/ho-chi-minh/hanayuki-foodies-tra-sua-huynh-tan-phat.5qdiuo/binh-luan,Hanayuki Foodies - Trà Sữa - Huỳnh Tấn Phát,"2814/17 Huỳnh Tấn Phát, X. Phú Xuân",699,1000035698,2,0.0,0,0,0,0,5,0,10.6733121,106.7660608
/ho-chi-minh/horizon-food-kho-ga-la-chanh-nguyen-binh.wc2u8g/binh-luan,Horizon Food - Khô Gà Lá Chanh - Nguyễn Bình,"Hẻm 477 Nguyễn Bình, X. Phú Xuân",699,1000035649,2,0.0,0,0,0,0,7,0,10.6722113,106.731275
/ho-chi-minh/tra-sua-tea-house-le-van-luong/binh-luan,Trà Sữa Tea House - Lê Văn Lương,"1023 Lê Văn Lương, Xã Phước Kiển",699,708298,2,0.0,5,0,0,0,153,2,10.70918,106.702588
/ho-chi-minh/bimbim-the-baker-house/binh-luan,Bimbim - The Baker House,"1508/17 Lê Văn Lương, Xã Nhơn Đức",699,665242,2,0.0,11,2,0,0,148,2,10.687386,106.700022
/ho-chi-minh/banh-kem-huong-phuc/binh-luan,Bánh Kem Hương Phúc,58/9 Huỳnh Tấn Phát,699,674236,2,0.0,0,0,0,0,139,1,10.6934,106.740995
/ho-chi-minh/wong-cha-milk-tea-cafe/binh-luan,Wong Chà - Milk Tea & Cafe,12 Nguyễn Hữu Thọ,699,772485,2,0.0,31,0,0,0,136,0,10.7128564464537,106.7061020329736
/ho-chi-minh/tiem-bun-rieu-cua-banh-cuon-nong-ha-noi-2330-huynh-tan-phat/binh-luan,Tiệm Bún Riêu Cua & Bánh Cuốn Nóng Hà Nội 2330 - Huỳnh Tấn Phát,"2330 Huỳnh Tấn Phát, Ấp 3, Xã Phú Xuân",699,1114956,2,0.0,0,0,0,0,8,0,10.680089,106.7485473
/ho-chi-minh/lau-bo-9999/binh-luan,Lẩu Bò 9999,1 Đào Sư Tích,699,880287,2,0.0,1,0,0,0,82,0,10.7132291038007,106.7006889358162
/ho-chi-minh/an-vat-susu-deli/binh-luan,Ăn Vặt Susu Deli,"New Saigon, Nguyễn Hữu Thọ, Xã Phước Kiểng",699,1060809,2,0.0,1,0,0,0,14,0,10.7201113431175,106.7010860095841
/ho-chi-minh/green-coffee-nguyen-huu-tho/binh-luan,Green & Coffee - Nguyễn Hữu Thọ,"D1.05, Chung Cư Hoàng Anh Gia Lai 3, Nguyễn Hữu Thọ, Xã Phước Kiển",699,760173,2,0.0,5,0,0,0,38,0,10.72032,106.701149
/ho-chi-minh/chao-long-tiet-canh-chao-long-mat-ma-heo-le-thi-kinh.nplqk1/binh-luan,Cháo Lòng Tiết Canh - Cháo Lòng & Mắt Má Heo - Lê Thị Kỉnh,"20 Lê Thị Kỉnh, X. Phước Kiển",699,1000028930,2,0.0,0,0,0,0,19,0,10.71322,106.70237
/ho-chi-minh/quan-com-com-le-van-luong.j6wewm/binh-luan,Quán Cơm  - Cơm - Lê Văn Lương,"222 Lê Văn Lương, P. Phước Kiển",699,1000030248,2,0.0,0,0,0,0,12,0,10.7098171,106.7023511
/ho-chi-minh/banh-trung-hong-kong-huynh-tan-phat/binh-luan,Bánh Trứng Hong Kong - Huỳnh Tấn Phát,1853 Huỳnh Tấn Phát,699,872103,2,0.0,9,1,0,0,40,6,10.6966566,106.7394326
/ho-chi-minh/126-coffee-nguyen-van-tao.xvkhbo/binh-luan,126 - Coffee - Nguyễn Văn Tạo,"126 Nguyễn Văn Tạo, X. Long Thới",699,1000031906,2,0.0,0,0,0,0,42,0,10.6637255,106.7245182
/ho-chi-minh/an-vat-nha-noga-tra-sua-an-vat-huynh-tan-phat.a0sugu/binh-luan,Ăn Vặt Nhà Noga - Trà Sữa & Ăn Vặt - Huỳnh Tấn Phát,"Chung Cư Phú Mỹ Thuận Huỳnh Tấn Phát, X. Phú Xuân",699,1000033599,2,0.0,0,0,0,0,24,0,10.6786857,106.7504381
/ho-chi-minh/hu-tieu-co-vui/binh-luan,Hủ Tiếu Cô Vui,"1716/46/30 Huỳnh Tấn Phát, Tt. Nhà Bè",699,1057789,2,0.0,0,0,0,0,24,0,10.699863,106.736462
/ho-chi-minh/quan-60s-hu-tieu-bo-vien-le-thi-kinh.kxz0pa/binh-luan,Quán 60s - Hủ Tiếu Bò Viên - Lê Thị Kỉnh,"20  Lê Thị Kỉnh, P. Phước Kiển",699,1000023381,2,0.0,0,0,0,0,8,0,10.71322,106.70237
/ho-chi-minh/bep-nha-com-van-phong-com-ga-xoi-mo-nguyen-huu-tho.nmch81/binh-luan,Bếp Nhà - Cơm Văn Phòng & Cơm Gà Xối Mỡ - Nguyễn Hữu Thọ,"01 Khu biệt thự Ngân Long ( Giữ Ngân hàng Nông nghiệp và toà PVGas ) Nguyễn Hữu Thọ, P. Phước Kiển",699,1000035000,2,0.0,0,1,0,0,26,0,10.71824,106.7028
/ho-chi-minh/banh-trang-co-men-duong-le-van-luong.cxoyb0/binh-luan,Bánh Tráng Cô Mén  - Đường Lê Văn Lương ,"228B Lê Văn Lương, Phước Kiển",699,1000034680,2,0.0,0,0,0,0,3,0,10.7090369,106.7025448
/ho-chi-minh/quan-lan-anh-juice-nuoc-ep-sinh-to-sunrise-riverside/binh-luan,Quán Lan Anh Juice - Nước Ép & Sinh Tố - Sunrise Riverside,"Block D22.13 Sunrise Riverside, Nguyễn Hữu Thọ, X. Phước Kiển",699,1111073,2,0.0,0,0,0,0,19,0,10.722718,106.704109
/ho-chi-minh/chop-chep-dac-san-binh-dinh-le-van-luong/binh-luan,Chóp Chép - Đặc Sản Bình Định - Lê Văn Lương,"187A Lê Văn Lương, X. Phước Kiểng",699,1110902,2,0.0,0,0,0,0,29,0,10.7104026987892,106.7025179525229
/ho-chi-minh/bep-co-tam-dang-nhu-lam/binh-luan,Bếp Cô Tâm - Đặng Nhữ Lâm,"48/82/10 Đặng Nhữ Lâm, P. Phú Xuân",699,1109910,2,0.0,0,0,0,0,4,0,10.6948888391377,106.7403940258038
/ho-chi-minh/an-vat-sang-xin-min-pham-huu-lau/binh-luan,Ăn Vặt Sang Xịn Mịn - Phạm Hữu Lầu,"360/1/2 Phạm Hữu Lầu, X. Phước Kiển",699,1110157,2,0.0,0,0,0,0,7,0,10.7045305087066,106.7215595408765
/ho-chi-minh/banh-trang-pi-peo-lap-xuong-tuoi-nguyen-huu-tho.suwsyr/binh-luan,Bánh Tráng Pi Péo - Lạp Xưởng Tươi - Nguyễn Hữu Thọ,"Block K Chung Cư Sunrise Riverside Nguyễn Hữu Thọ, Xã Phước Kiển",699,1000031343,2,0.0,0,0,0,0,16,0,10.7230041,106.7033674
/ho-chi-minh/honey-cafe-sinh-to-kem-tu-chon/binh-luan,"Honey - Cafe, Sinh Tố & Kem Tự Chọn","Long Hậu, P. Hiệp Phước",699,664359,2,0.0,9,0,0,0,135,1,10.6321334728114,106.7355814576149
/ho-chi-minh/bo-kho-148-le-van-luong/binh-luan,Bò Kho 148 - Lê Văn Lương,"148 Lê Văn Lương, Ấp 3, Xã Phước Kiển",699,153735,2,0.0,0,0,0,0,135,0,10.7045402040992,106.7035612463951
/ho-chi-minh/quan-nuong-alibaba/binh-luan, Quán Nướng Alibaba,Hẻm 915 Nguyễn Hữu Thọ,699,238401,2,0.0,2,0,0,0,134,0,10.6899030095433,106.7175892989502
/ho-chi-minh/hava-s-tea-tra-sua-dai-loan-an-vat/binh-luan,Hava's Tea - Trà Sữa Đài Loan & Ăn Vặt,"857A Lê Văn Lương, Xã Phước Kiển",699,922550,2,0.0,21,0,0,0,131,2,10.713831,106.700952
/ho-chi-minh/tam-hai-san-hai-san-tuoi-song/binh-luan,Tâm Hải Sản - Hải Sản Tươi Sống,"14 Huỳnh Tấn Phát, Khu Phố 4, T. T Nhà Bè",699,1114153,2,0.0,0,0,0,0,7,0,10.7014142,106.7382543
/ho-chi-minh/minh-hoa-2-lo-banh-mi-dac-ruot/binh-luan,Minh Hòa 2 - Lò Bánh Mì Đặc Ruột,"12A Lê Văn Lương, Xã Phước Kiển",699,882240,2,0.0,1,1,0,0,48,0,10.714586,106.70083
/ho-chi-minh/hem-milk-tea-coffee/binh-luan,Hẻm Milk Tea & Coffee,"1/23b Lê Văn Lương, Ấp 3, X. Nhơn Đức",699,1078347,2,0.0,0,0,0,0,24,0,10.6739625,106.6985452
/ho-chi-minh/tra-sua-sinh-to-nuoc-ep-trai-cay-trang-an/binh-luan,"Trà Sữa, Sinh Tố & Nước Ép Trái Cây Tràng An",1 Đào Sư Tích,699,880291,2,0.0,1,0,0,0,72,0,10.7133273,106.7007791
/ho-chi-minh/sach-coffee-le-van-luong/binh-luan,Sạch Coffee - Lê Văn Lương,"915 Lê Văn Lương, Xã Phước Kiển",699,882225,2,0.0,1,0,0,0,15,0,10.714338,106.700851
/ho-chi-minh/anh-truong-sinh-to-nuoc-ep/binh-luan,Anh Trương - Sinh Tố & Nước Ép,9 Đào Sư Tích,699,754834,2,0.0,2,0,0,0,17,0,10.713644,106.70087
/ho-chi-minh/bo-to-hoan-map-le-van-luong/binh-luan,Bò Tơ Hoàn Mập - Lê Văn Lương,"105A Lê Văn Lương, Xã Phước Kiển",699,882226,2,0.0,1,0,0,0,46,0,10.714209,106.700923
/ho-chi-minh/banh-canh-ghe-424/binh-luan,Bánh Canh Ghẹ 424,"Căn A1- 06 Lock A1, Chung Cư Hoàng Anh Gia Lai 3, Nguyễn Hữu Thọ, P. Phước Kiến",699,972403,2,0.0,1,0,0,0,19,0,10.72004,106.701257
/ho-chi-minh/quan-oc-pham-huu-lau/binh-luan,Quán Ốc,"Phạm Hữu Lầu, Xã Phước Kiển",699,644164,2,0.0,11,0,0,0,91,2,10.703035,106.723017
/ho-chi-minh/com-tam-bun-thit-nuong-le-van-luong/binh-luan,Cơm Tấm & Bún Thịt Nướng - Lê Văn Lương,"1299 Lê Văn Lương, Xã Phước Kiểng",699,777954,2,0.0,4,0,0,0,65,0,10.6959416,106.704963
/ho-chi-minh/quan-phi-chao-long-ma-heo-cac-mon-nhau-binh-dan/binh-luan,Quán Phi - Cháo Lòng Má Heo & Các Món Nhậu Bình Dân,1284 Lê Văn Lương,699,752538,2,0.0,1,2,0,0,129,0,10.6991243,106.7045249
/ho-chi-minh/banh-trang-nuong-mam-ruoc-le-van-luong/binh-luan,Bánh Tráng Nướng Mắm Ruốc - Lê Văn Lương,"1017/34 Lê Văn Lương, Xã Phước Kiểng",699,788885,2,0.0,4,1,0,0,112,0,10.702385,106.704366
/ho-chi-minh/banh-bot-nha-lam-banh-bot-cu-cai-nguyen-binh.f7puyk/binh-luan,Bánh Bột Nhà Lâm - Bánh Bột Củ Cải - Nguyễn Bình,"434/35 Nguyễn Bình, X. Phú Xuân",699,1000033352,2,0.0,0,0,0,0,2,0,10.6757076,106.7430454
/ho-chi-minh/viet-soup-842-nguyen-van-tao/binh-luan,Việt Soup - 842 Nguyễn Văn Tạo,"842 Nguyễn Văn Tạo, Ấp 1, X. Hiệp Phước",699,1104832,2,0.0,0,0,0,0,18,0,10.629615208164,106.7362574120034
/ho-chi-minh/an-vat-online-nha-ken-le-van-luong/binh-luan,Ăn Vặt Online Nhà Ken - Lê Văn Lương,"139B Ấp 3 Lê Văn Lương, X. Phước Kiển",699,1107634,2,0.0,0,0,0,0,13,0,10.7119821522772,106.7016999997751
/ho-chi-minh/an-an-banh-chung-banh-gio-chung-cu-phu-gia/binh-luan,An An - Bánh Chưng & Bánh Giò - Chung Cư Phú Gia,"Chung Cư Phú Gia, Xã Phú Xuân",699,1106966,2,0.0,0,0,0,0,28,0,10.6787064803037,106.7409215974359
/ho-chi-minh/banh-mi-deli/binh-luan,Bánh Mì Déli,1 Đào Sư Tích,699,920181,2,0.0,2,1,0,0,128,1,10.713107,106.701206
/ho-chi-minh/tra-sua-sinh-to-nuoc-ep-le-van-luong/binh-luan,"Trà Sữa, Sinh Tố & Nước Ép - Lê Văn Lương",866 Lê Văn Lương,699,880251,2,0.0,1,0,0,0,31,0,10.713836,106.70095
/ho-chi-minh/banh-chung-banh-it/binh-luan,Bánh Chưng & Bánh Ít,"107/1 Lê Văn Lương, P. Phước Kiển",699,936616,2,0.0,2,0,0,0,48,0,10.713486,106.700932
/ho-chi-minh/com-tam-bich-tram-com-tam-le-van-luong/binh-luan,Cơm Tấm Bích Trâm - Cơm Tấm - Lê Văn Lương,"854 Lê Văn Lương, X. Phước Kiển",699,1000024859,2,0.0,0,0,0,0,25,0,10.7140998956987,106.70098629666
/ho-chi-minh/nhan-pho-bo/binh-luan,Nhân - Phở Bò,"588 Nguyễn Văn Tạo, Xã Long Thới",699,771647,2,0.0,6,1,0,0,44,1,10.640304,106.733435
/ho-chi-minh/linh-huong-bakery-106-le-van-luong/binh-luan,Linh Hương Bakery - 106 Lê Văn Lương,"106 Lê Văn Lương, Xã Phước Kiển",699,238422,2,0.0,6,0,0,0,122,2,10.712563,106.701406
/ho-chi-minh/garden-tea-coffee/binh-luan,Garden Tea & coffee,1019 Lê Văn Lương,699,248802,2,0.0,12,0,0,0,74,1,10.70218,106.704237
/ho-chi-minh/mac-cafe-diem-tam/binh-luan,Mac - Cafe & Điểm Tâm,915/19 Lê Văn Lương,699,716272,2,0.0,9,0,0,0,37,1,10.7011001545692,106.7041228339075
/ho-chi-minh/banh-mi-ma-hai-le-van-luong/binh-luan,Bánh Mì Má Hải - Lê Văn Lương,"1053 Lê Văn Lương, P. Phước Kiển",699,941359,2,0.0,0,0,0,0,6,0,10.700615,106.704146
/ho-chi-minh/v-k-chicken-ga-ran-thuc-an-nhanh/binh-luan,V & K Chicken - Gà Rán & Thức Ăn Nhanh,"3/28 Lê Văn Lương, Ấp 2, X. Nhơn Đức",699,902333,2,0.0,11,0,0,0,123,1,10.6868814,106.7016383
/ho-chi-minh/tra-sua-my-my-le-van-luong/binh-luan,Trà Sữa My My - Lê Văn Lương,"1399 Lê Văn Lương, Xã Phước Kiển",699,880678,2,0.0,1,0,0,0,17,1,10.691186,106.702901
/ho-chi-minh/bdl-coffee-organic/binh-luan,BDL Coffee Organic,"DP39 Khu Biệt Thự Dragon Parc 1, Nguyễn Hữu Thọ, Xã Phước Kiển",699,1051294,2,0.0,0,0,0,0,63,0,10.702472,106.714278
/ho-chi-minh/thuc-pham-han-quoc-maum-banh-gao-tokbokki-nguyen-huu-tho/binh-luan,Thực Phẩm Hàn Quốc Maum - Bánh Gạo Tokbokki - Nguyễn Hữu Thọ,"DP-33, Dragon Parc 1, Nguyễn Hữu Thọ, X. Phước Kiển",699,1086979,2,0.0,0,0,0,0,32,0,10.7029185,106.7140876
/ho-chi-minh/nhu-y-com-chien-hu-tieu-xao/binh-luan,Như Ý - Cơm Chiên & Hủ Tiếu Xào,"1405 Lê Văn Lương, Xã Phước Kiển",699,1055964,2,0.0,0,1,0,0,25,0,10.690987,106.702894
/ho-chi-minh/ga-ran-cp-five-star-1380-le-van-luong/binh-luan,Gà Rán CP Five Star - 1380 Lê Văn Lương,"1380 Lê Văn Lương, X. Phước Kiển",699,1105930,2,0.0,0,0,0,0,48,0,10.6949304,106.7046421
/ho-chi-minh/babylon-pho-com-trua-van-phong-le-thi-kinh/binh-luan,Babylon - Phở & Cơm Trưa Văn Phòng - Lê Thị Kỉnh,"26 Lê Thị Kỉnh, X. Phước Kiển",699,1103055,2,0.0,0,0,0,0,26,0,10.7149447,106.7027076
/ho-chi-minh/top-kitchen-thuc-pham-do-an-vat-kieu-bac/binh-luan,TOP Kitchen - Thực Phẩm & Đồ Ăn Vặt Kiểu Bắc,"Khu Căn Hộ Cao Ốc Phú Hoàng Anh 1, Nguyễn Hữu Thọ, Xã Phước Kiển",699,1000031431,2,0.0,0,0,0,0,11,0,10.7167197,106.7038033
/ho-chi-minh/gao-truong-son-huynh-tan-phat/binh-luan,Gạo Trường Sơn - Huỳnh Tấn Phát,"2056 Huỳnh Tấn Phát, Thị Trấn Nhà Bè",699,1092679,2,0.0,0,0,0,0,3,0,10.6899136396139,106.7416950332116
/ho-chi-minh/thuc-pham-tuoi-linh-thy-pham-huu-lau/binh-luan,Thực Phẩm Tươi Linh Thy - Phạm Hữu Lầu,"391 Phạm Hữu Lầu, Ấp 4, X. Phước Kiển",699,1092130,2,0.0,0,0,0,0,40,0,10.7022733,106.7221969
/ho-chi-minh/chu-thanh-bun-rieu-mi-xao-bo/binh-luan,Chú Thanh - Bún Riêu & Mì Xào Bò,"1026 Lê Văn Lương, X. Phước Kiển",699,755670,2,0.0,2,0,0,0,52,0,10.7005469,106.7041083
/ho-chi-minh/hieu-map-vit-quay-heo-quay-banh-mi/binh-luan,"Hiếu Mập - Vịt Quay, Heo Quay & Bánh Mì","1374 Lê Văn Lương, Phước Kiển",699,880511,2,0.0,1,0,0,0,124,0,10.695163,106.704833
/ho-chi-minh/cay-xang-binh-khanh-huynh-tan-phat/binh-luan,Cây Xăng Bình Khánh - Huỳnh Tấn Phát,"795 Huỳnh Tấn Phát, Xã Phú Xuân",699,234866,2,0.0,0,0,0,0,121,0,10.6776398,106.7556369999999
/ho-chi-minh/ga-ran-kun/binh-luan,Gà Rán Kun - Lê Văn Lương,"970 Lê Văn Lương, X. Phước Kiển",699,716285,2,0.0,5,0,0,0,118,1,10.707978,106.702786
/ho-chi-minh/lo-banh-mi-ha-noi/binh-luan,Lò Bánh Mì Hà Nội,2062 Huỳnh Tấn Phát,699,697889,2,0.0,1,0,0,0,118,0,10.687636,106.742824
/ho-chi-minh/sieu-thi-test-5-test/binh-luan,Siêu Thị Test 5 - test,"Khối G, Ấp 5, Xã Phước Kiển",699,1108413,2,0.0,0,0,0,0,3,0,10.723397370892,106.7039849548441
/ho-chi-minh/thao-nguyen-coffee-garden-pham-huu-lau/binh-luan,THẢO NGUYÊN COFFEE GARDEN - Phạm Hữu Lầu,"366 Phạm Hữu Lầu, X. Phước Kiển",699,1107790,2,0.0,0,0,0,0,31,0,10.7018367,106.7206651
/ho-chi-minh/chu-hong-chao-ma-heo/binh-luan,Chú Hồng - Cháo Má Heo,1017 Lê Văn Lương,699,661200,2,0.0,4,1,0,0,69,0,10.713848,106.700989
/ho-chi-minh/linh-huong-bakery-le-van-luong/binh-luan,Linh Hương Bakery - Lê Văn Lương,"12 Lê Văn Lương, Xã Phước Kiển",699,238417,2,0.0,6,1,0,0,103,2,10.712792,106.7009319999999
/ho-chi-minh/m-a-c-coffee/binh-luan,M.A.C Coffee,915/19 Lê Văn Lương,699,716543,2,0.0,13,1,0,0,41,0,10.713897,106.7009961
/ho-chi-minh/dong-giao-quan-mon-dong-que-hai-san/binh-luan,Đồng Giao Quán - Món Đồng Quê & Hải Sản,"915 Lê Văn Lương, Xã Phước Kiển",699,882224,2,0.0,15,2,0,0,67,0,10.713927,106.701002
/ho-chi-minh/boo-coffee-le-van-luong/binh-luan,Boo Coffee - Lê Văn Lương,"1434A Lê Văn Lương, Xã Phước Kiển",699,647934,2,0.0,0,0,0,0,28,0,10.71394,106.701014
/ho-chi-minh/gia-bao-coffee/binh-luan,Gia Bảo Coffee,1 Đào Sư Tích,699,238405,2,0.0,2,0,0,0,31,0,10.7134385385591,106.7010166621795
/ho-chi-minh/h-mong-coffee-chung-cu-hoang-anh-gia-lai-3/binh-luan,H'Mong Coffee - Chung Cư Hoàng Anh Gia Lai 3,"Nguyễn Hữu Thọ, Xã Phước Kiểng",699,1040610,2,0.0,0,0,0,0,14,0,10.719696,106.70138
/ho-chi-minh/nguyen-chat-coffee-1017-le-van-luong/binh-luan,Nguyên Chất Coffee - Lê Văn Lương,"1017/41 Lê Văn Lương, Xã Phước Kiển",699,752417,2,0.0,1,0,0,0,30,0,10.714012822064,106.7010631039738
/ho-chi-minh/truong-phat-2/binh-luan,Trường Phát 2,"96 Lê Văn Lương, Xã Phước Kiểng",699,682103,2,0.0,4,1,0,0,93,2,10.708451,106.702648
/ho-chi-minh/tk-cafe/binh-luan,TK Cafe,Hẻm 5 Lê Văn Lương,699,710374,2,0.0,6,0,0,0,47,1,10.7151714300054,106.7032400518655
/ho-chi-minh/bt-coffee-house-huynh-tan-phat/binh-luan,BT Coffee House - Huỳnh Tấn Phát,"1716/34 Huỳnh Tấn Phát, Khu Phố 5, Thị Trấn Nhà Bè",699,786515,2,0.0,6,1,0,0,54,1,10.699873,106.7381273
/ho-chi-minh/moon-cafe-nguyen-binh/binh-luan,Moon Cafe,"Nguyễn Bình, Xã Nhơn Đức",699,634916,2,0.0,4,0,0,0,47,1,10.672181,106.725987
/ho-chi-minh/mi-o-juice-tea/binh-luan,MI-O - Juice & Tea,"590 Nguyễn Văn Tạo, X. Long Thới",699,1078355,2,0.0,0,0,0,0,10,0,10.6402347,106.7336046
/ho-chi-minh/lucha-tea-and-coffee-nguyen-van-tao/binh-luan,Lucha Tea And Coffee - Nguyễn Văn Tạo,"193A Nguyễn Văn Tạo, Ấp 2, X. Long Thới",699,1078330,2,0.0,0,0,0,0,35,0,10.6423109,106.7330752
/ho-chi-minh/ponpon-trai-cay-banh-ngot-huynh-tan-phat/binh-luan,PONPON - Trái Cây & Bánh Ngọt - Huỳnh Tấn Phát,"2308 Huỳnh Tấn Phát, X. Phú Xuân",699,1092044,2,0.0,0,0,0,0,17,0,10.687722237066,106.7428179200037
/ho-chi-minh/phuc-tran-food-tran-thi-lien/binh-luan,PHÚC TRÂN FOOD - Trần Thị Liên," 15 Trần Thị Liền, X. Phước Kiển",699,1091989,2,0.0,0,0,0,0,15,0,10.709803,106.703116
/ho-chi-minh/pp-food-huynh-tan-phat/binh-luan,PP FOOD - HUỲNH TẤN PHÁT,"1936 Huỳnh Tấn Phát, TT. Nhà Bè",699,1091036,2,0.0,0,0,0,0,14,0,10.6877763758935,106.7428659395024
/ho-chi-minh/nha-minh-healthy-food/binh-luan,Nhà Mình - Healthy Food,"Shophouse E01.11, Sunrise Riverside, Xã Phước Kiển",699,1090710,2,0.0,0,0,0,0,16,0,10.7231495370944,106.7035087700202
/ho-chi-minh/diem-food-do-chay-thuc-pham-xanh/binh-luan,Diễm Food - Đồ Chay & Thực Phẩm Xanh,"1886/84/27 Huỳnh Tấn Phát, Thị Trấn Nhà Bè",699,1089422,2,0.0,0,0,0,0,35,0,10.6949913,106.7365938
/ho-chi-minh/do-an-nhanh-ga-muoi-tieu-an-vat/binh-luan,Đồ Ăn Nhanh - Gà Muối Tiêu & Ăn Vặt,"83/76/16/22/5 Đào Tông Nguyên ( KDC Sài Gòn Mới) KP.7, Thị Trấn Nhà Bè",699,1090463,2,0.0,0,0,0,0,21,0,10.6863449,106.7490003
/ho-chi-minh/ashley-s-snack-2266-huynh-tan-phat/binh-luan,Ashley’s Snack - 2266 Huỳnh Tấn Phát,"2266/14/33/13C Huỳnh Tấn Phát, X. Phú Xuân",699,1086981,2,0.0,0,0,0,0,9,0,10.683113,106.7436201
/ho-chi-minh/thuc-pham-sach-3t-le-van-luong/binh-luan,Thực Phẩm Sạch 3T - Lê Văn Lương,"61 Lê Văn Lương, Ấp 5, X. Phước Kiển",699,1086885,2,0.0,0,0,0,0,21,0,10.711349530378,106.701853141535
/ho-chi-minh/nha-hang-dui-cuu-nuong-nguyen-van-tao/binh-luan,Nhà Hàng Đùi Cừu Nướng - Nguyễn Văn Tạo,"234 Nguyễn Văn Tạo, Xã Long Thới",699,804036,2,0.0,0,1,0,0,111,1,10.655811,106.728532
/ho-chi-minh/viet-soup-2720-huynh-tan-phat/binh-luan,Việt Soup - 2720 Huỳnh Tấn Phát,"2720 Huỳnh Tấn Phát, X. Phú Xuân",699,1104841,2,0.0,0,0,0,0,15,0,10.6744662401112,106.7636054543317
/ho-chi-minh/ga-ran-so-1-le-van-luong/binh-luan,GÀ RÁN SỐ 1 - Lê Văn Lương,"1468 Lê Văn Lương, X. Phước Kiển",699,1103587,2,0.0,0,0,0,0,32,0,10.690243,106.702558
/ho-chi-minh/ut-ngoc-mien-tay-com-tam-bun-thit-nuong/binh-luan,Út Ngọc Miền Tây - Cơm Tấm & Bún Thịt Nướng,"1 Đào Sư Tích, Xã Phước Kiến",699,716037,2,0.0,8,1,0,0,36,0,10.7135374522119,106.701044999063
/ho-chi-minh/coffee-bean-sai-gon-le-van-luong/binh-luan,Coffee Bean Sài Gòn - Lê Văn Lương,"101/14 Lê Văn Lương, P. Phước Kiển",699,882223,2,0.0,1,0,0,0,14,0,10.713449,106.701167
/ho-chi-minh/hapi-house-coffee-more/binh-luan,Hapi House Coffee & More,"1017/65 Lê Văn Lương, Ấp 3, Xã Phước Kiển",699,769170,2,0.0,69,0,0,0,100,0,10.710721,106.701351
/ho-chi-minh/de-tuoi-lang-dai-hoc/binh-luan,Dê Tươi Làng Đại Học - Nguyễn Hữu Thọ,"152 Nguyễn Hữu Thọ, X. Phước Kiển",699,938102,2,0.0,62,0,0,0,79,0,10.715491,106.704086
/ho-chi-minh/yen-nhi-2-com-binh-dan/binh-luan,Yến Nhi 2 - Cơm Bình Dân,"1289 Lê Văn Lương, Xã Phước Kiển",699,880688,2,0.0,1,0,0,0,29,1,10.695887,106.704865
/ho-chi-minh/thao-u-bo-la-lot-goi-cuon/binh-luan,"Thảo Ú Bò Lá Lốt, Gỏi Cuốn","2203 Huỳnh Tấn Phát, Thị Trấn Nhà Bè",699,1078338,2,0.0,0,0,0,0,34,0,10.6879431,106.7427576
/ho-chi-minh/bong-tea-tra-lipton-gia-lai-tra-sen-que/binh-luan,Bông Tea - Trà Lipton Gia Lai & Trà Sen Quế,"90/3 Dương Cát Lợi, Thị Trấn Nhà Bè",699,1085057,2,0.0,0,0,0,0,15,0,10.701124,106.741559
/ho-chi-minh/linh-thang-ga-ta-tam-ky-nguyen-van-tao/binh-luan,Linh Thắng - Gà Ta Tam Kỳ - Nguyễn Văn Tạo,"391 Nguyễn Văn Tạo, X. Long Thới",699,1079503,2,0.0,0,0,0,0,21,0,10.6492435,106.7307687
/ho-chi-minh/mega-turkey/binh-luan,MEGA TURKEY,"Lô D Chung Cư Phú Hoàng Anh, 9 Nguyễn Hữu Thọ, Xã Phước Kiển",699,1052146,2,0.0,0,0,0,0,52,0,10.716666,106.703874
/ho-chi-minh/com-ga-xoi-mo-1399-le-van-luong/binh-luan,Cơm Gà Xối Mỡ - 1399 Lê Văn Lương,"1399 Lê Văn Lương, Xã Phước Kiển",699,880676,2,0.0,1,0,0,0,105,0,10.691186,106.702901
/ho-chi-minh/ga-ran-kun-1448-le-van-luong/binh-luan,Gà Rán Kun - 1448 Lê Văn Lương,"1448 Lê Văn Lương, Xã Phước Kiểng",699,747556,2,0.0,3,1,0,0,104,0,10.6880089064628,106.7022356668025
/ho-chi-minh/bun-bo-hue-bun-rieu-le-van-luong/binh-luan,Bún Bò Huế & Bún Riêu - Lê Văn Lương,126 Lê Văn Lương,699,729010,2,0.0,0,1,0,0,43,1,10.7128462,106.701298
/ho-chi-minh/huong-viet-coffee-com-van-phong/binh-luan,Hương Việt - Coffee & Cơm Văn Phòng,"108 Lê Văn Lương, Xã Phước Kiểng",699,743104,2,0.0,7,1,0,0,73,0,10.7126246,106.7013873999999
/ho-chi-minh/khoai-lang-hachi/binh-luan,Khoai Lang Hachi,"1017/65 Lê Văn Lương, Xã Phước Kiển",699,881719,2,0.0,1,0,0,0,32,0,10.710721,106.701351
/ho-chi-minh/hu-tieu-nam-vang-hu-tieu-bo-kho-bun-bo-hue/binh-luan,"Hủ Tiếu Nam Vang, Hủ Tiếu Bò Kho & Bún Bò Huế","54 Lê Văn Lương, P. Phước Kiểng",699,708882,2,0.0,3,2,0,0,50,0,10.711809,106.701488
,SEN TOFU,"113 Đường Số 5, Khu Dân Cư Phú Xuân",699,1086264,2,0.0,1,0,0,0,0,1,10.679766,106.737464
/ho-chi-minh/banh-trang-cay-me/binh-luan,Bánh Tráng Cây Me,"51/2 Hẻm 1886 Huỳnh Tấn Phát, X. Phú Xuấn",699,1078337,2,0.0,0,1,0,0,37,0,10.6948764,106.7375318
/ho-chi-minh/milano-coffee-1024-le-van-luong/binh-luan,Milano Coffee - 1024 Lê Văn Lương,"1204 Lê Văn Lương, Xã Phước Kiển",699,777956,2,0.0,4,0,0,0,35,0,10.700847,106.7040612
/ho-chi-minh/thanh-tam-com-du-mon-binh-dan/binh-luan,Thành Tâm - Cơm Đủ Món Bình Dân,"313 Phạm Hữu Lầu, X. Phước Kiển",699,737309,2,0.0,5,1,0,0,66,0,10.7026953,106.722653
/ho-chi-minh/an-vat-chop-chep-le-van-luong/binh-luan,Ăn Vặt Chóp Chép - Lê Văn Lương,"187A Lê Văn Lương, X. Phước Kiểng",699,1080261,2,0.0,0,0,0,0,28,0,10.7104026987892,106.7025179525229
/ho-chi-minh/mi-bo-vien-be-ngoc-mi-bo-vien-huynh-tan-phat.g4trmu/binh-luan,Mì Bò Viên Bé Ngọc - Mì Bò Viên - Huỳnh Tấn Phát,"2637/21/10 Huỳnh Tấn Phát, P. Phú Xuân",699,1000026521,2,0.0,0,0,0,0,26,0,10.6876956,106.7428255
/ho-chi-minh/cao-coffee-nguyen-van-tao/binh-luan,Cao Coffee - Nguyễn Văn Tạo,"274/17 Nguyễn Văn Tạo, X. Long Thới",699,1080818,2,0.0,0,0,0,0,22,0,10.6519444553009,106.7261777236436
/ho-chi-minh/bep-cua-me-an-vat-nguyen-huu-tho.lgavof/binh-luan,Bếp Của Mẹ - Ăn Vặt - Nguyễn Hữu Thọ,"15A2 Dragon Hill 2 Nguyễn Hữu Thọ, X. Phước Kiển",699,1000026396,2,0.0,0,0,0,0,10,0,10.7093632,106.7098336
/ho-chi-minh/babylon-pho-com-trua-van-phong/binh-luan,Babylon - Phở & Cơm Trưa Văn Phòng,"26 Lê Thị Kỉnh, X. Phước Kiển",699,1000026190,2,0.0,34,1,0,0,46,0,10.7149447,106.7027076
/ho-chi-minh/rong-bien-chien-gion-rong-bien-chay-toi-shop-online/binh-luan,Rong Biển Chiên Giòn & Rong Biển Cháy Tỏi - Shop Online,"Chung Cư Phú Mỹ Thuận, Huỳnh Tấn Phát",699,706892,2,0.0,9,0,0,0,98,0,10.6789919,106.7497194
/ho-chi-minh/abc-cafe-diem-tam/binh-luan,ABC - Cafe & Điểm Tâm,101/29/6A Lê Văn Lương,699,752569,2,0.0,6,0,0,0,97,0,10.707957,106.702863
/ho-chi-minh/ca-phe-san-vuon-thu-gian-nguyen-binh/binh-luan,Cà Phê Sân Vườn Thư Giãn - Nguyễn Bình,"303/2B Nguyễn Bình, Xã Nhơn Đức",699,890729,2,0.0,0,0,0,0,97,0,10.676829,106.705212
/ho-chi-minh/quan-chay-dieu-an/binh-luan,Quán Chay Diệu An,675C Lê Văn Lương,699,786576,2,0.0,0,1,0,0,65,0,10.6794565,106.6996646999999
/ho-chi-minh/dai-quoc-cuong-cafe/binh-luan,Đại Quốc Cường Cafe,"566 Lê Văn Lương, X. Phước Kiển",699,752544,2,0.0,1,0,0,0,46,0,10.7120501,106.7016079
/ho-chi-minh/sashimi-chat-shop-online/binh-luan,Sashimi Chất - Shop Online,"187A Lê Văn Lương, Xã Phước Kiển",699,897692,2,0.0,31,0,0,0,42,0,10.709804,106.702344
/ho-chi-minh/quan-miu-an-vat/binh-luan,Quán Miu - Ăn Vặt,192/19C Huỳnh Tấn Phát,699,743606,2,0.0,24,0,0,0,41,0,10.700749,106.738312
/ho-chi-minh/tra-sua-nagoya/binh-luan,Trà Sữa Nagoya,"124 Nguyễn Bình, Xã Phú Xuân",699,898853,2,0.0,19,0,0,0,54,0,10.676676,106.746739
/ho-chi-minh/banh-tet-tra-cuon-nguyen-huu-tho/binh-luan,Bánh Tét Trà Cuốn - Nguyễn Hữu Thọ,"79 Nguyễn Hữu Thọ, Xã Phước Kiển",699,878913,2,0.0,18,0,0,0,41,0,10.7140500859672,106.7057920840441
/ho-chi-minh/com-tam-dem-189-le-van-luong/binh-luan,Cơm Tấm Đêm - 189 Lê Văn Lương,"189 Lê Văn Lương, Chung Cư Hoàng Anh Gold House, Xã Phước Kiển",699,881727,2,0.0,1,0,0,0,26,0,10.709899,106.702298
/ho-chi-minh/com-ga-nhu-thinh/binh-luan,Cơm Gà Như Thịnh,"123 Lê Văn Lương, Xã Phước Kiểng",699,682099,2,0.0,2,3,0,0,46,0,10.703085,106.704211
/ho-chi-minh/an-vat-thao-chan-ga-sa-tac-banh-trang-shop-online/binh-luan,"Ăn Vặt Thảo - Chân Gà Sả Tắc, Bánh Tráng - Shop Online","2020/50/16 Huỳnh Tấn Phát, tt. Nhà Bè",699,1000026169,2,0.0,0,0,0,0,4,0,10.6892379,106.7419546
/ho-chi-minh/kimchi-korean-food-com-cuon-mi-den-thit-nuong-le-van-luong/binh-luan,"Kimchi Korean Food - Cơm Cuộn, Mì Đen & Thịt Nướng - Lê Văn Lương","986 Lê Văn Lương, Ấp 3, X. Phước Kiển",699,1000025540,2,0.0,0,0,0,0,41,0,10.7092887960134,106.7026451261639
/ho-chi-minh/cau-vong-quan-che-khuc-bach-pizza-pham-huu-lau.kuglzj/binh-luan,Cầu Vồng Quán - Chè Khúc Bạch & Pizza - Phạm Hữu Lầu,"202B Phạm Hữu Lầu, X. Phước Kiển",699,1000025499,2,0.0,0,0,0,0,34,0,10.7044137,106.730068
/ho-chi-minh/tau-hu-thai-an-vat-huynh-tan-phat.ib865s/binh-luan,Tàu Hủ Thái - Ăn Vặt - Huỳnh Tấn Phát,"1806/141 Huỳnh Tấn Phát, Phú Xuân",699,1000024776,2,0.0,0,1,0,0,14,0,10.6792342,106.7512163
/ho-chi-minh/unni-tokbokki-chung-cu-phu-hoang-anh/binh-luan,Unni Tokbokki - Chung Cư Phú Hoàng Anh,"Block D Chung Cư Phú Hoàng Anh, Số 9 Nguyễn Hữu Thọ, X. Phước Kiển",699,1078626,2,0.0,0,0,0,0,38,0,10.7170850835129,106.70382142067
/ho-chi-minh/anh-em-coffee/binh-luan,Anh & Em Coffee,"882 Nguyễn Văn Tạo, P. Hiệp Phước",699,228067,2,0.0,1,1,0,0,66,1,10.6269495642019,106.7370345362701
/ho-chi-minh/sushi-akiko-huynh-tan-phat/binh-luan,Sushi Akiko - Huỳnh Tấn Phát,"4/5 Hẻm 382, Huỳnh Tấn Phát, Xã Phú Xuân",699,1040970,2,0.0,1,0,0,0,33,1,10.6915602535846,106.7386019602417
/ho-chi-minh/tra-sua-nhoc-bill/binh-luan,Trà Sữa Nhóc Bill,"195 Lê Văn Lương, P. Phước Kiểng",699,708866,2,0.0,5,1,0,0,95,0,10.708206,106.70262
/ho-chi-minh/quan-duong-bo-ne-chao-ech-singapore/binh-luan,Quán Dương - Bò Né & Cháo Ếch Singapore,"1322 Lê Văn Lương, Ấp 2, Xã Phước Kiển",699,880501,2,0.0,1,0,0,0,91,0,10.697514,106.704599
/ho-chi-minh/hunny-bunny-tiem-banh-online/binh-luan,Hunny Bunny - Tiệm Bánh Online,1979/5/39 Huỳnh Tấn Phát,699,223500,2,0.0,0,0,0,0,90,1,10.696768,106.739777
/ho-chi-minh/coffee-61/binh-luan,Coffee 61,"61 Lê Văn Lương, X. Phước Kiển",699,752451,2,0.0,1,0,0,0,31,0,10.711212,106.701803
/ho-chi-minh/quan-com-a-vu-le-van-luong/binh-luan,Quán Cơm A Vũ - Lê Văn Lương,"1017/16 Lê Văn Lương, P. Phước Kiển",699,1019423,2,0.0,0,0,0,0,18,0,10.712742,106.701932
/ho-chi-minh/hai-san-lagi-binh-thuan-shop-online/binh-luan,Hải Sản Lagi Bình Thuận - Shop Online,"131 Lê Văn Lương, P. Phước Kiển",699,910844,2,0.0,16,0,0,0,50,0,10.706113,106.703343
/ho-chi-minh/hoi-ngo-cafe-nguyen-van-tao/binh-luan,Hội Ngộ Cafe - Nguyễn Văn Tạo,"58/70 Nguyễn Văn Tạo, Xã Long Thới",699,901937,2,0.0,12,0,0,0,65,0,10.661551,106.726325
/ho-chi-minh/com-binh-dan-86-le-van-luong/binh-luan,Cơm Bình Dân,86 Lê Văn Lương,699,260358,2,0.0,0,0,0,0,47,1,10.707927,106.705169
/ho-chi-minh/sugar-mammy-banh-huynh-tan-phat.nghgpj/binh-luan,Sugar Mammy - Bánh - Huỳnh Tấn Phát,"1716  Huỳnh Tấn Phát, TT. Nhà Bè",699,1000024224,2,0.0,0,0,0,0,7,0,10.6997336,106.7374996
/ho-chi-minh/hai-san-kim-bao-khang-hai-san-nguyen-huu-tho.el3m0h/binh-luan,Hải Sản Kim Bảo Khang - Hải Sản - Nguyễn Hữu Thọ,"12 Nguyễn Hữu Thọ, X. Phước Kiển",699,1000023429,2,0.0,0,1,0,0,12,0,10.7121295,106.7073092
/ho-chi-minh/banh-xeo-mien-trung-banh-xeo-nguyen-van-tao.kw6hnz/binh-luan,Bánh Xèo Miền Trung - Bánh Xèo - Nguyễn Văn Tạo,"322 Nguyễn Văn Tạo, X. Long Thới",699,1000023276,2,0.0,0,0,0,0,19,0,10.6473074,106.7311003
/ho-chi-minh/bep-au/binh-luan,Bếp Âu ,"Lô D Chung Cư Phú Hoàng Oanh, 9 Nguyễn Hữu Thọ, P. Phước Kiển",699,1050977,2,0.0,0,0,0,0,33,0,10.716705,106.703828
/ho-chi-minh/com-tam-a-tu/binh-luan,Cơm Tấm A Tú - Lê Văn Lương,"1086 Lê Văn Lương, X. Phước Kiển",699,1045986,2,0.0,0,0,0,0,89,0,10.700624,106.704138
/ho-chi-minh/quan-thang-com-chao-long/binh-luan,Quán Thắng - Cơm & Cháo Lòng,"101/14 Lê Văn Lương, X. Phước Kiển",699,752413,2,0.0,1,0,0,0,88,0,10.7073721,106.7030349
/ho-chi-minh/mystery-bean-house-of-coffee/binh-luan,Mystery Bean - House Of Coffee,"74 The Park Residence, Nguyễn Hữu Thọ, Xã Phước Kiển",699,850126,2,0.0,0,0,0,0,88,0,10.712388,106.707008
/ho-chi-minh/sa-ke-coffee-diem-tam-sang/binh-luan,Sa Kê - Coffee & Điểm Tâm Sáng,166E Lê Văn Lương,699,752462,2,0.0,1,0,0,0,88,0,10.705118,106.702731
/ho-chi-minh/haru-coffee/binh-luan,Haru Coffee,"Làng Đại Học Khu B, Lê Văn Lương",699,629735,2,0.0,0,0,0,0,87,0,10.7104142,106.7052281999999
/ho-chi-minh/avinas-coffee-le-van-luong/binh-luan,Avinas Coffee - Lê Văn Lương,"989 Lê Văn Lương, X. Phước Kiển",699,880314,2,0.0,0,0,0,0,44,0,10.711077,106.701964
/ho-chi-minh/9-tea-tea-coffee/binh-luan,9 Tea - Tea & Coffee,"1018 Lê Văn Lương, Ấp 3, P. Phước Kiển",699,1068806,2,0.0,0,0,0,0,15,0,10.709933,106.70193
/ho-chi-minh/con-cung-cao-oc-phu-hoang-anh-171/binh-luan,Con Cưng - Cao Ốc Phú Hoàng Anh - 171,"Cao Ốc Phú Hoàng Anh, Nguyễn Hữu Thọ, P. Phước Kiển",699,290445,2,0.0,0,0,0,0,75,1,10.716729,106.7038
/ho-chi-minh/tra-sua-bing-su/binh-luan,Trà Sữa Bing Su,18 Dương Cát Lợi,699,700327,2,0.0,0,0,0,0,62,1,10.7015368,106.7394528
/ho-chi-minh/banh-cuon-ba-khe-le-van-luong/binh-luan,Bánh Cuốn Ba Khế - Lê Văn Lương,"1367 Lê Văn Lương, X. Phước Kiển",699,1072474,2,0.0,0,0,0,0,33,1,10.692611,106.703528
/ho-chi-minh/hu-tieu-le-van-luong/binh-luan,Hủ Tiếu Vỉa Hè - Lê Văn Lương,"Hẻm 1168 Lê Văn Lương, Xã Phước Kiển",699,146248,2,0.0,0,1,0,0,81,1,10.7042766506415,106.7035907506942
/ho-chi-minh/xoi-xeo-ha-noi-nguyen-huu-tho/binh-luan,Xôi Xéo Hà Nội - Nguyễn Hữu Thọ,"Nguyễn Hữu Thọ, P. Phước Kiểng",699,290442,2,0.0,0,0,0,0,56,1,10.688273,106.719732
/ho-chi-minh/quan-pho-bo-kho-le-van-luong/binh-luan,Quán Phở & Bò Kho - Lê Văn Lương,979 Lê Văn Lương,699,655240,2,0.0,4,0,0,0,49,0,10.7050864179105,106.7036521062255
/ho-chi-minh/bun-bo-hue-112-le-van-luong/binh-luan,Bún Bò Huế - 112 Lê Văn Lương,"112 Lê Văn Lương, Xã Phước Kiển",699,708875,2,0.0,3,0,0,0,52,0,10.705263,106.703851
/ho-chi-minh/your-mediterenian-chief-doner-kebab/binh-luan,Your Mediterranean Chief,"Lô D Chung Cư Phú Hoàng Anh, 9 Nguyễn Hữu Thọ, Xã Phước Kiển",699,1051012,2,0.0,0,0,0,0,37,0,10.716762,106.703771
/ho-chi-minh/anh-son-bun-thit-nuong-huynh-tan-phat.be3g6h/binh-luan,Ánh Sơn - Bún Thịt Nướng - Huỳnh Tấn Phát,"23/11 Huỳnh Tấn Phát, Thị Trấn Nhà Bè",699,1000022693,2,0.0,0,0,0,0,11,0,10.702105,106.738041
/ho-chi-minh/com-bo-cham-pa-com-bo-nuong-nguyen-huu-tho.m3vqkz/binh-luan,Cơm Bò Chăm Pa - Cơm Bò Nướng  - Nguyễn Hữu Thọ,"Block C Chung Cư Sunrise Riverside, Nguyễn Hữu Thọ",699,1000022482,2,0.0,0,0,0,0,15,0,10.7228354,106.703464
/ho-chi-minh/the-prime-saigon-healthy-drinks-desserts/binh-luan,The Prime Saigon - Healthy Drinks & Desserts,"B.1.01 Sunrise Riverside, Nguyễn Hữu Thọ, X. Phước Kiển",699,1072768,2,0.0,0,0,0,0,36,0,10.722235,106.704166
/ho-chi-minh/an-vat-panda-shop-online-nguyen-huu-tho/binh-luan,Ăn Vặt PanDa - Shop Online,"B2 CC The Park Pesidence Nguyễn Hữu Thọ, Xã Phước Kiển",699,1069712,2,0.0,0,0,0,0,27,0,10.7122543,106.7073178
/ho-chi-minh/quan-an-dac-san-mien-trung-huynh-tan-phat/binh-luan,Quán Ăn Đặc Sản Miền Trung - Huỳnh Tấn Phát,1745 Huỳnh Tấn Phát,699,951849,2,0.0,0,1,0,0,65,0,10.701834,106.738105
/ho-chi-minh/my-my-tra-sua-sinh-to-an-vat/binh-luan,"Mỹ Mỹ - Trà Sữa, Sinh Tố & Ăn Vặt","1716/46/26D Đối Diện Sân Banh Mini Huỳnh Tấn Phát, Phú Xuân",699,1029103,2,0.0,0,0,0,0,26,0,10.7472938174676,106.7275022999223
/ho-chi-minh/royaltea-viet-nam-tra-sua-hong-kong-sunrise-riverside/binh-luan,Royaltea Việt Nam - Trà Sữa Hồng Kông - Sunrise Riverside,"Tầng G, Tháp B, B01.05 Sunrise Riverside, Nguyễn Hữu Thọ, Xã Phước Kiển",699,1036082,2,0.0,0,0,0,0,55,0,10.722341,106.704001
/ho-chi-minh/yen-hoang-gia-che-duong-nhan/binh-luan,Yến Hoàng Gia - Chè Dưỡng Nhan,"103 Đường Số 7, Xã Phú Xuân",699,1042581,2,0.0,0,0,0,0,39,0,10.681995,106.7347
/ho-chi-minh/hello-mam-shop-thuc-pham-online/binh-luan,Hello Măm - Shop Thực Phẩm Online,"Khu A1, Chung Cư Hoàng Anh Gold House, 187A Lê Văn Lương, Xã Phước Kiển",699,667031,2,0.0,0,0,0,0,84,0,10.7103953,106.7030032999999
/ho-chi-minh/quan-sao-bien-nhau-binh-dan/binh-luan,Quán Sao Biển - Nhậu Bình Dân,Đường Liên Ấp 3-4,699,688706,2,0.0,0,0,0,0,82,0,10.6059130909328,106.7201346158981
/ho-chi-minh/yumi-sinh-to-tra-sua/binh-luan,Yumi - Sinh Tố & Trà Sữa,"1023 Lê Văn Lương, Xã Phước Kiển",699,708297,2,0.0,8,0,0,0,43,0,10.702085,106.704221
/ho-chi-minh/quan-o-hoa-bun-bo-hue-mi-quang/binh-luan,Quán O Hoả - Bún Bò Huế & Mì Quảng,"915/20 Lê Văn Lương, P. Phước Kiển",699,730714,2,0.0,8,2,0,0,30,0,10.714727,106.702576
/ho-chi-minh/ka-coffee-huynh-tan-phat/binh-luan,KA Coffee - Huỳnh Tấn Phát,"789 Huỳnh Tấn Phát, Xã Phú Xuân",699,881087,2,0.0,7,0,0,0,54,0,10.678252,106.753897
/ho-chi-minh/la-tra-tra-sua-coffee/binh-luan,Lá Trà - Trà Sữa & Coffee,2314 Huỳnh Tấn Phát,699,716261,2,0.0,6,0,0,0,55,0,10.682993,106.7462037
/ho-chi-minh/xi-pho-food-banh-trang-chan-ga-lac-sate/binh-luan,Xì Phố Food - Bánh Tráng & Chân Gà Lắc Sate,"1368/59/1 Lê Văn Lương, X. Phước Kiển",699,974843,2,0.0,0,0,0,0,65,0,10.6938865,106.7027708
/ho-chi-minh/ga-tam-ot-nguyen-binh/binh-luan,Gà Tắm Ớt - Nguyễn Bình,"21/4B Nguyễn Bình, Xã Phú Xuân",699,1029524,2,0.0,1,0,0,0,16,0,10.675536,106.742228
/ho-chi-minh/hu-tieu-muc-a-hieu/binh-luan,Hủ Tiếu Mực A Hiếu,"1048 Lê Văn Lương, P. Phước Kiển",699,1063314,2,0.0,0,0,0,0,36,0,10.709009,106.702514
/ho-chi-minh/balcony-milktea-coffee/binh-luan,Balcony Milktea & Coffee,"103 Đường Số 7, P. Phú Xuân",699,1055092,2,0.0,0,0,0,0,18,0,10.6819456700945,106.7347189978033
/ho-chi-minh/quang-duy-dau-phong-me-cay-online/binh-luan,Quang Duy - Đậu Phộng Mè Cay Online,53 Dương Cát Lợi,699,239589,2,0.0,3,0,0,0,81,0,10.7021102325361,106.7434906214475
/ho-chi-minh/co-van-an-vat-goi-cuon/binh-luan,Cô Vân - Ăn Vặt & Gỏi Cuốn,"915/21/5/8 Lê Văn Lương, Xã Phước Kiểng",699,776866,2,0.0,3,0,0,0,81,0,10.6918526,106.7021357
/ho-chi-minh/mr-sam-nuoc-mat-organic-shop-online/binh-luan,Mr Sam - Nước Mát Organic - Shop Online,"B4-23.03 Chung Cư The Park Residence, Nguyễn Hữu Thọ",699,707757,2,0.0,0,0,0,0,81,0,10.7118696,106.7080306
/ho-chi-minh/banh-mi-cha-ca-thu/binh-luan,Bánh Mì Chả Cá Thu,"182 Lê Văn Lương, Xã Phước Kiển",699,881998,2,0.0,1,0,0,0,13,0,10.710282,106.702174
/ho-chi-minh/quan-com-73d/binh-luan,Quán Cơm 73D,73D Lê Văn Lương,699,716292,2,0.0,6,0,0,0,35,0,10.7100507,106.7022409
/ho-chi-minh/quan-an-gia-dinh-15h/binh-luan,Quán Ăn Gia Đình 15H,1933 Huỳnh Tấn Phát,699,660385,2,0.0,6,0,0,0,48,0,10.6977559356972,106.7390827462077
/ho-chi-minh/cafe-hat-rang-xay-nguyen-chat/binh-luan,Cafe Hạt Rang Xay Nguyên Chất,Hẻm 5 Lê Văn Lương,699,716271,2,0.0,6,0,0,0,45,0,10.7156352672561,106.702622808516
/ho-chi-minh/tra-sua-nha-lam-le-van-luong/binh-luan,Trà Sữa Nhà Làm - Lê Văn Lương,915/15 Lê Văn Lương,699,716283,2,0.0,6,0,0,0,40,0,10.7002666565179,106.7042478919029
/ho-chi-minh/quan-vit-co-tu/binh-luan,Quán Vịt Cô Tư,113/2 Huỳnh Tấn Phát,699,1065744,2,0.0,6,0,0,0,7,0,10.674944,106.765015
/ho-chi-minh/tra-sua-teen-love/binh-luan,Trà Sữa Teen Love,"305P Lê Văn Lương, P. Phước Kiểng",699,708865,2,0.0,5,0,0,0,46,0,10.700678,106.704146
/ho-chi-minh/nhan-tin-hu-tieu-nam-vang/binh-luan,Nhân Tín - Hủ Tiếu Nam Vang,1988 Huỳnh Tấn Phát,699,716249,2,0.0,5,0,0,0,53,0,10.6924682323518,106.7409763857722
/ho-chi-minh/quan-pho-y/binh-luan,Quán Phở Ý,"12/2A Huỳnh Tấn Phát, Xã Phú Xuân",699,716270,2,0.0,5,0,0,0,39,0,10.7023668695526,106.7381305620074
/ho-chi-minh/asint-coffee-tea/binh-luan,Asint Coffee & Tea,"824/2 Nguyễn Bình, Xã Nhơn Đức",699,1061031,2,0.0,0,0,0,0,26,0,10.677176,106.705266
/ho-chi-minh/lucas-coffee-kdc-cotec/binh-luan,Lucas Coffee - KDC Cotec,"A10/02 KDC Cotec, Xã Phú Xuân",699,1000816,2,0.0,4,0,0,0,56,0,10.680745,106.738703
/ho-chi-minh/tiem-cua-to-sinh-to-an-vat/binh-luan,Tiệm Của Tờ - Sinh Tố & Ăn Vặt,"1368/44 Lê Văn Lương, X. Phước Kiểng, T.T Nhà Bè",699,1048038,2,0.0,0,0,0,0,26,0,10.69531,106.7048168
/ho-chi-minh/com-tam-cha-ba/binh-luan,Cơm Tấm Chà Bá,"44 Lê Văn Lương, Xã Phước Kiển",699,274599,2,0.0,0,0,0,0,76,0,10.702192,106.703941
/ho-chi-minh/thao-nguyen-com-binh-dan-chao-ga/binh-luan,Thảo Nguyên - Cơm Bình Dân & Cháo Gà,"167/2 Phạm Hữu Lầu, X. Phước Kiển",699,738050,2,0.0,4,0,0,0,74,0,10.7016573,106.7207579
/ho-chi-minh/chao-dinh-duong-panda-hiep-phuoc/binh-luan,Cháo Dinh Dưỡng Panda Hiệp Phước,"625 Nguyễn Văn Tạo, P. Hiệp Phước",699,1078319,2,0.0,0,0,0,0,35,0,10.6350329,106.7352629
/ho-chi-minh/ashley-s-snack/binh-luan,Ashley's Snack,"2266/14/33/13C Huỳnh Tấn Phát, P. Phú Xuân",699,1078317,2,0.0,0,0,0,0,46,0,10.6834235,106.7438094
/ho-chi-minh/milano-coffee-966-le-van-luong/binh-luan,Milano Coffee - 966 Lê Văn Lương,"966 Lê Văn Lương, X. Phước Kiển",699,238415,2,0.0,2,0,0,0,97,0,10.7095266,106.7022604
/ho-chi-minh/haci-coffee-hoang-anh-gold-house/binh-luan,Haci Coffee - Hoàng Anh Gold House,"187A Lê Văn Lương, Chung Cư Hoàng Anh Gold House, Xã Phước Kiển",699,881728,2,0.0,1,0,0,0,38,0,10.709899,106.702298
/ho-chi-minh/amigo-coffee-hoang-anh-gold-house/binh-luan,Amigo Coffee - Hoàng Anh Gold House,"Kiot 12, 187A Lê Văn Lương, Chung Cư Hoàng Anh Gold House, Xã Phước Kiển",699,881729,2,0.0,1,0,0,0,28,0,10.709899,106.702298
/ho-chi-minh/sup-cua-ga-xe-huynh-tan-phat/binh-luan,Súp Cua Gà Xé - Huỳnh Tấn Phát,1944 Huỳnh Tấn Phát,699,212399,2,7.0,2,0,1,1,343,1,10.693898,106.740252
/ho-chi-minh/banh-mi-pha-lau-bo/binh-luan,Bánh Mì Phá Lấu Bò,"255A Lê Văn Lương, Xã Phước Kiển",699,875779,2,0.0,5,1,0,0,73,0,10.706547,106.703326
/ho-chi-minh/nguyen-phuc-milk-tea-coffee/binh-luan,Nguyên Phúc - Milk Tea & Coffee,185C Lê Văn Lương,699,238554,2,0.0,5,0,0,0,69,0,10.708118,106.7027699999999
/ho-chi-minh/tra-sua-pink-tea/binh-luan,Trà Sữa Pink Tea,"45 Lê Văn Lương, Xã Phước Kiểng",699,785335,2,0.0,5,0,0,0,68,0,10.698722,106.704426
/ho-chi-minh/kim-chi-han-quoc-shop-online-nguyen-binh/binh-luan,Kim Chi Hàn Quốc - Shop Online,"61/7/4 Nguyễn Bình, P. Phú Xuân",699,283215,2,0.0,4,0,0,0,66,0,10.6780659,106.7534913
/ho-chi-minh/tra-sua-thai-an/binh-luan,Trà Sữa Thái An,"167A Lê Văn Lương, Xã Phước Kiểng",699,682097,2,0.0,4,0,0,0,55,0,10.705212,106.7028769999999
/ho-chi-minh/hue-ngay-xua-the-coffee/binh-luan,Huế Ngày Xưa The Coffee,2234 Huỳnh Tấn Phát,699,682836,2,0.0,4,0,0,0,33,0,10.684079,106.745169
/ho-chi-minh/com-ga-an-ky/binh-luan,Cơm Gà An Ký,"327 Nguyễn Văn Tạo, Xã Long Thới",699,955220,2,0.0,0,0,0,0,14,0,10.65145,106.729977
/ho-chi-minh/helthy-food-nguyen-huu-tho/binh-luan,Helthy Food - Nguyễn Hữu Thọ,"Chung Cư The Park, 12 Nguyễn Hữu Thọ , Xã Phước Kiển",699,1053968,2,0.0,0,0,0,0,28,0,10.7121303486925,106.7072958035124
/ho-chi-minh/son-trang-coffee/binh-luan,Sơn Trang Coffee,"1248 Lê Văn Lương, X. Phước Kiển",699,1050906,2,0.0,0,0,0,0,57,0,10.7008224751982,106.7039943786932
/ho-chi-minh/oc-trang-le-van-luong/binh-luan,Ốc Trang - Lê Văn Lương,"221 Lê Văn Lương, Xã Phước Kiển",699,881152,2,0.0,1,0,0,0,74,0,10.708257,106.702829
/ho-chi-minh/hot-vit-lon-cut-lon-xao-me-hoang-anh-gold-house/binh-luan,Hột Vịt Lộn & Cút Lộn Xào Me - Hoàng Anh Gold House,"187A Lê Văn Lương, Chung Cư Hoàng Anh Gold House, Xã Phước Kiển",699,881993,2,0.0,1,0,0,0,72,0,10.710037,106.702511
/ho-chi-minh/nha-hang-duck-tac/binh-luan,Nhà Hàng Duck Tac,"D0.03 Nguyễn Hữu Thọ, Khu phố Sài Gòn South Residences, Ấp 5, X. Phước Kiến",699,1076224,2,0.0,0,0,0,0,61,0,10.7232467,106.7043948
/ho-chi-minh/mochi-mochi-kem-tu-chon-le-van-luong/binh-luan,Mochi Mochi - Kem Tự Chọn - Lê Văn Lương,"187A Lê Văn Lương, P. Phước Kiển",699,1073136,2,0.0,0,0,0,0,38,0,10.7101755,106.7024415
/ho-chi-minh/mon-tea-coffee/binh-luan,Mon -  Tea & Coffee,"Phan Văn Bảy, Xã Hiệp Phước",699,775086,2,0.0,4,0,0,0,58,0,10.632017,106.735977
/ho-chi-minh/phan-linh-bun-rieu-banh-uot/binh-luan,Phan Linh - Bún Riêu & Bánh Ướt,"2443 Huỳnh Tấn Phát, Ấp 4, Xã Phú Xuân",699,757997,2,0.0,4,0,0,0,28,0,10.681082,106.747533
/ho-chi-minh/quan-668-ga-ran-ca-vien-chien/binh-luan,Quán 668 - Gà Rán & Cá Viên Chiên,"1407 Lê Văn Lương, Xã Phước Kiển",699,747549,2,0.0,4,0,0,0,60,0,10.6897570868922,106.702266131354
/ho-chi-minh/ga-ran-kun-le-van-luong/binh-luan,Gà Rán Kun - Lê Văn Lương,"1364A Lê Văn Lương, Xã Phước Kiển",699,747563,2,0.0,4,0,0,0,34,0,10.6900869304056,106.7025366975594
/ho-chi-minh/banh-mi-hoang-vu/binh-luan,Bánh Mì Hoàng Vũ,"151 Lê Văn Lương, Xã Phước Kiển",699,708299,2,0.0,4,0,0,0,53,0,10.70379,106.7035980000001
/ho-chi-minh/nuoc-cam-tra-tac-xi-muoi/binh-luan,Nước Cam & Trà Tắc Xí Muội,"1026 Lê Văn Lương, Xã Phước Kiển",699,949928,2,0.0,4,0,0,0,44,0,10.700625,106.704149
/ho-chi-minh/com-tam-ngon-le-van-luong/binh-luan,Cơm Tấm Ngon - Lê Văn Lương,"584 Lê Văn Lương, Phước Kiển",699,880495,2,0.0,1,0,0,0,29,0,10.7028261141976,106.7036474123597
/ho-chi-minh/quan-minh-duc-com-chien-mi-xao/binh-luan,Quán Minh Đức - Cơm Chiên & Mì Xào,"2217 Huỳnh Tấn Phát, T.T Nhà Bè",699,1050969,2,0.0,0,0,0,0,26,0,10.6877590706928,106.7428261450584
/ho-chi-minh/mia-mix/binh-luan,Mía - Mix,"2266/12 Huỳnh Tấn Phát, P. Phú Xuân",699,1029276,2,0.0,0,0,0,0,40,0,10.6820483042798,106.7457889720203
/ho-chi-minh/gu-coffee-huynh-tan-phat/binh-luan,Gu Coffee - Huỳnh Tấn Phát,"17/2B Huỳnh Tấn Phát, TT. Nhà Bè",699,716252,2,0.0,6,0,0,0,57,0,10.6980775,106.7390381
/ho-chi-minh/thanh-van-trai-cay-to-kem-dia/binh-luan,Thanh Vân - Trái Cây Tô & Kem Dĩa,"1431 Lê Văn Lương, Xã Phước Kiển",699,747554,2,0.0,2,0,0,0,70,0,10.689520719998,106.7023107209852
/ho-chi-minh/dasumy-bakery-coffee/binh-luan,Dasumy Bakery & Coffee,"A14B - KCN Hiệp Phước, Nguyễn Văn Tạo",699,291685,2,0.0,0,0,0,0,69,0,10.6447577862904,106.7321884632111
/ho-chi-minh/ga-nuong-muoi-ot-287-le-van-luong/binh-luan,Gà Nướng Muối Ớt - Lê Văn Lương,"287 Lê Văn Lương (Số Cũ 1123), Ấp 3, X. Phước Kiểng",699,1024235,2,0.0,0,1,0,1,68,0,10.700553,106.7041045
/ho-chi-minh/dl1998-milano-hcm/binh-luan,DL1998 - Milano HCM,"Chung Cư The Park Residence, Nguyễn Hữu Thọ, P. Phước Kiển",699,1071892,2,0.0,0,0,0,0,4,0,10.7101201,106.7085957
/ho-chi-minh/bun-cha-ha-noi-banh-da/binh-luan,Bún Chả Hà Nội & Bánh Đa,101/8 Lê Văn Lương,699,803118,2,0.0,4,0,0,0,38,0,10.7094702,106.7024117
/ho-chi-minh/quan-com-9-thanh/binh-luan,Quán Cơm 9 Thanh,"1120 Lê Văn Lương, Phước Kiển",699,880490,2,0.0,1,0,0,0,18,0,10.7095251270924,106.7024461562515
/ho-chi-minh/bo-ne-mi-xao-bo-le-van-luong/binh-luan,Bò Né & Mì Xào Bò - Lê Văn Lương,"254A Lê Văn Lương, Phước Kiển",699,880492,2,0.0,1,0,0,0,32,0,10.7095251270924,106.7024461562515
/ho-chi-minh/sinh-to-nuoc-ep-tra-sua-hoang-anh-gold-house/binh-luan,"Sinh Tố, Nước Ép & Trà Sữa - Hoàng Anh Gold House","187A Lê Văn Lương, Chung Cư Hoàng Anh Gold House, Xã Phước Kiển",699,881985,2,0.0,1,0,0,0,24,0,10.710037,106.702501
/ho-chi-minh/gold-house-cafe/binh-luan,Gold House Cafe,"187A Lê Văn Lương, Chung Cư Hoàng Anh Gold House, Xã Phước Kiển",699,881994,2,0.0,1,0,0,0,27,0,10.710037,106.702511
/ho-chi-minh/banh-trang-nuong-da-lat-le-van-luong/binh-luan,Bánh Tráng Nướng Đà Lạt - Lê Văn Lương,"1299 Lê Văn Lương, Xã Phước Kiển",699,777953,2,0.0,4,1,0,0,46,0,10.6959298,106.7049634
/ho-chi-minh/berry-coffee-nguyen-huu-tho/binh-luan,Berry Coffee,"A1 Nguyễn Hữu Thọ, Xã Phước Kiển",699,238397,2,0.0,3,0,0,0,61,0,10.7022694,106.7139273
/ho-chi-minh/5717-coffee/binh-luan,5717 Coffee,"2279/97/5 Huỳnh Tấn Phát, TT. Nhà Bè",699,988414,2,0.0,3,0,0,0,30,0,10.689923183406,106.744789481163
/ho-chi-minh/banh-cuon-nong-le-van-luong/binh-luan,Bánh Cuốn Nóng - Lê Văn Lương,"915/37 Lê Văn Lương, Xã Phước Kiển",699,882222,2,0.0,1,1,0,0,68,0,10.707554,106.703077
/ho-chi-minh/com-ga-49/binh-luan,Cơm Gà 49,"49B Lê Văn Lương, Xã Phước Kiển",699,880497,2,0.0,1,2,0,0,67,0,10.697552,106.704643
/ho-chi-minh/chao-long-bo-kho-bun-mang-vit/binh-luan,"Cháo Lòng, Bò Kho & Bún Măng Vịt","2319 Huỳnh Tấn Phát, Khu Phố 7, TT. Nhà Bè",699,1041424,2,0.0,0,0,0,0,66,0,10.68774,106.742799
/ho-chi-minh/daisy-by-yen-ori/binh-luan,Daisy By Yen Ori,"412 Nguyễn Bình, Ấp 1, Xã Phú Xuân",699,1064417,2,0.0,0,0,0,0,8,0,10.674178,106.735338
/ho-chi-minh/chao-hen-rau-dang-le-van-luong/binh-luan,Cháo Hến Rau Đắng - Lê Văn Lương,"1017/2 Lê Văn Lương, Xã Phước Kiển",699,881723,2,0.0,1,0,0,0,36,0,10.709598,106.702542
/ho-chi-minh/huong-giang-coffee/binh-luan,Hương Giang Coffee,"1017A Lê Văn Lương, X. Phước Kiển",699,752419,2,0.0,1,0,0,0,45,0,10.7096877,106.7025852
/ho-chi-minh/dac-san-luon-dong-xu-nghe-hoang-anh-gold-house/binh-luan,Đặc Sản Lươn Đồng Xứ Nghệ - Hoàng Anh Gold House,"187A Lê Văn Lương, Chung Cư Hoàng Anh Gold House, Xã Phước Kiển",699,881730,2,0.0,1,0,0,0,26,0,10.71008,106.702626
/ho-chi-minh/banh-mi-ha-noi-113-le-van-luong/binh-luan,Bánh Mì Hà Nội - 113 Lê Văn Lương,"113 Lê Văn Lương, Xã Phước Kiển",699,708863,2,0.0,3,0,0,0,30,0,10.704842,106.703897
/ho-chi-minh/quan-suong-banh-canh-cha-ca-bun-cha-ca/binh-luan,Quán Sương - Bánh Canh Chả Cá & Bún Chả Cá,"1181 Lê Văn Lương, Xã Phước Kiển",699,708867,2,0.0,3,1,0,0,40,0,10.700755,106.70418
/ho-chi-minh/hang-duong-che-sinh-to-an-vat/binh-luan,"Hàng Dương - Chè, Sinh Tố & Ăn Vặt",1193 Lê Văn Lương,699,708870,2,0.0,3,0,0,0,39,0,10.692896,106.704183
/ho-chi-minh/phuong-bun-thit-nuong/binh-luan,Phượng Bún Thịt Nướng," 18 Lê Văn Lương, Xã Phước Kiển",699,943579,2,0.0,3,0,0,0,12,0,10.695213,106.704844
/ho-chi-minh/tan-loc-chao-long-banh-hoi/binh-luan,Tấn Lộc - Cháo Lòng & Bánh Hỏi,"1017/28 Lê Văn Lương, Xã Phước Kiểng",699,748052,2,0.0,3,0,0,0,52,0,10.701085397307,106.7039511738344
/ho-chi-minh/banh-mi-cha-ca-nong-5s/binh-luan,Bánh Mì Chả Cá Nóng 5S,"951 Lê Văn Lương, P. Phước Kiển",699,767196,2,0.0,0,0,0,0,29,0,10.700575,106.704104
/ho-chi-minh/hien-s-bakery-banh-su-kem-shop-online/binh-luan,Hien's Bakery - Bánh Su Kem - Shop Online,"2020/50/4 Huỳnh Tấn Phát, Xã Phú Xuân",699,1027108,2,0.0,0,0,0,0,46,0,10.690673,106.739909
/ho-chi-minh/son-linh-hot-vit-lon-ca-vien/binh-luan,Sơn Linh - Hột Vịt Lộn & Cá Viên,"Đầu Hẻm 1000 Đường Lê Văn Lương, Ấp 3, X. Phước Kiển",699,1024889,2,0.0,0,1,0,0,54,0,10.709174737016,106.7026324041479
/ho-chi-minh/muc-dong-khoai-lang-mat-trai-cay-tuoi/binh-luan,Mục Đồng - Khoai Lang Mật & Trái Cây Tươi,"915/74/14 Lê Văn Lương, X. Phước Kiển",699,1036226,2,0.0,0,0,0,0,46,0,10.712163,106.704949
/ho-chi-minh/nuoc-ep-sinh-to-sai-gon-le-van-luong/binh-luan,Nước Ép Sinh Tố Sài Gòn - Lê Văn Lương,"1448 Lê Văn Lương, Xã Phước Kiểng, X. Nhơn Đức",699,747555,2,0.0,2,0,0,0,65,0,10.6877669,106.7021486
/ho-chi-minh/aka-milk-tea-huynh-tan-phat/binh-luan,AKA Milk Tea - Huỳnh Tấn Phát,"1942/16 Huỳnh Tấn Phát, KP. 6",699,904328,2,0.0,0,2,0,0,64,0,10.693882,106.739952
/ho-chi-minh/nguyen-coffee-dragon-parc-2/binh-luan,Nguyên Coffee - Dragon Parc 2,"DP06 Dragon Parc 2, Nguyễn Hữu Thọ, Xã Phước Kiển",699,1060319,2,0.0,0,0,0,0,15,0,10.6928216813,106.7191006347391
/ho-chi-minh/com-tam-dem-com-trua-bun-thit-nuong/binh-luan,"Cơm Tấm Đêm, Cơm Trưa & Bún Thịt Nướng","1017 Lê Văn Lương, Xã Phước Kiển",699,881724,2,0.0,1,0,0,0,15,0,10.709663,106.702639
/ho-chi-minh/hu-tiu-banh-canh-hot-vit-lon/binh-luan,"Hủ Tíu, Bánh Canh & Hột Vịt Lộn","89 Lê Văn Lương, Xã Phước Kiển",699,881150,2,0.0,1,0,0,0,25,0,10.708799,106.70259
/ho-chi-minh/an-vat-mr-piiu-nguyen-binh/binh-luan,Mr. Piiu Drink & Food -  Nguyễn Bình,"651 Nguyễn Bình, Xã Phú Xuân",699,933770,2,0.0,2,0,0,0,27,0,10.6782649969141,106.7508678182863
/ho-chi-minh/bong-da-cafe-le-van-luong/binh-luan,Bóng Đá Café - Lê Văn Lương,"1319 Lê Văn Lương, Xã Phước Kiển",699,880684,2,0.0,2,0,0,0,26,0,10.694128,106.704508
/ho-chi-minh/co-tam-bun-rieu-cua/binh-luan,Cô Tám - Bún Riêu Cua,"218A Lê Văn Lương, Xã Phước Kiển",699,1032486,2,0.0,0,1,0,0,34,0,10.707504,106.702991
/ho-chi-minh/khuyen-nong-cafe-tra-sua/binh-luan,Khuyến Nông - Cafe & Trà Sữa,"1448 Lê Văn Lương, Xã Phước Kiểng, X. Nhơn Đức",699,747558,2,0.0,4,0,0,0,34,0,10.6876823,106.7021123
/ho-chi-minh/bot-chien-banh-trang-tron-le-van-luong/binh-luan,Bột Chiên & Bánh Tráng Trộn - Lê Văn Lương,"185B Lê Văn Lương, Xã Phước Kiển",699,882229,2,0.0,1,0,0,0,56,0,10.708135,106.70275
/ho-chi-minh/2-anh-em-pho-banh-canh-ca-loc-hue/binh-luan,2 Anh Em - Phở & Bánh Canh Cá Lóc Huế,"102 Nguyễn Văn Tạo, Ấp 3, Xã Long Thới",699,920806,2,0.0,0,0,0,0,47,0,10.665311,106.725478
/ho-chi-minh/banh-trang-nha-lam-shop-online-huynh-tan-phat/binh-luan,Bánh Tráng Nhà Làm - Shop Online - Huỳnh Tấn Phát,"Huỳnh Tấn Phát, Xã Phú Xuân",699,1000641,2,0.0,4,0,0,0,13,0,10.674415,106.765202
/ho-chi-minh/chan-ga-nha-lam-shop-online-huynh-tan-phat/binh-luan,Chân Gà Nhà Làm - Shop Online - Huỳnh Tấn Phát,"Huỳnh Tấn Phát, Xã Phú Xuân",699,1000639,2,0.0,2,0,0,0,25,0,10.674465,106.765149
/ho-chi-minh/nhan-tay-dac-san-mien-tay-shop-online/binh-luan,Nhân Tây - Đặc Sản Miền Tây - Shop Online,"1806/133 Huỳnh Tấn Phát, P. Phú Xuân",699,1028113,2,0.0,2,0,0,0,12,0,10.696306,106.73487
/ho-chi-minh/moc-nam-cafe-sinh-to/binh-luan,Mộc Nam - Cafe & Sinh Tố,72 Đường 11,699,238420,2,0.0,2,0,0,0,54,0,10.6828455,106.7353404
/ho-chi-minh/a-che-2-mi-ga-quay-gion/binh-luan,A. Chề 2 - Mì Gà Quay Giòn,"1149 Lê Văn Lương, Xã Phước Kiển",699,881147,2,0.0,1,0,0,0,40,0,10.700508,106.704166
/ho-chi-minh/s7-coffee/binh-luan,S7 Coffee,"S7 Khu Dân Cư Phước Kiển A, Tỉnh Lộ 826C, Xã Phước Kiển",699,752458,2,0.0,1,0,0,0,34,0,10.6990484,106.7044078
/ho-chi-minh/pho-viet-pho-ga-ta-xoi-ga-ha-noi/binh-luan,Phở Việt - Phở Gà Ta & Xôi Gà Hà Nội,"K01- 06 Sunrise Riverside, Nguyễn Hữu Thọ, Xã Phước Kiển",699,997647,2,0.0,0,2,0,0,55,0,10.7230812732247,106.7048413306474
/ho-chi-minh/cafe-68-nguyen-van-tao/binh-luan,Cafe 68 - Nguyễn Văn Tạo,35 Nguyễn Văn Tạo,699,847181,2,0.0,0,0,0,0,54,0,10.667133,106.724982
/ho-chi-minh/gateaux-de-min-nguyen-van-tao/binh-luan,Gâteaux De Min - Nguyễn Văn Tạo,"543 Nguyễn Văn Tạo, Xã Long Thới",699,1047210,2,0.0,0,0,0,0,128,0,10.640519,106.733536
/ho-chi-minh/tuan-coffee-tea/binh-luan,Tuan Coffee & Tea,"1053 Lê Văn Lương, Xã Phước Kiển",699,881151,2,0.0,1,0,0,0,34,0,10.708166,106.702996
/ho-chi-minh/banh-mi-nhung-nhung/binh-luan,Bánh Mì Nhung Nhung,"48 Lê Văn Lương, Xã Phước Kiển",699,902588,2,0.0,2,0,0,0,32,0,10.707373,106.703024
/ho-chi-minh/chay-vegan/binh-luan,Chay Vegan,"2681 Huỳnh Tấn Phát, Xã Phú Xuân",699,1039378,2,0.0,0,0,0,0,33,0,10.677062,106.7572
/ho-chi-minh/artea-tra-sua-cafe/binh-luan,Artea - Trà Sữa & Cafe,"676 Lê Văn Lương, Xã Phước Kiển",699,880506,2,0.0,1,0,0,0,34,0,10.69642,106.704737
/ho-chi-minh/tra-sua-tran-chau-1370a-le-van-luong/binh-luan,Trà Sữa Trân Châu - 1370A Lê Văn Lương,"1370A Lê Văn Lương, Phước Kiển",699,880508,2,0.0,1,0,0,0,40,0,10.694843,106.70474
/ho-chi-minh/the-coffee-dream/binh-luan,The Coffee Dream,"1005 Lê Văn Lương, Xã Phước Kiển",699,880675,2,0.0,1,0,0,0,19,0,10.700621,106.7042
/ho-chi-minh/bao-tran-cafe-tra-sua/binh-luan,Bảo Trân - Cafe & Trà Sữa,"1161 Lê Văn Lương, Xã Phước Kiển",699,881146,2,0.0,1,0,0,0,23,0,10.699939,106.704298
/ho-chi-minh/an-sang-cung-kawa-s-food/binh-luan,Ăn Sáng Cùng Kawa's Food,"1057 Lê Văn Lương, Ấp 3, X. Phước Kiển",699,925273,2,0.0,0,0,0,0,23,0,10.700556,106.704108
/ho-chi-minh/tra-sua-taka-tea-huynh-tan-phat/binh-luan,Trà Sữa TaKa Tea - Huỳnh Tấn Phát,"1806/64 Huỳnh Tấn Phát, TT. Nhà Bè",699,1032415,2,0.0,0,0,0,0,42,0,10.6974234,106.739029
/ho-chi-minh/pasta-catholic/binh-luan,Pasta Catholic,"197/26A Trần Thị Liền, P. Phước Kiển",699,935397,2,0.0,0,0,0,0,21,0,10.709794,106.7033226999999
/ho-chi-minh/co-nam-banh-mi-xiu-mai-banh-mi-bi/binh-luan,Cô Năm - Bánh Mì Xíu Mại & Bánh Mì Bì,"155A Lê Văn Lương, Xã Phước Kiển",699,882006,2,0.0,1,0,0,0,35,0,10.702902,106.703875
/ho-chi-minh/chao-dinh-duong-su-na/binh-luan,Cháo Dinh Dưỡng Su Na,"1417 Lê Văn Lương, Xã Phước Kiển",699,882042,2,0.0,1,0,0,0,40,0,10.69537,106.704901
/ho-chi-minh/quoc-dung-chao-goi-bun-mang-vit/binh-luan,"Quốc Dũng - Cháo, Gỏi & Bún Măng Vịt","159 Phạm Hữu Lầu, Xã Phước Kiển",699,880687,2,0.0,1,0,0,0,37,0,10.694751,106.706358
/ho-chi-minh/quan-chan-ga-linhlinh/binh-luan,Quán Chân Gà LinhLinh,"103 Lê Văn Lương, P. Phước Kiểng",699,1019954,2,0.0,0,0,0,0,27,0,10.707501,106.703391
/ho-chi-minh/shinee-ca-vien-chien/binh-luan,Shinee - Cá Viên Chiên,"1086/68 Huỳnh Tấn Phát, Xã Phú Xuân",699,1019024,2,0.0,0,0,0,0,13,0,10.696824,106.736637
/ho-chi-minh/pho-linh-2/binh-luan,Phở Linh 2,"2159 Huỳnh Tấn Phát, TT. Nhà Bè",699,1004952,2,0.0,1,0,0,0,11,0,10.692182,106.741173
/ho-chi-minh/lala-sweet-coffee/binh-luan,Lala Sweet Coffee,"B-1-6 Chung Cư Phú Hoàng Anh, 9 Nguyễn Hữu Thọ",699,298798,2,0.0,1,0,0,0,37,0,10.717155,106.703999
/ho-chi-minh/khu-am-thuc-sinh-thai-thap-nga-binh-xuyen-2/binh-luan,Tháp Ngà - Ẩm Thực Sinh Thái Bình Xuyên 2,"168 Nguyễn Hữu Thọ, P. Phước Kiểng",699,68867,2,6.632,708,0,70,70,69074,29,10.699058,106.713983
/ho-chi-minh/co-gia-quy-cafe-restaurant/binh-luan,Cổ Gia Quý - Cafe & Restaurant,"802A Nguyễn Văn Tạo, X. Hiệp Phước",699,34723,2,8.2,369,0,19,55,18366,8,10.62926,106.736517
/ho-chi-minh/inno-coffee/binh-luan,Inno Coffee,"D01 Chung Cư Phú Gia, Xã Phú Xuân",699,1000103,2,0.0,0,0,0,0,14,0,10.6779096,106.740088
/ho-chi-minh/van-kitchen-an-vat-handmade-shop-online/binh-luan,Vân Kitchen - Ăn Vặt Handmade - Shop Online,"C13.5, Cao Ốc Phú Hoàng Anh 1, Nguyễn Hữu Thọ, Xã Phước Kiển",699,755634,2,0.0,0,0,0,0,22,0,10.716926,106.703884
/ho-chi-minh/com-suon-hoang-long/binh-luan,Cơm Sườn Hoàng Long,"852 Lê Văn Lương, P. Phước Kiển",699,991921,2,0.0,0,1,0,0,10,0,10.700683,106.70414
/ho-chi-minh/napoli-coffee-dang-nhu-lam/binh-luan,Napoli Coffee - Đặng Nhữ Lâm,"1 Đặng Nhữ Lâm, TT. Nhà Bè",699,987475,2,0.0,0,0,0,0,16,0,10.69473,106.740331
/ho-chi-minh/com-tam-le-hieu/binh-luan,Cơm Tấm Lê Hiếu,"1070 Lê Văn Lương, Xã Phước Kiển",699,935138,2,0.0,1,1,0,0,28,0,10.6903832,106.7026381
/ho-chi-minh/hang-duong-com-trua-binh-dan-cafe-giai-khat/binh-luan,Hàng Dương - Cơm Trưa Bình Dân & Cafe Giải Khát,"1193 Lê Văn Lương, Xã Phước Kiển",699,881145,2,0.0,1,1,0,0,23,0,10.699759,106.704326
/ho-chi-minh/com-binh-dan-1079-le-van-luong/binh-luan,Cơm Bình Dân - 1079 Lê Văn Lương,"1079 Lê Văn Lương, Xã Phước Kiển",699,881725,2,0.0,1,0,0,0,27,0,10.706087,106.703401
/ho-chi-minh/pho-bun-bo-hue-384a-huynh-tan-phat/binh-luan,Phở & Bún Bò Huế - 384A Huỳnh Tấn Phát,"384A Huỳnh Tấn Phát, Nhà Bè",699,892924,2,0.0,0,0,0,0,23,0,10.701377,106.738103
/ho-chi-minh/pho-long-an/binh-luan,Phở Long An,"1428 Lê Văn Lương, Xã Phước Kiển",699,880513,2,0.0,1,0,0,0,12,0,10.692835,106.703679
/ho-chi-minh/tra-sua-hot/binh-luan,Trà Sữa Hot,"1393 Lê Văn Lương, Xã Phước Kiển",699,880679,2,0.0,1,0,0,0,21,0,10.691186,106.702901
/ho-chi-minh/lo-banh-mi-234/binh-luan,Lò Bánh Mì 234,"1369 Lê Văn Lương, Xã Phước Kiển",699,880680,2,0.0,1,0,0,0,31,0,10.692272,106.703425
/ho-chi-minh/mon-an-gia-dinh-nuong-lau/binh-luan,Món Ăn Gia Đình - Nướng & Lẩu,"1237 Lê Văn Lương, Xã Phước Kiển",699,880689,2,0.0,1,1,0,0,31,0,10.696924,106.704722
/ho-chi-minh/iron-coffee-and-tea/binh-luan,Iron Coffee And Tea,"760D Phan Văn Bảy, P. Hiệp Phước",699,946544,2,0.0,0,0,0,0,38,0,10.6322114403333,106.7351660093918
/ho-chi-minh/kaka-coffee-le-van-luong/binh-luan,Kaka Coffee - Lê Văn Lương,"915/35 Lê Văn Lương, Xã Phước Kiển",699,882221,2,0.0,1,0,0,0,28,0,10.699246,106.704429
/ho-chi-minh/pho-hai-thuan/binh-luan,Phở Hai Thuận,"1405 Lê Văn Lương, Xã Phước Kiển",699,882227,2,0.0,1,0,0,0,11,0,10.696945,106.704787
/ho-chi-minh/ghien-tra-sua-le-van-luong/binh-luan,Ghiền Trà Sữa - Lê Văn Lương,"185B Lê Văn Lương, Xã Phước Kiển",699,882230,2,0.0,1,0,0,0,19,0,10.697812,106.704656
/ho-chi-minh/sky-coo2-quan-an-nhanh/binh-luan,Sky Coo2 - Quán Ăn Nhanh,"1391 Lê Văn Lương, Xã Phước Kiển",699,882232,2,0.0,1,0,0,0,17,0,10.698805,106.704542
/ho-chi-minh/quan-cay-duoc/binh-luan,Quán Cây Đước,"21/4 Nguyễn Bình, X. Phú Xuân",699,35228,2,8.3,14,0,2,1,1690,1,10.6750882,106.740385
/ho-chi-minh/quynh-anh-coffee-nguyen-binh/binh-luan,Quỳnh Anh Coffee - Nguyễn Bình ,"400D Nguyễn Bình, X. Nhơn Đức",699,932850,2,0.0,0,0,0,0,37,0,10.670575,106.719674
/ho-chi-minh/107-cafe-le-van-luong/binh-luan,107 Cafe - Lê Văn Lương,"107 Lê Văn Lương, Xã Phước Kiển",699,647927,2,0.0,0,0,0,0,37,0,10.691932,106.703119
/ho-chi-minh/cafe-san-vuon-nguyen-binh/binh-luan,Cafe Sân Vườn - Nguyễn Bình,601 Nguyễn Bình,699,690587,2,0.0,0,0,0,0,30,0,10.6715876580398,106.7252237722277
/ho-chi-minh/litiki-coffee-tea/binh-luan,Litiki - Coffee & Tea,1236/12 Lê Văn Lương,699,750747,2,0.0,0,0,0,0,22,0,10.7017028,106.7039103498471
/ho-chi-minh/bo-de-cafe-nuoc-giai-khat/binh-luan,Bồ Đề - Cafe & Nước Giải Khát,"770 Nguyễn Văn Tạo, Ấp 1",699,625683,2,0.0,0,0,0,0,21,0,10.6346780165376,106.7352123185992
/ho-chi-minh/daily-espresso-cafe/binh-luan,Daily Espresso Cafe,"546 Nguyễn Văn Tạo, Xã Long Thới",699,901933,2,0.0,0,0,0,0,23,0,10.644427,106.73216
/ho-chi-minh/chao-mina-shop-online/binh-luan,Cháo Mina - Shop Online,"12/1 Nguyễn Bình, Xã Phú Xuân",699,892107,2,0.0,0,0,0,0,19,0,10.677973,106.753366
/ho-chi-minh/bot-chien-ngo-gion-vang/binh-luan,Bột Chiên Ngô Giòn Vàng,"1632/11/16/56, KP. 5, Huỳnh Tấn Phát, X. Phú Xuân",699,891430,2,0.0,0,1,0,0,28,0,10.700911,106.736128
/ho-chi-minh/tendonz-bo-vien-shinaz-shop-online/binh-luan,TendonZ - Bò Viên Shinaz - Shop Online,2174/2/13 Huỳnh Tấn Phát,699,633471,2,0.0,0,0,0,0,35,0,10.69936,106.7384
/ho-chi-minh/lac-hong-lau-cac-mon-nuong/binh-luan,Lạc Hồng - Lẩu & Các Món Nướng,4/2 Nguyễn Bình,699,695299,2,0.0,0,0,0,0,32,0,10.677961,106.75329
/ho-chi-minh/che-bao-ngoc/binh-luan,Chè Bảo Ngọc,"Chung cư The Park Residence,12 Nguyễn Hữu Thọ, Xã Phước Kiển",699,793479,2,0.0,0,0,0,0,22,0,10.712178,106.707431
